Name,Listing_id,Profile_url,Street_address,City,Province,Postal_code,Full_address,Phones,Website,Categories,Sponsored,What,Where
Ateliers G Paquette Inc,100227496,https://www.yellowpages.ca/bus/Quebec/St-Leonard/Ateliers-G-Paquette-Inc/100227496.html?what=fridge&where=Laval+QC&useContext=true,6744 Jarry Est,St-Léonard,QC,H1P 1W3,"6744 Jarry Est, St-Léonard, QC, H1P 1W3",514-416-7634,https://www.yellowpages.ca,Major Appliance Stores,True,fridge,laval QC
Germain Larivière,7904946,https://www.yellowpages.ca/bus/Quebec/Laval/Germain-Lariviere/7904946.html?what=fridge&where=Laval+QC&useContext=true,"2900, av Jacques-Bureau",Laval,QC,H7P 6E1,"2900, av Jacques-Bureau, Laval, QC, H7P 6E1","514-866-8691,1-800-363-1336",http://www.germainlariviere.com/,Major Appliance Stores,False,fridge,laval QC
Corbeil Appliances,8158054,https://www.yellowpages.ca/bus/Quebec/Laval/Corbeil-Appliances/8158054.html?what=fridge&where=Laval+QC&useContext=true,3607 Autoroute 440 O,Laval,QC,H7P 5P6,"3607 Autoroute 440 O, Laval, QC, H7P 5P6",450-682-4090,http://www.corbeilelectro.com/,"Major Appliance Stores, Appliance Repair & Service",False,fridge,laval QC
Canadian Tire,7446793,https://www.yellowpages.ca/bus/Quebec/Laval/Canadian-Tire/7446793.html?what=fridge&where=Laval+QC&useContext=true,1450 Boul. Le Corbusier,Laval,QC,H7N 6J5,"1450 Boul. Le Corbusier, Laval, QC, H7N 6J5",450-682-9922,https://www.canadiantire.ca/en/store-details/qc/laval-le-corbusier-qc-300.html?utm_source=yext&utm_medium=lss,"Department Stores, New Auto Parts & Supplies",False,fridge,laval QC
Canadian Tire,3183435,https://www.yellowpages.ca/bus/Quebec/Laval/Canadian-Tire/3183435.html?what=fridge&where=Laval+QC&useContext=true,500 Chomedey (A-13) Ouest,Laval,QC,H7X 3S9,"500 Chomedey (A-13) Ouest, Laval, QC, H7X 3S9",450-969-4141,https://www.canadiantire.ca/en/store-details/qc/laval-ste-dorothee-qc-155.html?utm_source=yext&utm_medium=lss,"Department Stores, New Auto Parts & Supplies",False,fridge,laval QC
Canadian Tire,7796510,https://www.yellowpages.ca/bus/Quebec/Laval/Canadian-Tire/7796510.html?what=fridge&where=Laval+QC&useContext=true,"544, boul Curé-Labelle",Laval,QC,H7P 2P4,"544, boul Curé-Labelle, Laval, QC, H7P 2P4",450-963-8686,https://canadiantire.ca/,"Department Stores, New Auto Parts & Supplies",False,fridge,laval QC
Service 2000 Électroménagers,2512022,https://www.yellowpages.ca/bus/Quebec/Laval/Service-2000-Electromenagers/2512022.html?what=fridge&where=Laval+QC&useContext=true,2285 Rue Michelin,Laval,QC,H7L 5B8,"2285 Rue Michelin, Laval, QC, H7L 5B8",514-384-2560,http://www.cteq.ca/,"Major Appliance Stores, Appliance Repair & Service",False,fridge,laval QC
S E S Service,2674373,https://www.yellowpages.ca/bus/Quebec/Laval/S-E-S-Service/2674373.html?what=fridge&where=Laval+QC&useContext=true,22 boul Lévesque E,Laval,QC,H7G 1B4,"22 boul Lévesque E, Laval, QC, H7G 1B4","450-669-2987,450-910-0618",https://www.yellowpages.ca,"Major Appliance Stores, Appliance Parts & Supplies",False,fridge,laval QC
Service 2000 Electroménagers,2092682,https://www.yellowpages.ca/bus/Quebec/Laval/Service-2000-Electromenagers/2092682.html?what=fridge&where=Laval+QC&useContext=true,2285 Rue Michelin,Laval,QC,H7L 5B8,"2285 Rue Michelin, Laval, QC, H7L 5B8",450-485-0337,https://www.service2000.ca/,"Major Appliance Stores, Appliance Repair & Service",False,fridge,laval QC
Ameublement J C Perreault,7960572,https://www.yellowpages.ca/bus/Quebec/Laval/Ameublement-J-C-Perreault/7960572.html?what=fridge&where=Laval+QC&useContext=true,1900 Rue Maurice-Gauvin,Laval,QC,H7S 1Z5,"1900 Rue Maurice-Gauvin, Laval, QC, H7S 1Z5","1-855-681-7211,450-681-7211",http://www.jcperreault.com/,"Major Appliance Stores, Mattresses & Box Springs, More…",True,fridge,laval QC
Pierre Bouchard Electrique Inc,2639074,https://www.yellowpages.ca/bus/Quebec/Laval/Pierre-Bouchard-Electrique-Inc/2639074.html?what=fridge&where=Laval+QC&useContext=true,3570 rue Rivard,Laval,QC,H7E 1A5,"3570 rue Rivard, Laval, QC, H7E 1A5",450-233-5643,https://www.yellowpages.ca,"Major Appliance Stores, Electric Heating Equipment & Systems, More…",True,fridge,laval QC
Electro-Experts Inc,7915811,https://www.yellowpages.ca/bus/Quebec/Laval/Electro-Experts-Inc/7915811.html?what=fridge&where=Laval+QC&useContext=true,2275 boul Dagenais O,Laval,QC,H7L 6B1,"2275 boul Dagenais O, Laval, QC, H7L 6B1",450-937-3733,https://www.yellowpages.ca,"Major Appliance Stores, Appliance Manufacturers & Wholesalers",True,fridge,laval QC
Appareil Electrotech Laval Inc,3071434,https://www.yellowpages.ca/bus/Quebec/Appareil-Electrotech-Laval-Inc/3071434.html?what=fridge&where=Laval+QC&useContext=true&assetId=1-5079020588,N/A,N/A,N/A,N/A,N/A,450-662-1617,https://www.yellowpages.ca,"Major Appliance Stores, More…",True,fridge,laval QC
Meuble Fleury,8092515,https://www.yellowpages.ca/bus/Quebec/Montreal/Meuble-Fleury/8092515.html?what=fridge&where=Laval+QC&useContext=true,1850 rue Fleury E,Montréal,QC,H2B 1H6,"1850 rue Fleury E, Montréal, QC, H2B 1H6",514-355-2424,N/A,Major Appliance Stores,False,fridge,laval QC
Hudson's Bay - CLOSED,3395003,https://www.yellowpages.ca/bus/Quebec/Mont-Royal/Hudson-s-Bay-CLOSED/3395003.html?what=fridge&where=Laval+QC&useContext=true,"2435, ch Rockland",Mont-Royal,QC,H3P 2Z3,"2435, ch Rockland, Mont-Royal, QC, H3P 2Z3","514-348-6851,514-739-5521",https://locations.thebay.com/,Department Stores,False,fridge,laval QC
Centre De Couture G E M A Inc,101818322,https://www.yellowpages.ca/bus/Quebec/Centre-De-Couture-G-E-M-A-Inc/101818322.html?what=fridge&where=Laval+QC&useContext=true,239 boul Labelle,N/A,QC,J7E 2X6,"239 boul Labelle, QC, J7E 2X6",450-437-9562,N/A,Major Appliance Stores,False,fridge,laval QC
Siroflex Ltée,1456314,https://www.yellowpages.ca/bus/Quebec/Montreal/Siroflex-Ltee/1456314.html?what=fridge&where=Laval+QC&useContext=true,9900 St Laurent,Montréal,QC,H3L 2N7,"9900 St Laurent, Montréal, QC, H3L 2N7",514-381-2278,http://yp.ca/bus/7971048,"Major Appliance Stores, Washer & Dryer Sales & Service, More…",False,fridge,laval QC
Ateliers S O S Electroménagers Enr,3365148,https://www.yellowpages.ca/bus/Quebec/Ateliers-S-O-S-Electromenagers-Enr/3365148.html?what=fridge&where=Laval+QC&useContext=true,N/A,N/A,N/A,N/A,N/A,450-669-9624,https://atelierssoselectromenagers.com/,"Refrigerator & Freezer Sales & Service, Major Appliance Stores",False,fridge,laval QC
Alain Mongeau Ménagers Enr,100226863,https://www.yellowpages.ca/bus/Quebec/Alain-Mongeau-Menagers-Enr/100226863.html?what=fridge&where=Laval+QC&useContext=true,N/A,N/A,N/A,N/A,N/A,450-621-3993,http://amongeauservices.com/,Major Appliance Stores,False,fridge,laval QC
Électro Serge Fortin,100340262,https://www.yellowpages.ca/bus/Quebec/Electro-Serge-Fortin/100340262.html?what=fridge&where=Laval+QC&useContext=true,N/A,N/A,N/A,N/A,N/A,514-234-0109,N/A,Major Appliance Stores,False,fridge,laval QC
Dionne Service Enr,7944626,https://www.yellowpages.ca/bus/Quebec/Dionne-Service-Enr/7944626.html?what=fridge&where=Laval+QC&useContext=true,N/A,N/A,N/A,N/A,N/A,450-622-4511,http://www.dionneservice.com/,"Major Appliance Stores, Appliance Repair & Service",False,fridge,laval QC
Dionne Service Enr,100159061,https://www.yellowpages.ca/bus/Quebec/Dionne-Service-Enr/100159061.html?what=fridge&where=Laval+QC&useContext=true,N/A,N/A,N/A,N/A,N/A,"1-877-546-9886,514-234-0986",http://www.dionneservice.com/,Major Appliance Stores,False,fridge,laval QC
Robert Milan Electro,7196687,https://www.yellowpages.ca/bus/Quebec/Montreal/Robert-Milan-Electro/7196687.html?what=fridge&where=Laval+QC&useContext=true,N/A,Montréal,QC,N/A,"Montréal, QC",514-887-9924,N/A,Major Appliance Stores,False,fridge,laval QC
Atelier Yves Contant,100881024,https://www.yellowpages.ca/bus/Quebec/Laval/Atelier-Yves-Contant/100881024.html?what=fridge&where=Laval+QC&useContext=true,N/A,Laval,QC,N/A,"Laval, QC","1-855-815-3030,450-669-3892",https://pieceselectros.com/,"Major Appliance Stores, Appliance Repair & Service",False,fridge,laval QC
Appareil Electrotech,3365608,https://www.yellowpages.ca/bus/Quebec/Appareil-Electrotech/3365608.html?what=fridge&where=Laval+QC&useContext=true,N/A,N/A,N/A,N/A,N/A,450-669-6452,N/A,"Major Appliance Stores, Dishwashers",False,fridge,laval QC
Midbec Ltée,8189049,https://www.yellowpages.ca/bus/Quebec/Laval/Midbec-Ltee/8189049.html?what=fridge&where=Laval+QC&useContext=true,"2932, boul. Industriel",Laval,QC,H7L 4C4,"2932, boul. Industriel, Laval, QC, H7L 4C4",450-629-5559,https://midbec.com/,Major Appliance Stores,False,fridge,laval QC
Clinique De L'Electro,6458009,https://www.yellowpages.ca/bus/Quebec/Montreal/Clinique-De-L-Electro/6458009.html?what=fridge&where=Laval+QC&useContext=true,N/A,Montréal,QC,N/A,"Montréal, QC",514-992-2534,N/A,Major Appliance Stores,False,fridge,laval QC
Clinique de L'Electro,100019495,https://www.yellowpages.ca/bus/Quebec/Clinique-de-L-Electro/100019495.html?what=fridge&where=Laval+QC&useContext=true,N/A,N/A,N/A,N/A,N/A,450-963-4427,http://www.cliniquedelelectro.com/,"Refrigerator & Freezer Sales & Service, Major Appliance Stores, More…",False,fridge,laval QC
Ateliers G Paquette Inc,122505,https://www.yellowpages.ca/bus/Quebec/Repentigny/Ateliers-G-Paquette-Inc/122505.html?what=fridge&where=Laval+QC&useContext=true,104 Rue Laroche,Repentigny,QC,J6A 7M5,"104 Rue Laroche, Repentigny, QC, J6A 7M5","450-875-1989,1-866-875-5631,450-581-0301",https://www.yellowpages.ca,Major Appliance Stores,False,fridge,laval QC
Gestion Fstg Inc,7190163,https://www.yellowpages.ca/bus/Quebec/Terrebonne/Gestion-Fstg-Inc/7190163.html?what=fridge&where=Laval+QC&useContext=true,"4785, boul Laurier",Terrebonne,QC,J7M 1C3,"4785, boul Laurier, Terrebonne, QC, J7M 1C3","1-866-746-7287,450-477-4013",http://www.canadiantire.ca/,"Department Stores, New Auto Parts & Supplies",False,fridge,laval QC
Cantin Service 2000,102002809,https://www.yellowpages.ca/bus/Quebec/Mascouche/Cantin-Service-2000/102002809.html?what=fridge&where=Laval+QC&useContext=true,911 Ch Des Anglais,Mascouche,QC,J7L 3R8,"911 Ch Des Anglais, Mascouche, QC, J7L 3R8",450-312-6223,N/A,Major Appliance Stores,False,fridge,laval QC
Concept Montage Assemblage,7951968,https://www.yellowpages.ca/bus/Quebec/Mascouche/Concept-Montage-Assemblage/7951968.html?what=fridge&where=Laval+QC&useContext=true,787 RUE BEAUDOIN,Mascouche,QC,J7K 2R9,"787 RUE BEAUDOIN, Mascouche, QC, J7K 2R9",514-755-7372,http://www.installationconcept.com/,"Major Appliance Stores, Appliance Repair & Service",False,fridge,laval QC
Mékano Électroménagers,7693790,https://www.yellowpages.ca/bus/Quebec/Mascouche/Mekano-Electromenagers/7693790.html?what=fridge&where=Laval+QC&useContext=true,2653 Rue Dumont,Mascouche,QC,J7K 1R3,"2653 Rue Dumont, Mascouche, QC, J7K 1R3",450-419-5896,N/A,"Major Appliance Stores, Appliance Repair & Service",False,fridge,laval QC
Bazar Du Nord,101137049,https://www.yellowpages.ca/bus/Quebec/Terrebonne/Bazar-Du-Nord/101137049.html?what=fridge&where=Laval+QC&useContext=true,"999, ch du Côteau",Terrebonne,QC,J6W 5Y8,"999, ch du Côteau, Terrebonne, QC, J6W 5Y8",450-961-2002,N/A,Major Appliance Stores,False,fridge,laval QC
Bazar Du Nord En Gros,101588261,https://www.yellowpages.ca/bus/Quebec/Terrebonne/Bazar-Du-Nord-En-Gros/101588261.html?what=fridge&where=Laval+QC&useContext=true,"999, ch du Côteau",Terrebonne,QC,J6W 5Y8,"999, ch du Côteau, Terrebonne, QC, J6W 5Y8",450-961-2002,http://www.bazardunord.ca/,Major Appliance Stores,False,fridge,laval QC
Atelier André,6941169,https://www.yellowpages.ca/bus/Quebec/Terrebonne/Atelier-Andre/6941169.html?what=fridge&where=Laval+QC&useContext=true,"815, rue Gagnon",Terrebonne,QC,J6W 2P2,"815, rue Gagnon, Terrebonne, QC, J6W 2P2",450-471-3295,N/A,Major Appliance Stores,False,fridge,laval QC
Canadian Tire,5359378,https://www.yellowpages.ca/bus/Quebec/Terrebonne/Canadian-Tire/5359378.html?what=fridge&where=Laval+QC&useContext=true,"1250, boul Moody",Terrebonne,QC,J6W 3K9,"1250, boul Moody, Terrebonne, QC, J6W 3K9",450-471-2220,https://canadiantire.ca/,"Department Stores, New Auto Parts & Supplies, More…",False,fridge,laval QC
Ateliers SOS Electroménagers Enr,3365147,https://www.yellowpages.ca/bus/Quebec/Terrebonne/Ateliers-SOS-Electromenagers-Enr/3365147.html?what=fridge&where=Laval+QC&useContext=true,N/A,Terrebonne,QC,J6X 1B4,"Terrebonne, QC, J6X 1B4","450-492-2223,514-942-8807",https://atelierssoselectromenagers.com/,Major Appliance Stores,False,fridge,laval QC
Bsh Home Appliances,7132671,https://www.yellowpages.ca/bus/Quebec/Anjou/Bsh-Home-Appliances/7132671.html?what=fridge&where=Laval+QC&useContext=true,"9220, boul du Golf",Anjou,QC,H1J 3A1,"9220, boul du Golf, Anjou, QC, H1J 3A1",514-355-4002,http://www.bosch-home.ca/,Major Appliance Stores,False,fridge,laval QC
Bsh Home Appliances,6948001,https://www.yellowpages.ca/bus/Quebec/Anjou/Bsh-Home-Appliances/6948001.html?what=fridge&where=Laval+QC&useContext=true,"9220, boul du Golf",Anjou,QC,H1J 3A1,"9220, boul du Golf, Anjou, QC, H1J 3A1",514-353-3232,http://www.bosch-home.ca/,"Major Appliance Stores, Housewares",False,fridge,laval QC
Réfrigération Béliveau Inc,7906570,https://www.yellowpages.ca/bus/Quebec/Terrebonne/Refrigeration-Beliveau-Inc/7906570.html?what=fridge&where=Laval+QC&useContext=true,"1935, rue Durivage",Terrebonne,QC,J6Y 1H1,"1935, rue Durivage, Terrebonne, QC, J6Y 1H1",514-377-6755,http://www.facebook.com/1994187740836733,Refrigerator & Freezer Sales & Service,False,fridge,laval QC
Lamine Amiri,102003166,https://www.yellowpages.ca/bus/Quebec/Bois-Des-Filion/Lamine-Amiri/102003166.html?what=fridge&where=Laval+QC&useContext=true,2 Crois Des Marronniers,Bois-Des-Filion,QC,J6Z 0B3,"2 Crois Des Marronniers, Bois-Des-Filion, QC, J6Z 0B3",514-214-4867,N/A,Major Appliance Stores,False,fridge,laval QC
Appareil Michel Lapointe,101182425,https://www.yellowpages.ca/bus/Quebec/Blainville/Appareil-Michel-Lapointe/101182425.html?what=fridge&where=Laval+QC&useContext=true,"17, rue de Matagami",Blainville,QC,J7B 1W2,"17, rue de Matagami, Blainville, QC, J7B 1W2",450-437-1364,N/A,Major Appliance Stores,False,fridge,laval QC
Service Michel Lapointe,7685132,https://www.yellowpages.ca/bus/Quebec/Blainville/Service-Michel-Lapointe/7685132.html?what=fridge&where=Laval+QC&useContext=true,17 rue de Matagami,Blainville,QC,J7B 1W2,"17 rue de Matagami, Blainville, QC, J7B 1W2",450-987-1583,http://www.airclimatisemichellapointe.ca/,"Major Appliance Stores, Appliance Repair & Service",False,fridge,laval QC
9099-1464 Québec Inc,7589845,https://www.yellowpages.ca/bus/Quebec/St-Eustache/9099-1464-Quebec-Inc/7589845.html?what=fridge&where=Laval+QC&useContext=true,219 Robinson,St Eustache,QC,J7R 5R4,"219 Robinson, St Eustache, QC, J7R 5R4",450-473-8000,N/A,Major Appliance Stores,False,fridge,laval QC
E.B. Plomberie,104899865,https://www.yellowpages.ca/bus/Quebec/E-B-Plomberie/104899865.html?what=plumber&where=Laval+QC&useContext=true,N/A,N/A,N/A,N/A,N/A,438-924-8640,N/A,Plumbers & Plumbing Contractors,False,plumber,laval QC
Boules Plumbing,101256114,https://www.yellowpages.ca/bus/Quebec/Laval/Boules-Plumbing/101256114.html?what=plumber&where=Laval+QC&useContext=true,1037 av Jean-Charles,Laval,QC,H7L 5J7,"1037 av Jean-Charles, Laval, QC, H7L 5J7",514-916-6881,N/A,Plumbers & Plumbing Contractors,False,plumber,laval QC
Paris Plumbing Laval,104169145,https://www.yellowpages.ca/bus/Quebec/Laval/Paris-Plumbing-Laval/104169145.html?what=plumber&where=Laval+QC&useContext=true,2138 Boul Des Laurentides,Laval,QC,H7M 2Y6,"2138 Boul Des Laurentides, Laval, QC, H7M 2Y6",450-600-3328,N/A,Plumbers & Plumbing Contractors,False,plumber,laval QC
Double Plumbing Services,104168648,https://www.yellowpages.ca/bus/Quebec/Vimont/Double-Plumbing-Services/104168648.html?what=plumber&where=Laval+QC&useContext=true,1768C Boul Des Laurentides,Vimont,QC,H7M 2P6,"1768C Boul Des Laurentides, Vimont, QC, H7M 2P6",450-600-6889,N/A,Plumbers & Plumbing Contractors,False,plumber,laval QC
Alex Plomberie Et Chauffage Enr. 2757-9150 Québe c Inc.,104196463,https://www.yellowpages.ca/bus/Quebec/Laval/Alex-Plomberie-Et-Chauffage-Enr-2757-9150-Quebe-c-Inc/104196463.html?what=plumber&where=Laval+QC&useContext=true,322 Rue Saint-Hubert,Laval,QC,H7G 2Y6,"322 Rue Saint-Hubert, Laval, QC, H7G 2Y6",450-667-6432,N/A,Plumbers & Plumbing Contractors,False,plumber,laval QC
Voda Plumbing Laval,104168971,https://www.yellowpages.ca/bus/Quebec/Laval/Voda-Plumbing-Laval/104168971.html?what=plumber&where=Laval+QC&useContext=true,3300-3340 100E Av,Laval,QC,H7T 0J7,"3300-3340 100E Av, Laval, QC, H7T 0J7",450-367-6366,N/A,Plumbers & Plumbing Contractors,False,plumber,laval QC
Plomberie Chauffage Eco Inc,102837422,https://www.yellowpages.ca/bus/Quebec/Laval/Plomberie-Chauffage-Eco-Inc/102837422.html?what=plumber&where=Laval+QC&useContext=true,7776 Rue Des Amandiers,Laval,QC,H7A 4J2,"7776 Rue Des Amandiers, Laval, QC, H7A 4J2",438-356-7575,N/A,Plumbers & Plumbing Contractors,False,plumber,laval QC
Gfm Plumbing & Electric,104170566,https://www.yellowpages.ca/bus/Quebec/Laval/Gfm-Plumbing-Electric/104170566.html?what=plumber&where=Laval+QC&useContext=true,1135 Boul Lesage,Laval,QC,H7E 4V4,"1135 Boul Lesage, Laval, QC, H7E 4V4",450-234-4927,N/A,Plumbers & Plumbing Contractors,False,plumber,laval QC
Plomberie Jj,103115875,https://www.yellowpages.ca/bus/Quebec/Laval/Plomberie-Jj/103115875.html?what=plumber&where=Laval+QC&useContext=true,3473 Boul Sainte-Rose,Laval,QC,H7P 4M1,"3473 Boul Sainte-Rose, Laval, QC, H7P 4M1",514-808-3898,N/A,Plumbers & Plumbing Contractors,False,plumber,laval QC
MSR mécanique et plomberie inc,103116966,https://www.yellowpages.ca/bus/Quebec/Boisbriand/MSR-mecanique-et-plomberie-inc/103116966.html?what=plumber&where=Laval+QC&useContext=true,3675 Boul De La Grande-Allée,Boisbriand,QC,J7H 1H5,"3675 Boul De La Grande-Allée, Boisbriand, QC, J7H 1H5",450-818-4441,https://www.facebook.com/msrmecaniqueetplomberie,Plumbers & Plumbing Contractors,False,plumber,laval QC
Plomberie HK et Fils - Plombier Saint-François,104497516,https://www.yellowpages.ca/bus/Quebec/Laval/Plomberie-HK-et-Fils-Plombier-Saint-Francois/104497516.html?what=plumber&where=Laval+QC&useContext=true,8505 Rue Adrien #204,Laval,QC,H7A 1J9,"8505 Rue Adrien #204, Laval, QC, H7A 1J9",514-880-8422,https://www.411habitation.com/plombiers/laval/saint-francois-2/plombiers-saint-francois.htm,Plumbers & Plumbing Contractors,False,plumber,laval QC
Groupe Deschênes Inc,6843131,https://www.yellowpages.ca/bus/Quebec/Montreal/Groupe-Deschenes-Inc/6843131.html?what=plumber&where=Laval+QC&useContext=true,250-3901 rue Jarry E,Montréal,QC,H1Z 2G1,"250-3901 rue Jarry E, Montréal, QC, H1Z 2G1","514-374-3110,514-374-5141,1-800-361-1784",http://www.deschenes.ca/,"Plumbers & Plumbing Contractors, Fire Protection Equipment, More…",False,plumber,laval QC
Plomberie Saint Michel,100504226,https://www.yellowpages.ca/bus/Quebec/Plomberie-Saint-Michel/100504226.html?what=plumber&where=Laval+QC&useContext=true,N/A,N/A,N/A,N/A,N/A,514-224-3800,N/A,"Plumbers & Plumbing Contractors, Home Improvements & Renovations",False,plumber,laval QC
Plombier,100504413,https://www.yellowpages.ca/bus/Quebec/Plombier/100504413.html?what=plumber&where=Laval+QC&useContext=true,N/A,N/A,N/A,N/A,N/A,450-663-1151,N/A,Plumbers & Plumbing Contractors,False,plumber,laval QC
Plombier,100504595,https://www.yellowpages.ca/bus/Quebec/Plombier/100504595.html?what=plumber&where=Laval+QC&useContext=true,N/A,N/A,N/A,N/A,N/A,450-664-2567,N/A,Plumbers & Plumbing Contractors,False,plumber,laval QC
Lpj Plumbing Inc,100504529,https://www.yellowpages.ca/bus/Quebec/Laval/Lpj-Plumbing-Inc/100504529.html?what=plumber&where=Laval+QC&useContext=true,1461 Av Webb,Laval,QC,H7W 3R9,"1461 Av Webb, Laval, QC, H7W 3R9",450-682-8922,N/A,Plumbers & Plumbing Contractors,False,plumber,laval QC
Plombier,100504151,https://www.yellowpages.ca/bus/Quebec/Plombier/100504151.html?what=plumber&where=Laval+QC&useContext=true,N/A,N/A,N/A,N/A,N/A,450-575-7707,N/A,Plumbers & Plumbing Contractors,False,plumber,laval QC
Plomberie,100503991,https://www.yellowpages.ca/bus/Ontario/Plomberie/100503991.html?what=plumber&where=Laval+QC&useContext=true,N/A,N/A,N/A,N/A,N/A,613-802-2821,N/A,Plumbers & Plumbing Contractors,False,plumber,laval QC
Bob le plombier,100845452,https://www.yellowpages.ca/bus/Quebec/Bob-le-plombier/100845452.html?what=plumber&where=Laval+QC&useContext=true,N/A,N/A,N/A,N/A,N/A,450-933-0387,N/A,Plumbers & Plumbing Contractors,False,plumber,laval QC
Plomberie Mario Thivierge Inc,100604141,https://www.yellowpages.ca/bus/Quebec/Laval/Plomberie-Mario-Thivierge-Inc/100604141.html?what=plumber&where=Laval+QC&useContext=true,N/A,Laval,QC,N/A,"Laval, QC",450-824-3256,N/A,Plumbers & Plumbing Contractors,False,plumber,laval QC
J A Barron Et Fils Ltée,102696695,https://www.yellowpages.ca/bus/Quebec/J-A-Barron-Et-Fils-Ltee/102696695.html?what=plumber&where=Laval+QC&useContext=true,590 Lambert,N/A,QC,H7A 2E9,"590 Lambert, QC, H7A 2E9",514-386-7475,N/A,Plumbers & Plumbing Contractors,False,plumber,laval QC
Plomberie M Milette Inc,102694306,https://www.yellowpages.ca/bus/Quebec/Plomberie-M-Milette-Inc/102694306.html?what=plumber&where=Laval+QC&useContext=true,N/A,N/A,N/A,N/A,N/A,450-973-2087,N/A,Plumbers & Plumbing Contractors,False,plumber,laval QC
J'aime mon Plombier,102723688,https://www.yellowpages.ca/bus/Quebec/SALABERRY-DE-VALLEYFIELD/J-aime-mon-Plombier/102723688.html?what=plumber&where=Laval+QC&useContext=true,"33 RUE DES ÉRABLES,",SALABERRY-DE-VALLEYFIELD,QC,J6T 5A3,"33 RUE DES ÉRABLES,, SALABERRY-DE-VALLEYFIELD, QC, J6T 5A3",514-575-0257,N/A,Plumbers & Plumbing Contractors,False,plumber,laval QC
L`Eau-Pro 2010 Inc,102731346,https://www.yellowpages.ca/bus/Quebec/L-Eau-Pro-2010-Inc/102731346.html?what=plumber&where=Laval+QC&useContext=true,N/A,N/A,N/A,N/A,N/A,514-707-7474,N/A,Plumbers & Plumbing Contractors,False,plumber,laval QC
Plomberie Genitek,102453039,https://www.yellowpages.ca/bus/Quebec/Terrebonne/Plomberie-Genitek/102453039.html?what=plumber&where=Laval+QC&useContext=true,385 Rue De Chauvigny,Terrebonne,QC,J6Y 2C1,"385 Rue De Chauvigny, Terrebonne, QC, J6Y 2C1",450-621-8081,N/A,Plumbers & Plumbing Contractors,False,plumber,laval QC
Prospas,102499044,https://www.yellowpages.ca/bus/Quebec/Laval/Prospas/102499044.html?what=plumber&where=Laval+QC&useContext=true,7255 Rue André-Breton,Laval,QC,H7R 5Z7,"7255 Rue André-Breton, Laval, QC, H7R 5Z7",450-314-2917,N/A,Plumbers & Plumbing Contractors,False,plumber,laval QC
Plomberie Champagne Inc,5928633,https://www.yellowpages.ca/bus/Quebec/Plomberie-Champagne-Inc/5928633.html?what=plumber&where=Laval+QC&useContext=true,N/A,N/A,QC,H7L 3W3,"QC, H7L 3W3",450-973-4554,N/A,Plumbers & Plumbing Contractors,False,plumber,laval QC
Télé-Egout Inc,101636138,https://www.yellowpages.ca/bus/Quebec/LAVAL/Tele-Egout-Inc/101636138.html?what=plumber&where=Laval+QC&useContext=true,N/A,LAVAL,QC,N/A,"LAVAL, QC",514-279-7113,N/A,Plumbers & Plumbing Contractors,False,plumber,laval QC
Plomberie Capitaine Inc,102375943,https://www.yellowpages.ca/bus/Quebec/Laval/Plomberie-Capitaine-Inc/102375943.html?what=plumber&where=Laval+QC&useContext=true,1888 Rue De Tripoli,Laval,QC,H7M 4M5,"1888 Rue De Tripoli, Laval, QC, H7M 4M5",514-465-6662,N/A,Plumbers & Plumbing Contractors,False,plumber,laval QC
Recyclage Impérial,100482020,https://www.yellowpages.ca/bus/Quebec/Recyclage-Imperial/100482020.html?what=plumber&where=Laval+QC&useContext=true,N/A,N/A,N/A,N/A,N/A,438-777-7374,N/A,"Plumbers & Plumbing Contractors, Building Contractors, More…",False,plumber,laval QC
P C I Blanchet Inc,2668248,https://www.yellowpages.ca/bus/Quebec/Laval/P-C-I-Blanchet-Inc/2668248.html?what=plumber&where=Laval+QC&useContext=true,"1092, av Léo-Lacombe",Laval,QC,H7N 3Y6,"1092, av Léo-Lacombe, Laval, QC, H7N 3Y6",450-663-8787,N/A,Plumbers & Plumbing Contractors,False,plumber,laval QC
Plomberie Signature Slm,5947374,https://www.yellowpages.ca/bus/Quebec/Terrebonne/Plomberie-Signature-Slm/5947374.html?what=plumber&where=Laval+QC&useContext=true,"2293, rue Antonio-Héroux",Terrebonne,QC,J6X 4R3,"2293, rue Antonio-Héroux, Terrebonne, QC, J6X 4R3",450-477-3232,N/A,Plumbers & Plumbing Contractors,False,plumber,laval QC
Plomberie Ge Mo Inc,101134827,https://www.yellowpages.ca/bus/Quebec/Laval/Plomberie-Ge-Mo-Inc/101134827.html?what=plumber&where=Laval+QC&useContext=true,"8155, rue Aline",Laval,QC,H7A 1N2,"8155, rue Aline, Laval, QC, H7A 1N2",450-936-4486,http://www.facebook.com/217697268960100,Plumbers & Plumbing Contractors,False,plumber,laval QC
Carrier Canada Ltee,102075530,https://www.yellowpages.ca/bus/Quebec/Laval/Carrier-Canada-Ltee/102075530.html?what=plumber&where=Laval+QC&useContext=true,1163 Nord Laval (A-440) O,Laval,QC,H7L 3W3,"1163 Nord Laval (A-440) O, Laval, QC, H7L 3W3",450-662-3592,http://www.facebook.com/216889308676935,"Plumbers & Plumbing Contractors, Heating Systems & Equipment",False,plumber,laval QC
Plomberie Olivier Cloutier,100294396,https://www.yellowpages.ca/bus/Quebec/Laval/Plomberie-Olivier-Cloutier/100294396.html?what=plumber&where=Laval+QC&useContext=true,"130, Place de Naples",Laval,QC,H7M 4A6,"130, Place de Naples, Laval, QC, H7M 4A6",450-669-4046,https://constructionoliviercloutier.com/,Plumbers & Plumbing Contractors,False,plumber,laval QC
2L Plomberie,102481114,https://www.yellowpages.ca/bus/Quebec/Sainte-Therese/2L-Plomberie/102481114.html?what=plumber&where=Laval+QC&useContext=true,89 Rue Dubois,Sainte-Thérèse,QC,J7E 1K4,"89 Rue Dubois, Sainte-Thérèse, QC, J7E 1K4",514-349-4242,N/A,Plumbers & Plumbing Contractors,False,plumber,laval QC
Plomberie GFM,101721090,https://www.yellowpages.ca/bus/Quebec/Laval/Plomberie-GFM/101721090.html?what=plumber&where=Laval+QC&useContext=true,"3810, rue Groulx",Laval,QC,H7E 1H9,"3810, rue Groulx, Laval, QC, H7E 1H9",450-664-7779,N/A,Plumbers & Plumbing Contractors,False,plumber,laval QC
Noble Quebec,7596906,https://www.yellowpages.ca/bus/Quebec/Laval/Noble-Quebec/7596906.html?what=plumber&where=Laval+QC&useContext=true,"3327, boul Industriel",Laval,QC,H7L 4S3,"3327, boul Industriel, Laval, QC, H7L 4S3",450-667-7800,http://www.noble.ca/,Plumbers & Plumbing Contractors,False,plumber,laval QC
Excavation Econo,100668991,https://www.yellowpages.ca/bus/Quebec/Laval/Excavation-Econo/100668991.html?what=plumber&where=Laval+QC&useContext=true,"1640, boul Saint-Elzéar O",Laval,QC,H7L 3N2,"1640, boul Saint-Elzéar O, Laval, QC, H7L 3N2",450-688-5309,http://www.groupeecono.com/,"Plumbers & Plumbing Contractors, Excavation Contractors",False,plumber,laval QC
Plomberie N.G.S. Inc,6690615,https://www.yellowpages.ca/bus/Quebec/Laval/Plomberie-N-G-S-Inc/6690615.html?what=plumber&where=Laval+QC&useContext=true,449 Rue de Chaville,Laval,QC,H7K 0B7,"449 Rue de Chaville, Laval, QC, H7K 0B7",514-234-3943,https://www.plomberiengs.com/,"Plumbers & Plumbing Contractors, Drain & Sewer Cleaning",False,plumber,laval QC
Drainage MSM,102331802,https://www.yellowpages.ca/bus/Quebec/L-Assomption/Drainage-MSM/102331802.html?what=plumber&where=Laval+QC&useContext=true,200 ch des Commissaires,L'Assomption,QC,J5W 2T7,"200 ch des Commissaires, L'Assomption, QC, J5W 2T7","514-838-2251,450-589-3676",https://drainage-msm.com/,"Plumbers & Plumbing Contractors, Drainage Contractors",False,plumber,laval QC
Drain Rex,102827500,https://www.yellowpages.ca/bus/Quebec/Laval/Drain-Rex/102827500.html?what=plumber&where=Laval+QC&useContext=true,5125 80e rue,Laval,QC,H7R 1K2,"5125 80e rue, Laval, QC, H7R 1K2","514-619-3244,514-713-3244",https://drainrex.ca/,Plumbers & Plumbing Contractors,False,plumber,laval QC
Plomberie-Chauffage-Gaz Naturel J Croteau Inc,2670137,https://www.yellowpages.ca/bus/Quebec/Laval/Plomberie-Chauffage-Gaz-Naturel-J-Croteau-Inc/2670137.html?what=plumber&where=Laval+QC&useContext=true,"619, rue Lesage",Laval,QC,H7E 2Y6,"619, rue Lesage, Laval, QC, H7E 2Y6",450-669-7680,N/A,Plumbers & Plumbing Contractors,False,plumber,laval QC
Plomberie F G D Duquette Inc,8081682,https://www.yellowpages.ca/bus/Quebec/Plomberie-F-G-D-Duquette-Inc/8081682.html?what=plumber&where=Laval+QC&useContext=true,N/A,N/A,N/A,N/A,N/A,450-453-4400,N/A,Plumbers & Plumbing Contractors,False,plumber,laval QC
Groupe Paquette Mécanique Du Bâtiment Inc,6039165,https://www.yellowpages.ca/bus/Quebec/Laval/Groupe-Paquette-Mecanique-Du-Batiment-Inc/6039165.html?what=plumber&where=Laval+QC&useContext=true,"275, boul Marc-Aurèle-Fortin",Laval,QC,H7L 2A2,"275, boul Marc-Aurèle-Fortin, Laval, QC, H7L 2A2",450-625-2297,http://www.groupe-paquette.com/,"Plumbers & Plumbing Contractors, General Contractors",False,plumber,laval QC
Plomberie & Chauffage V M Ltd,6958572,https://www.yellowpages.ca/bus/Quebec/Laval/Plomberie-Chauffage-V-M-Ltd/6958572.html?what=plumber&where=Laval+QC&useContext=true,"1640, rue Victor-Morin",Laval,QC,H7G 4C2,"1640, rue Victor-Morin, Laval, QC, H7G 4C2",450-663-6009,http://www.facebook.com/310377172779941,Plumbers & Plumbing Contractors,False,plumber,laval QC
Plomberie-Chauffage Roland Lacombe & Fils,2670080,https://www.yellowpages.ca/bus/Quebec/Laval/Plomberie-Chauffage-Roland-Lacombe-Fils/2670080.html?what=plumber&where=Laval+QC&useContext=true,"5385, rue Portal",Laval,QC,H7K 3Y7,"5385, rue Portal, Laval, QC, H7K 3Y7",450-665-3006,http://www.rlacombe.ca/,Plumbers & Plumbing Contractors,False,plumber,laval QC
Larocque G Plomberie & Chauffage Inc,2661273,https://www.yellowpages.ca/bus/Quebec/Laval/Larocque-G-Plomberie-Chauffage-Inc/2661273.html?what=plumber&where=Laval+QC&useContext=true,"612, rue Maisonneuve",Laval,QC,H7X 1N7,"612, rue Maisonneuve, Laval, QC, H7X 1N7",450-681-3928,N/A,Plumbers & Plumbing Contractors,False,plumber,laval QC
N.Rossi Plomberie & Chauffage Inc,2673772,https://www.yellowpages.ca/bus/Quebec/Laval/N-Rossi-Plomberie-Chauffage-Inc/2673772.html?what=plumber&where=Laval+QC&useContext=true,"40, rue de Lisieux",Laval,QC,H7N 2A1,"40, rue de Lisieux, Laval, QC, H7N 2A1",450-663-4746,https://www.yellowpages.ca,Plumbers & Plumbing Contractors,False,plumber,laval QC
Plomberie Tesolin & Fils Inc,100504015,https://www.yellowpages.ca/bus/Quebec/Plomberie-Tesolin-Fils-Inc/100504015.html?what=plumber&where=Laval+QC&useContext=true,N/A,N/A,N/A,N/A,N/A,450-664-1039,N/A,Plumbers & Plumbing Contractors,False,plumber,laval QC
Hartman Mechanical Plumbing & Heating,100505171,https://www.yellowpages.ca/bus/Quebec/Hartman-Mechanical-Plumbing-Heating/100505171.html?what=plumber&where=Laval+QC&useContext=true,N/A,N/A,N/A,N/A,N/A,450-688-2110,N/A,Plumbers & Plumbing Contractors,False,plumber,laval QC
S O S Water Heater,7697401,https://www.yellowpages.ca/bus/Quebec/S-O-S-Water-Heater/7697401.html?what=plumber&where=Laval+QC&useContext=true,N/A,N/A,N/A,N/A,N/A,450-926-9836,N/A,Plumbers & Plumbing Contractors,False,plumber,laval QC
Plomberie-Chauffage Roland Lacombe Inc,100421549,https://www.yellowpages.ca/bus/Quebec/Laval/Plomberie-Chauffage-Roland-Lacombe-Inc/100421549.html?what=plumber&where=Laval+QC&useContext=true,"5385, rue Portal",Laval,QC,H7K 3Y7,"5385, rue Portal, Laval, QC, H7K 3Y7",450-937-1147,N/A,Plumbers & Plumbing Contractors,False,plumber,laval QC
EMCO Corporation Engeneering Pipe Group,100813850,https://www.yellowpages.ca/bus/Quebec/Laval/EMCO-Corporation-Engeneering-Pipe-Group/100813850.html?what=plumber&where=Laval+QC&useContext=true,2855 rue Étienne-Lenoir,Laval,QC,H7R 6J4,"2855 rue Étienne-Lenoir, Laval, QC, H7R 6J4","450-963-3010,450-963-6811",N/A,Plumbers & Plumbing Contractors,False,plumber,laval QC
Plomberie Beauchamps et Delli Colli,8179378,https://www.yellowpages.ca/bus/Quebec/Plomberie-Beauchamps-et-Delli-Colli/8179378.html?what=plumber&where=Laval+QC&useContext=true,N/A,N/A,N/A,N/A,N/A,450-662-1955,N/A,Plumbers & Plumbing Contractors,False,plumber,laval QC
Plomberie Industech International Canada Inc,100568568,https://www.yellowpages.ca/bus/Quebec/Plomberie-Industech-International-Canada-Inc/100568568.html?what=plumber&where=Laval+QC&useContext=true,N/A,N/A,N/A,N/A,N/A,514-927-8768,N/A,Plumbers & Plumbing Contractors,False,plumber,laval QC
Plomberie et Chauffage DM Inc,101838447,https://www.yellowpages.ca/bus/Quebec/Laval/Plomberie-et-Chauffage-DM-Inc/101838447.html?what=plumber&where=Laval+QC&useContext=true,562 rue Rémillard,Laval,QC,H7H 3A8,"562 rue Rémillard, Laval, QC, H7H 3A8",438-397-7867,N/A,Plumbers & Plumbing Contractors,False,plumber,laval QC
Maurice Denis & Fils Inc,2664273,https://www.yellowpages.ca/bus/Quebec/Laval/Maurice-Denis-Fils-Inc/2664273.html?what=plumber&where=Laval+QC&useContext=true,"1745, rue Guillet",Laval,QC,H7L 5B1,"1745, rue Guillet, Laval, QC, H7L 5B1",450-687-3840,http://www.groupemdf.com/,Plumbers & Plumbing Contractors,False,plumber,laval QC
Plumbing & Heating J T,2670150,https://www.yellowpages.ca/bus/Quebec/Chomedey/Plumbing-Heating-J-T/2670150.html?what=plumber&where=Laval+QC&useContext=true,1401 Bd Elisabeth,Chomedey,QC,N/A,"1401 Bd Elisabeth, Chomedey, QC",450-687-3402,http://jtheating.co.uk/,Plumbers & Plumbing Contractors,False,plumber,laval QC
Plomberie Tesolin & Fils Inc,7505426,https://www.yellowpages.ca/bus/Quebec/Duvernay/Plomberie-Tesolin-Fils-Inc/7505426.html?what=plumber&where=Laval+QC&useContext=true,3135 Rang du Haut-St-François,Duvernay,QC,H7E 4R2,"3135 Rang du Haut-St-François, Duvernay, QC, H7E 4R2",514-444-5344,http://www.facebook.com/151419101919962,Plumbers & Plumbing Contractors,False,plumber,laval QC
Domier Plomberie & Chauffage Inc,6374446,https://www.yellowpages.ca/bus/Quebec/Laval/Domier-Plomberie-Chauffage-Inc/6374446.html?what=plumber&where=Laval+QC&useContext=true,"3933, boul Léman",Laval,QC,H7E 4V7,"3933, boul Léman, Laval, QC, H7E 4V7",450-661-9243,N/A,Plumbers & Plumbing Contractors,False,plumber,laval QC
Wolseley Canada Quebec Mechanical WW,7760029,https://www.yellowpages.ca/bus/Quebec/Wolseley-Canada-Quebec-Mechanical-WW/7760029.html?what=plumber&where=Laval+QC&useContext=true,N/A,N/A,N/A,N/A,N/A,450-663-5331,http://www.wolseleyinc.ca/home.htm;jsessionid=77B89653F17635DFFF9B07CF0AD932BB,Plumbers & Plumbing Contractors,False,plumber,laval QC
Plomberie Boulay Télé-Cam Égoût,7713915,https://www.yellowpages.ca/bus/Quebec/Laval/Plomberie-Boulay-Tele-Cam-Egout/7713915.html?what=plumber&where=Laval+QC&useContext=true,"1251, boul Sainte-Rose",Laval,QC,H7R 1S2,"1251, boul Sainte-Rose, Laval, QC, H7R 1S2",450-962-9999,http://www.plomberieboulay.ca/,Plumbers & Plumbing Contractors,False,plumber,laval QC
Plomberie Roger Fournier Inc,100504501,https://www.yellowpages.ca/bus/Quebec/Plomberie-Roger-Fournier-Inc/100504501.html?what=plumber&where=Laval+QC&useContext=true,N/A,N/A,N/A,N/A,N/A,450-665-0115,N/A,Plumbers & Plumbing Contractors,False,plumber,laval QC
Plomberie Michel Roy Inc,100504291,https://www.yellowpages.ca/bus/Quebec/Plomberie-Michel-Roy-Inc/100504291.html?what=plumber&where=Laval+QC&useContext=true,N/A,N/A,N/A,N/A,N/A,450-687-2889,N/A,Plumbers & Plumbing Contractors,False,plumber,laval QC
Plomberie Pierre Carmel Enr,100504759,https://www.yellowpages.ca/bus/Quebec/Plomberie-Pierre-Carmel-Enr/100504759.html?what=plumber&where=Laval+QC&useContext=true,N/A,N/A,N/A,N/A,N/A,450-688-0956,N/A,Plumbers & Plumbing Contractors,False,plumber,laval QC
Plomberie Johann Walitsch Inc,100504849,https://www.yellowpages.ca/bus/Quebec/Plomberie-Johann-Walitsch-Inc/100504849.html?what=plumber&where=Laval+QC&useContext=true,N/A,N/A,N/A,N/A,N/A,450-622-9730,N/A,Plumbers & Plumbing Contractors,False,plumber,laval QC
Plomberie J D Inc,101337962,https://www.yellowpages.ca/bus/Quebec/Plomberie-J-D-Inc/101337962.html?what=plumber&where=Laval+QC&useContext=true,N/A,N/A,N/A,N/A,N/A,450-662-1955,N/A,Plumbers & Plumbing Contractors,False,plumber,laval QC
Plomberie Michel Roy Inc,100507866,https://www.yellowpages.ca/bus/Quebec/Plomberie-Michel-Roy-Inc/100507866.html?what=plumber&where=Laval+QC&useContext=true,N/A,N/A,N/A,N/A,N/A,450-621-3990,N/A,Plumbers & Plumbing Contractors,False,plumber,laval QC
Plomberie Daniel Lalonde Inc,101047989,https://www.yellowpages.ca/bus/Quebec/Plomberie-Daniel-Lalonde-Inc/101047989.html?what=plumber&where=Laval+QC&useContext=true,N/A,N/A,N/A,N/A,N/A,514-444-3076,N/A,Plumbers & Plumbing Contractors,False,plumber,laval QC
Expert Plombier à Laval,100870183,https://www.yellowpages.ca/bus/Quebec/Expert-Plombier-a-Laval/100870183.html?what=plumber&where=Laval+QC&useContext=true,N/A,N/A,N/A,N/A,N/A,450-235-0666,N/A,Plumbers & Plumbing Contractors,False,plumber,laval QC
Plomberie M-A Ouellet,101242610,https://www.yellowpages.ca/bus/Quebec/Laval/Plomberie-M-A-Ouellet/101242610.html?what=plumber&where=Laval+QC&useContext=true,12 place le Royer,Laval,QC,H7M 1Z4,"12 place le Royer, Laval, QC, H7M 1Z4","438-495-9715,438-495-1037",N/A,Plumbers & Plumbing Contractors,False,plumber,laval QC
Plomberie Michel Roy Inc,6945681,https://www.yellowpages.ca/bus/Quebec/Laval/Plomberie-Michel-Roy-Inc/6945681.html?what=plumber&where=Laval+QC&useContext=true,"4516, rue Fafard",Laval,QC,H7T 2K3,"4516, rue Fafard, Laval, QC, H7T 2K3",450-992-8635,N/A,Plumbers & Plumbing Contractors,False,plumber,laval QC
TSA Plumbing & Heating,3484445,https://www.yellowpages.ca/bus/Quebec/Chomedey/TSA-Plumbing-Heating/3484445.html?what=plumber&where=Laval+QC&useContext=true,1315 Cr Carol,Chomedey,QC,N/A,"1315 Cr Carol, Chomedey, QC",450-687-8431,N/A,Plumbers & Plumbing Contractors,False,plumber,laval QC
Plomberie Daniel Lalonde Inc,100549151,https://www.yellowpages.ca/bus/Quebec/Montreal/Plomberie-Daniel-Lalonde-Inc/100549151.html?what=plumber&where=Laval+QC&useContext=true,N/A,Montreal,QC,N/A,"Montreal, QC",514-990-2312,http://www.facebook.com/1532849356830416,Plumbers & Plumbing Contractors,False,plumber,laval QC
Plomberie J Fournier Inc,102083962,https://www.yellowpages.ca/bus/Quebec/Laval/Plomberie-J-Fournier-Inc/102083962.html?what=plumber&where=Laval+QC&useContext=true,222 Boul Sainte-Rose E,Laval,QC,H7H 1P3,"222 Boul Sainte-Rose E, Laval, QC, H7H 1P3",450-622-4335,http://www.facebook.com/871505472960382,Plumbers & Plumbing Contractors,False,plumber,laval QC
Can-Aqua Intl Ltee,102074171,https://www.yellowpages.ca/bus/Quebec/Laval/Can-Aqua-Intl-Ltee/102074171.html?what=plumber&where=Laval+QC&useContext=true,3208 Sud Laval (A-440) O,Laval,QC,H7T 2H6,"3208 Sud Laval (A-440) O, Laval, QC, H7T 2H6",450-688-5830,http://www.facebook.com/1280929691921638,Plumbers & Plumbing Contractors,False,plumber,laval QC
Virgil Scrumeda & Fils,2047771,https://www.yellowpages.ca/bus/Quebec/Montreal/Virgil-Scrumeda-Fils/2047771.html?what=plumber&where=Laval+QC&useContext=true,N/A,Montréal,QC,N/A,"Montréal, QC",514-996-3353,http://www.virgilplumbing.com/,Plumbers & Plumbing Contractors,False,plumber,laval QC
Plomberie N S R,2713529,https://www.yellowpages.ca/bus/Quebec/Laval/Plomberie-N-S-R/2713529.html?what=plumber&where=Laval+QC&useContext=true,"3730, 2E rue",Laval,QC,H7V 1H8,"3730, 2E rue, Laval, QC, H7V 1H8",450-978-3111,http://www.webimmo.ma/,Plumbers & Plumbing Contractors,False,plumber,laval QC
Benoit & Nadeau Inc,2638012,https://www.yellowpages.ca/bus/Quebec/Chomedey/Benoit-Nadeau-Inc/2638012.html?what=plumber&where=Laval+QC&useContext=true,1596 de Touraine,Chomedey,QC,N/A,"1596 de Touraine, Chomedey, QC",450-667-9504,http://www.facebook.com/1329324803760987,Plumbers & Plumbing Contractors,False,plumber,laval QC
Les Entreprises Léon Labrecque,6669414,https://www.yellowpages.ca/bus/Quebec/Laval/Les-Entreprises-Leon-Labrecque/6669414.html?what=plumber&where=Laval+QC&useContext=true,1640 boul St-Elzéard,Laval,QC,H7L 3N2,"1640 boul St-Elzéard, Laval, QC, H7L 3N2",450-629-3545,N/A,Plumbers & Plumbing Contractors,False,plumber,laval QC
Neveu & Neveu Ltée,2666925,https://www.yellowpages.ca/bus/Quebec/Laval/Neveu-Neveu-Ltee/2666925.html?what=plumber&where=Laval+QC&useContext=true,"290, boul de la Concorde O",Laval,QC,H7N 1J1,"290, boul de la Concorde O, Laval, QC, H7N 1J1",450-669-3545,N/A,Plumbers & Plumbing Contractors,False,plumber,laval QC
Groupe Mécanique S H,100535923,https://www.yellowpages.ca/bus/Quebec/Laval/Groupe-Mecanique-S-H/100535923.html?what=plumber&where=Laval+QC&useContext=true,2272 Fauteux,Laval,QC,H7T 2S6,"2272 Fauteux, Laval, QC, H7T 2S6",514-232-1009,https://www.facebook.com/pages/Groupe-Mécanique-SH/159661967986392,"Plumbers & Plumbing Contractors, Air Conditioning Contractors",False,plumber,laval QC
Plomberie L'Eau Courante,2670099,https://www.yellowpages.ca/bus/Quebec/Chomedey/Plomberie-L-Eau-Courante/2670099.html?what=plumber&where=Laval+QC&useContext=true,2488 Favreau,Chomedey,QC,N/A,"2488 Favreau, Chomedey, QC",450-682-0023,http://plomberieleaucourante.com/,Plumbers & Plumbing Contractors,False,plumber,laval QC
Plomberie-Chauffage HK Inc,4236406,https://www.yellowpages.ca/bus/Quebec/Montreal/Plomberie-Chauffage-HK-Inc/4236406.html?what=plumber&where=Laval+QC&useContext=true,N/A,Montréal,QC,N/A,"Montréal, QC",514-880-8422,http://www.artisanatbourgogne.fr/,Plumbers & Plumbing Contractors,False,plumber,laval QC
Mondo Install Plomberie Inc,101351296,https://www.yellowpages.ca/bus/Quebec/Laval/Mondo-Install-Plomberie-Inc/101351296.html?what=plumber&where=Laval+QC&useContext=true,7769 rue des Amandiers,Laval,QC,H7A 4J2,"7769 rue des Amandiers, Laval, QC, H7A 4J2","514-583-8648,450-664-2567",http://www.facebook.com/562133564132888,Plumbers & Plumbing Contractors,False,plumber,laval QC
Plomberie Chauffage Samson Inc,2670081,https://www.yellowpages.ca/bus/Quebec/Laval/Plomberie-Chauffage-Samson-Inc/2670081.html?what=plumber&where=Laval+QC&useContext=true,"3290, rue Fabien",Laval,QC,H7P 2B3,"3290, rue Fabien, Laval, QC, H7P 2B3",450-622-9393,http://www.facebook.com/247372072665981,Plumbers & Plumbing Contractors,False,plumber,laval QC
Plomberie J D Inc,6460502,https://www.yellowpages.ca/bus/Quebec/Mascouche/Plomberie-J-D-Inc/6460502.html?what=plumber&where=Laval+QC&useContext=true,3533 de Rochefort,Mascouche,QC,J7K 1P2,"3533 de Rochefort, Mascouche, QC, J7K 1P2",450-961-4343,http://www.plomberiejd.com/,Plumbers & Plumbing Contractors,False,plumber,laval QC
Air Ambiance Inc,100772499,https://www.yellowpages.ca/bus/Quebec/Air-Ambiance-Inc/100772499.html?what=plumber&where=Laval+QC&useContext=true,N/A,N/A,N/A,N/A,N/A,450-681-1402,N/A,Plumbers & Plumbing Contractors,False,plumber,laval QC
Plomberie Lory Inc,100504030,https://www.yellowpages.ca/bus/Quebec/Plomberie-Lory-Inc/100504030.html?what=plumber&where=Laval+QC&useContext=true,N/A,N/A,N/A,N/A,N/A,514-940-5015,N/A,Plumbers & Plumbing Contractors,False,plumber,laval QC
Plomberie Mega Inc,100504663,https://www.yellowpages.ca/bus/Quebec/Plomberie-Mega-Inc/100504663.html?what=plumber&where=Laval+QC&useContext=true,N/A,N/A,N/A,N/A,N/A,450-963-7120,N/A,Plumbers & Plumbing Contractors,False,plumber,laval QC
Plomberie Marc Tardif,100507774,https://www.yellowpages.ca/bus/Quebec/Laval/Plomberie-Marc-Tardif/100507774.html?what=plumber&where=Laval+QC&useContext=true,N/A,Laval,QC,N/A,"Laval, QC",450-492-1008,N/A,Plumbers & Plumbing Contractors,False,plumber,laval QC
Plombier Urgence Laval,100516833,https://www.yellowpages.ca/bus/Quebec/Plombier-Urgence-Laval/100516833.html?what=plumber&where=Laval+QC&useContext=true,N/A,N/A,N/A,N/A,N/A,514-600-5899,N/A,Plumbers & Plumbing Contractors,False,plumber,laval QC
Lambert & Gibeau,100504978,https://www.yellowpages.ca/bus/Quebec/Lambert-Gibeau/100504978.html?what=plumber&where=Laval+QC&useContext=true,N/A,N/A,N/A,N/A,N/A,450-628-9383,N/A,Plumbers & Plumbing Contractors,False,plumber,laval QC
Plomberie S Biard,100516412,https://www.yellowpages.ca/bus/Quebec/Plomberie-S-Biard/100516412.html?what=plumber&where=Laval+QC&useContext=true,N/A,N/A,N/A,N/A,N/A,514-979-6063,N/A,Plumbers & Plumbing Contractors,False,plumber,laval QC
Najib Le Plombier,100653099,https://www.yellowpages.ca/bus/Quebec/Najib-Le-Plombier/100653099.html?what=plumber&where=Laval+QC&useContext=true,N/A,N/A,N/A,N/A,N/A,514-512-1126,N/A,Plumbers & Plumbing Contractors,False,plumber,laval QC
A & L Plomberie Inc,100535785,https://www.yellowpages.ca/bus/Quebec/A-L-Plomberie-Inc/100535785.html?what=plumber&where=Laval+QC&useContext=true,N/A,N/A,N/A,N/A,N/A,450-231-0543,N/A,"Plumbers & Plumbing Contractors, Frozen Pipe Thawing, More…",False,plumber,laval QC
Plombier A Montreal,100562657,https://www.yellowpages.ca/bus/Quebec/Plombier-A-Montreal/100562657.html?what=plumber&where=Laval+QC&useContext=true,N/A,N/A,N/A,N/A,N/A,514-574-0715,N/A,Plumbers & Plumbing Contractors,False,plumber,laval QC
Plomberie PND Inc,100726437,https://www.yellowpages.ca/bus/Quebec/Plomberie-PND-Inc/100726437.html?what=plumber&where=Laval+QC&useContext=true,N/A,N/A,N/A,N/A,N/A,514-815-6144,N/A,Plumbers & Plumbing Contractors,False,plumber,laval QC
Plomberie Débouchage Experts,100831455,https://www.yellowpages.ca/bus/Quebec/Plomberie-Debouchage-Experts/100831455.html?what=plumber&where=Laval+QC&useContext=true,N/A,N/A,N/A,N/A,N/A,514-347-2110,N/A,Plumbers & Plumbing Contractors,False,plumber,laval QC
Plomberie Roger Roy,7010751,https://www.yellowpages.ca/bus/Quebec/Montreal/Plomberie-Roger-Roy/7010751.html?what=plumber&where=Laval+QC&useContext=true,N/A,Montréal,QC,N/A,"Montréal, QC",514-995-6237,N/A,Plumbers & Plumbing Contractors,False,plumber,laval QC
Sarp Drainamar Plomberie,101046041,https://www.yellowpages.ca/bus/Quebec/Sarp-Drainamar-Plomberie/101046041.html?what=plumber&where=Laval+QC&useContext=true,N/A,N/A,N/A,N/A,N/A,450-622-3894,N/A,Plumbers & Plumbing Contractors,False,plumber,laval QC
Plombier A Terrebonne,100563167,https://www.yellowpages.ca/bus/Quebec/Plombier-A-Terrebonne/100563167.html?what=plumber&where=Laval+QC&useContext=true,N/A,N/A,N/A,N/A,N/A,514-627-0665,N/A,Plumbers & Plumbing Contractors,False,plumber,laval QC
Plomberie Du Havre,102314561,https://www.yellowpages.ca/bus/Quebec/Saint-Colomban/Plomberie-Du-Havre/102314561.html?what=plumber&where=Laval+QC&useContext=true,199 Rue Du Hâvre,Saint-Colomban,QC,J5K 2V8,"199 Rue Du Hâvre, Saint-Colomban, QC, J5K 2V8",450-412-2677,N/A,Plumbers & Plumbing Contractors,False,plumber,laval QC
Plomberie Laumax Inc,100507138,https://www.yellowpages.ca/bus/Quebec/Mascouche/Plomberie-Laumax-Inc/100507138.html?what=plumber&where=Laval+QC&useContext=true,"270, ch Pincourt",Mascouche,QC,J7L 2W1,"270, ch Pincourt, Mascouche, QC, J7L 2W1",450-474-8338,N/A,Plumbers & Plumbing Contractors,False,plumber,laval QC
G Larocque Plomberie,101530097,https://www.yellowpages.ca/bus/Quebec/Laval/G-Larocque-Plomberie/101530097.html?what=plumber&where=Laval+QC&useContext=true,"612, rue Maisonneuve",Laval,QC,H7X 1N7,"612, rue Maisonneuve, Laval, QC, H7X 1N7",450-681-3928,N/A,Plumbers & Plumbing Contractors,False,plumber,laval QC
Societe Immobiliere Latella,101244999,https://www.yellowpages.ca/bus/Quebec/Chomedey/Societe-Immobiliere-Latella/101244999.html?what=plumber&where=Laval+QC&useContext=true,3460 BdleCarrefour,Chomedey,QC,N/A,"3460 BdleCarrefour, Chomedey, QC",450-688-3729,N/A,Plumbers & Plumbing Contractors,False,plumber,laval QC
Plomberie Aqua Expert,100829932,https://www.yellowpages.ca/bus/Quebec/Plomberie-Aqua-Expert/100829932.html?what=plumber&where=Laval+QC&useContext=true,N/A,N/A,N/A,N/A,N/A,514-435-0548,N/A,Plumbers & Plumbing Contractors,False,plumber,laval QC
Rémi Cloutier Plomberie,101040726,https://www.yellowpages.ca/bus/Quebec/Remi-Cloutier-Plomberie/101040726.html?what=plumber&where=Laval+QC&useContext=true,N/A,N/A,N/A,N/A,N/A,450-622-9053,http://www.facebook.com/196570427391952,Plumbers & Plumbing Contractors,False,plumber,laval QC
Groupe FGLS Inc,101683180,https://www.yellowpages.ca/bus/Quebec/Boisbriand/Groupe-FGLS-Inc/101683180.html?what=plumber&where=Laval+QC&useContext=true,755 boul du Curé-Boivin,Boisbriand,QC,J7G 2J2,"755 boul du Curé-Boivin, Boisbriand, QC, J7G 2J2",450-939-6342,https://www.facebook.com/GroupeFGLS/,Plumbers & Plumbing Contractors,False,plumber,laval QC
Plomberie Crone Inc,7902508,https://www.yellowpages.ca/bus/Quebec/Laval/Plomberie-Crone-Inc/7902508.html?what=plumber&where=Laval+QC&useContext=true,"3917, boul Léman",Laval,QC,H7E 4V7,"3917, boul Léman, Laval, QC, H7E 4V7",450-936-1630,http://www.facebook.com/446474032143787,Plumbers & Plumbing Contractors,False,plumber,laval QC
Service Dunor Inc,3986846,https://www.yellowpages.ca/bus/Quebec/Pont-Viau/Service-Dunor-Inc/3986846.html?what=plumber&where=Laval+QC&useContext=true,"553, rue Hubert",Pont Viau,QC,H7G 2Z2,"553, rue Hubert, Pont Viau, QC, H7G 2Z2",514-385-0038,https://www.facebook.com/pages/Service-Dunor-Inc/832502420211533,"Plumbers & Plumbing Contractors, Air Conditioning Contractors",False,plumber,laval QC
Plomberie Evolution Inc,8150617,https://www.yellowpages.ca/bus/Quebec/Plomberie-Evolution-Inc/8150617.html?what=plumber&where=Laval+QC&useContext=true,N/A,N/A,N/A,N/A,N/A,450-314-1121,N/A,Plumbers & Plumbing Contractors,False,plumber,laval QC
Pci Blanchet Inc,101578172,https://www.yellowpages.ca/bus/Quebec/Laval/Pci-Blanchet-Inc/101578172.html?what=plumber&where=Laval+QC&useContext=true,1510 rue Michelin,Laval,QC,H7L 4R3,"1510 rue Michelin, Laval, QC, H7L 4R3",450-687-1510,N/A,Plumbers & Plumbing Contractors,False,plumber,laval QC
Ge-Mo Plomberie,1245054,https://www.yellowpages.ca/bus/Quebec/Laval/Ge-Mo-Plomberie/1245054.html?what=plumber&where=Laval+QC&useContext=true,530 rue Monty,Laval,QC,H7A 2C3,"530 rue Monty, Laval, QC, H7A 2C3",450-665-2979,http://www.facebook.com/1932270987073794,"Plumbers & Plumbing Contractors, Building Contractors",False,plumber,laval QC
Plomberie Drainage MVL,100449954,https://www.yellowpages.ca/bus/Quebec/Laval/Plomberie-Drainage-MVL/100449954.html?what=plumber&where=Laval+QC&useContext=true,"140-2090, rue Mayfield",Laval,QC,H7T 1K5,"140-2090, rue Mayfield, Laval, QC, H7T 1K5",514-701-4550,http://www.facebook.com/1962600427194449,Plumbers & Plumbing Contractors,False,plumber,laval QC
Plomberie Stéphan Roy,2706459,https://www.yellowpages.ca/bus/Quebec/Laval/Plomberie-Stephan-Roy/2706459.html?what=plumber&where=Laval+QC&useContext=true,"1669, rue Brady",Laval,QC,H7R 4H1,"1669, rue Brady, Laval, QC, H7R 4H1",450-627-6503,N/A,Plumbers & Plumbing Contractors,False,plumber,laval QC
El.coplomberie,102058092,https://www.yellowpages.ca/bus/Quebec/Laval/El-coplomberie/102058092.html?what=plumber&where=Laval+QC&useContext=true,1-72 Av Sauriol,Laval,QC,H7N 3B1,"1-72 Av Sauriol, Laval, QC, H7N 3B1",514-966-1112,N/A,Plumbers & Plumbing Contractors,False,plumber,laval QC
Plomberie O'Agua,100510559,https://www.yellowpages.ca/bus/Quebec/Saint-Colomban/Plomberie-O-Agua/100510559.html?what=plumber&where=Laval+QC&useContext=true,123 Rue de la Cîme,Saint-Colomban,QC,J5K 1L1,"123 Rue de la Cîme, Saint-Colomban, QC, J5K 1L1","450-918-7210,438-394-3354",N/A,Plumbers & Plumbing Contractors,False,plumber,laval QC
Plomberie Accèss Inc,2670066,https://www.yellowpages.ca/bus/Quebec/Chomedey/Plomberie-Access-Inc/2670066.html?what=plumber&where=Laval+QC&useContext=true,5027 4 Rue,Chomedey,QC,N/A,"5027 4 Rue, Chomedey, QC",450-682-2959,http://www.facebook.com/706984666171531,Plumbers & Plumbing Contractors,False,plumber,laval QC
Plomberie René Benoît,2670122,https://www.yellowpages.ca/bus/Quebec/Laval/Plomberie-Rene-Benoit/2670122.html?what=plumber&where=Laval+QC&useContext=true,"2350, rue de Meulles",Laval,QC,H7E 1S1,"2350, rue de Meulles, Laval, QC, H7E 1S1",450-663-2686,http://www.plomberierene.onlc.fr/,Plumbers & Plumbing Contractors,False,plumber,laval QC
AL Plomberie Inc,8219351,https://www.yellowpages.ca/bus/Quebec/Laval/AL-Plomberie-Inc/8219351.html?what=plumber&where=Laval+QC&useContext=true,1887 Rue Lavoie,Laval,QC,H7M 2N4,"1887 Rue Lavoie, Laval, QC, H7M 2N4",450-663-7407,http://www.alplomberie.com/,Plumbers & Plumbing Contractors,False,plumber,laval QC
Plomberie Touch Debouche,100348920,https://www.yellowpages.ca/bus/Quebec/Plomberie-Touch-Debouche/100348920.html?what=plumber&where=Laval+QC&useContext=true,N/A,N/A,N/A,N/A,N/A,514-835-1073,http://www.facebook.com/317995078717064,Plumbers & Plumbing Contractors,False,plumber,laval QC
Plomberie Gariépy Inc,100807852,https://www.yellowpages.ca/bus/Quebec/Fabreville/Plomberie-Gariepy-Inc/100807852.html?what=plumber&where=Laval+QC&useContext=true,1221 45e Avenue,Fabreville,QC,H7R 5A8,"1221 45e Avenue, Fabreville, QC, H7R 5A8",450-719-6140,http://www.plomberiegariepy.com/,Plumbers & Plumbing Contractors,False,plumber,laval QC
DP Laval Drain,4096652,https://www.yellowpages.ca/bus/Quebec/Laval/DP-Laval-Drain/4096652.html?what=plumber&where=Laval+QC&useContext=true,1271 Rue Lafontaine,Laval,QC,H7Y 1N2,"1271 Rue Lafontaine, Laval, QC, H7Y 1N2","514-947-1955,450-689-2996",https://www.yellowpages.ca,"Plumbers & Plumbing Contractors, Sewer Cleaning Equipment & Service",False,plumber,laval QC
Télé-Égout Inc,2933518,https://www.yellowpages.ca/bus/Quebec/Laval/Tele-Egout-Inc/2933518.html?what=plumber&where=Laval+QC&useContext=true,3877 rang Saint-Elzéar E,Laval,QC,H7E 4P2,"3877 rang Saint-Elzéar E, Laval, QC, H7E 4P2","450-661-8279,514-279-7113,450-661-8277",https://www.tele-egout.ca/,Plumbers & Plumbing Contractors,False,plumber,laval QC
Groupe Mon Plombier,6226570,https://www.yellowpages.ca/bus/Quebec/Groupe-Mon-Plombier/6226570.html?what=plumber&where=Laval+QC&useContext=true,N/A,N/A,N/A,N/A,N/A,450-471-6748,http://www.facebook.com/profile.php?id=320120311488268,Plumbers & Plumbing Contractors,False,plumber,laval QC
Drain 5 Étoiles,8145247,https://www.yellowpages.ca/bus/Quebec/Drain-5-Etoiles/8145247.html?what=plumber&where=Laval+QC&useContext=true,N/A,N/A,N/A,N/A,N/A,514-316-1043,https://www.yellowpages.ca,"Plumbers & Plumbing Contractors, Drain & Sewer Cleaning",False,plumber,laval QC
Plomberie PND Inc,4982155,https://www.yellowpages.ca/bus/Quebec/Laval/Plomberie-PND-Inc/4982155.html?what=plumber&where=Laval+QC&useContext=true,"3020, boul Cartier O",Laval,QC,H7V 1J2,"3020, boul Cartier O, Laval, QC, H7V 1J2","450-314-1310,450-681-6144",http://plomberiepnd.ca/,"Plumbers & Plumbing Contractors, Drain & Sewer Cleaning, More…",False,plumber,laval QC
Plombier Daniel,100516938,https://www.yellowpages.ca/bus/Quebec/Plombier-Daniel/100516938.html?what=plumber&where=Laval+QC&useContext=true,N/A,N/A,N/A,N/A,N/A,514-267-1176,N/A,Plumbers & Plumbing Contractors,False,plumber,laval QC
Plomberie FGV,100504241,https://www.yellowpages.ca/bus/Quebec/Plomberie-FGV/100504241.html?what=plumber&where=Laval+QC&useContext=true,N/A,N/A,N/A,N/A,N/A,514-269-8899,N/A,Plumbers & Plumbing Contractors,False,plumber,laval QC
Plomberie Alo,100494540,https://www.yellowpages.ca/bus/Quebec/Plomberie-Alo/100494540.html?what=plumber&where=Laval+QC&useContext=true,N/A,N/A,N/A,N/A,N/A,450-686-4997,N/A,Plumbers & Plumbing Contractors,False,plumber,laval QC
Plomberier 30,100512624,https://www.yellowpages.ca/bus/Quebec/Plomberier-30/100512624.html?what=plumber&where=Laval+QC&useContext=true,N/A,N/A,N/A,N/A,N/A,438-936-7563,N/A,Plumbers & Plumbing Contractors,False,plumber,laval QC
Plomberie Laval,100505187,https://www.yellowpages.ca/bus/Quebec/Plomberie-Laval/100505187.html?what=plumber&where=Laval+QC&useContext=true,N/A,N/A,N/A,N/A,N/A,514-473-1115,N/A,Plumbers & Plumbing Contractors,False,plumber,laval QC
Plombier Laval,100504741,https://www.yellowpages.ca/bus/Quebec/Plombier-Laval/100504741.html?what=plumber&where=Laval+QC&useContext=true,N/A,N/A,N/A,N/A,N/A,514-578-0049,N/A,Plumbers & Plumbing Contractors,False,plumber,laval QC
Plomberie Fadel,100653957,https://www.yellowpages.ca/bus/Quebec/Plomberie-Fadel/100653957.html?what=plumber&where=Laval+QC&useContext=true,N/A,N/A,N/A,N/A,N/A,514-594-2850,N/A,Plumbers & Plumbing Contractors,False,plumber,laval QC
Plomberie Cantley,100836501,https://www.yellowpages.ca/bus/Quebec/Plomberie-Cantley/100836501.html?what=plumber&where=Laval+QC&useContext=true,N/A,N/A,N/A,N/A,N/A,819-671-1194,N/A,Plumbers & Plumbing Contractors,False,plumber,laval QC
Plomberie Harrisson,8179380,https://www.yellowpages.ca/bus/Quebec/Plomberie-Harrisson/8179380.html?what=plumber&where=Laval+QC&useContext=true,N/A,N/A,N/A,N/A,N/A,450-478-2760,N/A,Plumbers & Plumbing Contractors,False,plumber,laval QC
Plomberie Mongi,100992347,https://www.yellowpages.ca/bus/Quebec/Plomberie-Mongi/100992347.html?what=plumber&where=Laval+QC&useContext=true,N/A,N/A,N/A,N/A,N/A,450-665-9815,N/A,Plumbers & Plumbing Contractors,False,plumber,laval QC
Gorl'eau,5830483,https://www.yellowpages.ca/bus/Quebec/Montreal/Gorl-eau/5830483.html?what=plumber&where=Laval+QC&useContext=true,N/A,Montréal,QC,N/A,"Montréal, QC","450-475-0236,514-770-4011",http://www.gorleau.com/,Plumbers & Plumbing Contractors,False,plumber,laval QC
Plomberie JDelcourt,7570920,https://www.yellowpages.ca/bus/Quebec/Laval/Plomberie-JDelcourt/7570920.html?what=plumber&where=Laval+QC&useContext=true,440 Rue Branly,Laval,QC,H7N 2E5,"440 Rue Branly, Laval, QC, H7N 2E5",450-933-8080,http://gdelcourt.ca/,Plumbers & Plumbing Contractors,False,plumber,laval QC
JA Plumbing,100364786,https://www.yellowpages.ca/bus/Quebec/Laval/JA-Plumbing/100364786.html?what=plumber&where=Laval+QC&useContext=true,"1380, rue Hennessy",Laval,QC,H7W 4N2,"1380, rue Hennessy, Laval, QC, H7W 4N2",514-806-7210,http://www.facebook.com/1603322089993013,Plumbers & Plumbing Contractors,False,plumber,laval QC
Plomberie Terra,8011798,https://www.yellowpages.ca/bus/Quebec/Laval/Plomberie-Terra/8011798.html?what=plumber&where=Laval+QC&useContext=true,4040 Rue Cyrille Delage,Laval,QC,H7K 3L2,"4040 Rue Cyrille Delage, Laval, QC, H7K 3L2",514-830-0333,N/A,"Plumbers & Plumbing Contractors, Plumbing Fixture & Supply Stores",False,plumber,laval QC
Ckcl Plombier,100320604,https://www.yellowpages.ca/bus/Quebec/Laval/Ckcl-Plombier/100320604.html?what=plumber&where=Laval+QC&useContext=true,"1850, boul René-Laennec",Laval,QC,H7M 3K3,"1850, boul René-Laennec, Laval, QC, H7M 3K3",450-600-0514,http://www.ckcl.ca/,Plumbers & Plumbing Contractors,False,plumber,laval QC
Prosan Inc,100876405,https://www.yellowpages.ca/bus/Quebec/Prosan-Inc/100876405.html?what=plumber&where=Laval+QC&useContext=true,N/A,N/A,N/A,N/A,N/A,450-978-7067,N/A,Plumbers & Plumbing Contractors,False,plumber,laval QC
Bob Plomberie,100503903,https://www.yellowpages.ca/bus/Quebec/Bob-Plomberie/100503903.html?what=plumber&where=Laval+QC&useContext=true,N/A,N/A,N/A,N/A,N/A,450-628-0153,N/A,Plumbers & Plumbing Contractors,False,plumber,laval QC
Batimec Plomberie & Chauffage,7235160,https://www.yellowpages.ca/bus/Quebec/Laval/Batimec-Plomberie-Chauffage/7235160.html?what=plumber&where=Laval+QC&useContext=true,1209 Rue Anita,Laval,QC,H7X 3Z4,"1209 Rue Anita, Laval, QC, H7X 3Z4",450-314-3587,http://www.batimec.com/,"Plumbers & Plumbing Contractors, Building Contractors",False,plumber,laval QC
Plomberie RPM,100914833,https://www.yellowpages.ca/bus/Quebec/Laval/Plomberie-RPM/100914833.html?what=plumber&where=Laval+QC&useContext=true,3927 boul Leman,Laval,QC,H7E 4V7,"3927 boul Leman, Laval, QC, H7E 4V7",514-622-8911,http://plomberierpm.ca/,Plumbers & Plumbing Contractors,False,plumber,laval QC
Plomberie Farkas,6447655,https://www.yellowpages.ca/bus/Quebec/Laval/Plomberie-Farkas/6447655.html?what=plumber&where=Laval+QC&useContext=true,1467 rue Cunard,Laval,QC,H7S 2H8,"1467 rue Cunard, Laval, QC, H7S 2H8","450-629-1744,450-629-8883",https://farkasplumbing.com/,Plumbers & Plumbing Contractors,False,plumber,laval QC
Plomberie G.N.,101887655,https://www.yellowpages.ca/bus/Quebec/Laval/Plomberie-G-N/101887655.html?what=plumber&where=Laval+QC&useContext=true,125 Savoie,Laval,QC,H7M 1G5,"125 Savoie, Laval, QC, H7M 1G5",514-550-7176,http://plomberiegn.ca/,Plumbers & Plumbing Contractors,False,plumber,laval QC
Plomberie Technika,100570510,https://www.yellowpages.ca/bus/Quebec/Laval/Plomberie-Technika/100570510.html?what=plumber&where=Laval+QC&useContext=true,"5-4948, boul Notre-Dame",Laval,QC,H7W 1V5,"5-4948, boul Notre-Dame, Laval, QC, H7W 1V5",514-659-9008,http://www.plomberietechnika.com/,Plumbers & Plumbing Contractors,False,plumber,laval QC
Drain MPR,100791180,https://www.yellowpages.ca/bus/Quebec/Drain-MPR/100791180.html?what=plumber&where=Laval+QC&useContext=true,N/A,N/A,N/A,N/A,N/A,514-777-4450,http://drainmpr.ca/,Plumbers & Plumbing Contractors,False,plumber,laval QC
Rojec,4098185,https://www.yellowpages.ca/bus/Quebec/Rojec/4098185.html?what=plumber&where=Laval+QC&useContext=true,N/A,N/A,N/A,N/A,N/A,450-963-4448,N/A,Plumbers & Plumbing Contractors,False,plumber,laval QC
iPlomberie,101247726,https://www.yellowpages.ca/bus/Quebec/Laval/iPlomberie/101247726.html?what=plumber&where=Laval+QC&useContext=true,4204 rue Bertin,Laval,QC,H7W 0H5,"4204 rue Bertin, Laval, QC, H7W 0H5",514-261-1843,http://www.iplomberie.ca/,Plumbers & Plumbing Contractors,False,plumber,laval QC
Les Entreprises Bitechnique,7269749,https://www.yellowpages.ca/bus/Quebec/Blainville/Les-Entreprises-Bitechnique/7269749.html?what=plumber&where=Laval+QC&useContext=true,"33, rue d'Amboise",Blainville,QC,J7B 1Y1,"33, rue d'Amboise, Blainville, QC, J7B 1Y1",450-971-6565,N/A,Plumbers & Plumbing Contractors,False,plumber,laval QC
Plomberie Trudel Yvon Inc,1245478,https://www.yellowpages.ca/bus/Quebec/Laval/Plomberie-Trudel-Yvon-Inc/1245478.html?what=plumber&where=Laval+QC&useContext=true,"4236, 3E rue",Laval,QC,H7W 2M2,"4236, 3E rue, Laval, QC, H7W 2M2",450-688-4588,http://www.facebook.com/226132688157437,Plumbers & Plumbing Contractors,False,plumber,laval QC
AQUAREHAB,7199956,https://www.yellowpages.ca/bus/Quebec/Laval/AQUAREHAB/7199956.html?what=plumber&where=Laval+QC&useContext=true,"2145, rue Michelin",Laval,QC,H7L 5B8,"2145, rue Michelin, Laval, QC, H7L 5B8",450-687-5610,http://www.aquarehab.com/,Plumbers & Plumbing Contractors,False,plumber,laval QC
Plomberie Entretien Bénédict Inc,100749247,https://www.yellowpages.ca/bus/Quebec/Laval/Plomberie-Entretien-Benedict-Inc/100749247.html?what=plumber&where=Laval+QC&useContext=true,"9530, boul Lévesque E SS 51",Laval,QC,H7A 4C6,"9530, boul Lévesque E SS 51, Laval, QC, H7A 4C6",514-262-2919,N/A,Plumbers & Plumbing Contractors,False,plumber,laval QC
Plomberie Demartech,1244950,https://www.yellowpages.ca/bus/Quebec/Laval/Plomberie-Demartech/1244950.html?what=plumber&where=Laval+QC&useContext=true,"3240, crois Foch",Laval,QC,H7P 3C6,"3240, crois Foch, Laval, QC, H7P 3C6",514-887-9511,N/A,Plumbers & Plumbing Contractors,False,plumber,laval QC
Plomberie MALV Inc,102260709,https://www.yellowpages.ca/bus/Quebec/Vaudreuil-Dorion/Plomberie-MALV-Inc/102260709.html?what=plumber&where=Laval+QC&useContext=true,101 rue des Berges,Vaudreuil-Dorion,QC,J7V 9X3,"101 rue des Berges, Vaudreuil-Dorion, QC, J7V 9X3",514-815-9968,N/A,Plumbers & Plumbing Contractors,False,plumber,laval QC
Plomberie Mario Lalonde,100745565,https://www.yellowpages.ca/bus/Quebec/Plomberie-Mario-Lalonde/100745565.html?what=plumber&where=Laval+QC&useContext=true,N/A,N/A,N/A,N/A,N/A,450-625-8925,N/A,"Plumbers & Plumbing Contractors, Water Heater Dealers",False,plumber,laval QC
Plomberie Gaétan Joly Inc,3374005,https://www.yellowpages.ca/bus/Quebec/Plomberie-Gaetan-Joly-Inc/3374005.html?what=plumber&where=Laval+QC&useContext=true,N/A,N/A,N/A,N/A,N/A,450-689-2668,N/A,Plumbers & Plumbing Contractors,False,plumber,laval QC
Grouptech Inc,6966887,https://www.yellowpages.ca/bus/Quebec/Fabreville/Grouptech-Inc/6966887.html?what=plumber&where=Laval+QC&useContext=true,"340, boul Curé-Labelle",Fabreville,QC,H7P 2P1,"340, boul Curé-Labelle, Fabreville, QC, H7P 2P1",514-918-3264,http://www.facebook.com/145012806096547,Plumbers & Plumbing Contractors,False,plumber,laval QC
Société Immobilier Latella Enr,7240249,https://www.yellowpages.ca/bus/Quebec/Chomedey/Societe-Immobilier-Latella-Enr/7240249.html?what=plumber&where=Laval+QC&useContext=true,3320 Bd le Carrefour,Chomedey,QC,H7T 0B7,"3320 Bd le Carrefour, Chomedey, QC, H7T 0B7",450-682-5202,http://www.villalatella.com/,Plumbers & Plumbing Contractors,False,plumber,laval QC
Plomberie Mario Lalonde,6294428,https://www.yellowpages.ca/bus/Quebec/Terrebonne/Plomberie-Mario-Lalonde/6294428.html?what=plumber&where=Laval+QC&useContext=true,1880 Rue De Chamonix,Terrebonne,QC,J6X 4N3,"1880 Rue De Chamonix, Terrebonne, QC, J6X 4N3",514-862-0541,https://www.yellowpages.ca,Plumbers & Plumbing Contractors,False,plumber,laval QC
Deluxair,7013731,https://www.yellowpages.ca/bus/Quebec/Chomedey/Deluxair/7013731.html?what=plumber&where=Laval+QC&useContext=true,3700 Autoroute des Laurentides,Chomedey,QC,N/A,"3700 Autoroute des Laurentides, Chomedey, QC",450-973-9259,N/A,Plumbers & Plumbing Contractors,False,plumber,laval QC
Fred,7212822,https://www.yellowpages.ca/bus/Quebec/Laval/Fred/7212822.html?what=plumber&where=Laval+QC&useContext=true,"2055, boul Saint-Martin O",Laval,QC,H7S 1N3,"2055, boul Saint-Martin O, Laval, QC, H7S 1N3",450-686-1116,http://www.facebook.com/256099348074646,"Plumbers & Plumbing Contractors, Restaurants",False,plumber,laval QC
George Plumbing,101565888,https://www.yellowpages.ca/bus/Quebec/Laval/George-Plumbing/101565888.html?what=plumber&where=Laval+QC&useContext=true,402 Place de Canterbury,Laval,QC,H7W 4G9,"402 Place de Canterbury, Laval, QC, H7W 4G9","438-797-5770,514-835-7882",N/A,Plumbers & Plumbing Contractors,False,plumber,laval QC
Plomberie Soudure Dg Inc,100505625,https://www.yellowpages.ca/bus/Quebec/Terrebonne/Plomberie-Soudure-Dg-Inc/100505625.html?what=plumber&where=Laval+QC&useContext=true,"3345, boul des Entreprises",Terrebonne,QC,J6X 4J9,"3345, boul des Entreprises, Terrebonne, QC, J6X 4J9",450-968-2525,N/A,Plumbers & Plumbing Contractors,False,plumber,laval QC
Monsieur Drain,101127940,https://www.yellowpages.ca/bus/Quebec/Monsieur-Drain/101127940.html?what=plumber&where=Laval+QC&useContext=true,N/A,N/A,N/A,N/A,N/A,450-231-0449,N/A,Plumbers & Plumbing Contractors,False,plumber,laval QC
Chauffe-Eau S O S Inc,7163150,https://www.yellowpages.ca/bus/Quebec/Laval/Chauffe-Eau-S-O-S-Inc/7163150.html?what=plumber&where=Laval+QC&useContext=true,"1715, boul Lévesque E",Laval,QC,H7G 1E2,"1715, boul Lévesque E, Laval, QC, H7G 1E2",514-467-6746,http://www.chauffeeausos.ca/,"Plumbers & Plumbing Contractors, Water Heater Dealers",False,plumber,laval QC
Plomberie Claude Carmel,100461894,https://www.yellowpages.ca/bus/Quebec/Laval/Plomberie-Claude-Carmel/100461894.html?what=plumber&where=Laval+QC&useContext=true,"2406, rue du Faisan",Laval,QC,H7L 4K8,"2406, rue du Faisan, Laval, QC, H7L 4K8",514-386-3750,http://plomberieclaude.com/,Plumbers & Plumbing Contractors,False,plumber,laval QC
Espace Plomberium,3955885,https://www.yellowpages.ca/bus/Quebec/Mascouche/Espace-Plomberium/3955885.html?what=plumber&where=Laval+QC&useContext=true,"10, Montée Masson",Mascouche,QC,J7K 3B5,"10, Montée Masson, Mascouche, QC, J7K 3B5",450-474-3881,https://www.espaceplomberium.com/,"Plumbers & Plumbing Contractors, Plumbing Fixture & Supply Stores",False,plumber,laval QC
Espace Plomberium,100442107,https://www.yellowpages.ca/bus/Quebec/Laval/Espace-Plomberium/100442107.html?what=plumber&where=Laval+QC&useContext=true,"4595, Nord Laval A-440 O",Laval,QC,H7P 0J7,"4595, Nord Laval A-440 O, Laval, QC, H7P 0J7",514-370-5511,http://www.boutiquealo.com/,Plumbers & Plumbing Contractors,False,plumber,laval QC
Vague & Vogue,102067466,https://www.yellowpages.ca/bus/Quebec/Laval/Vague-Vogue/102067466.html?what=plumber&where=Laval+QC&useContext=true,4200 Louis B Mayer,Laval,QC,H7P 0G1,"4200 Louis B Mayer, Laval, QC, H7P 0G1",450-680-0061,https://www.vagueetvogue.com/fr/,"Plumbers & Plumbing Contractors, Bathroom Accessories",False,plumber,laval QC
Plomberie A & L Inc,101599505,https://www.yellowpages.ca/bus/Quebec/Laval/Plomberie-A-L-Inc/101599505.html?what=plumber&where=Laval+QC&useContext=true,1887 Lavoie,Laval,QC,H7M 2N4,"1887 Lavoie, Laval, QC, H7M 2N4",450-663-7403,https://www.alplomberie.com/,Plumbers & Plumbing Contractors,False,plumber,laval QC
Plomberie PA Poulin,100924929,https://www.yellowpages.ca/bus/Quebec/Sainte-Marthe-sur-le-Lac/Plomberie-PA-Poulin/100924929.html?what=plumber&where=Laval+QC&useContext=true,3204 ch Oka,Sainte-Marthe-sur-le-Lac,QC,J0N 1P0,"3204 ch Oka, Sainte-Marthe-sur-le-Lac, QC, J0N 1P0",450-472-2512,N/A,"Plumbers & Plumbing Contractors, Plumbing Fixture & Supply Stores",False,plumber,laval QC
Plomberie Jet D'Eau 2020,8178886,https://www.yellowpages.ca/bus/Quebec/Terrebonne/Plomberie-Jet-D-Eau-2020/8178886.html?what=plumber&where=Laval+QC&useContext=true,3360 Rue Jacob Jordan,Terrebonne,QC,J6X 4J6,"3360 Rue Jacob Jordan, Terrebonne, QC, J6X 4J6",450-474-5475,https://www.yellowpages.ca,Plumbers & Plumbing Contractors,False,plumber,laval QC
Classique Plomberie Chauffage et Drainage,381301,https://www.yellowpages.ca/bus/Quebec/Montreal-Nord/Classique-Plomberie-Chauffage-et-Drainage/381301.html?what=plumber&where=Laval+QC&useContext=true,12444 boul Rolland,Montréal-Nord,QC,H1G 6B2,"12444 boul Rolland, Montréal-Nord, QC, H1G 6B2",514-327-0434,https://www.facebook.com/pages/Classique-Plomberie-Chauffage-et-Drainage/515268052005032,"Plumbers & Plumbing Contractors, Sewer Line Inspection",False,plumber,laval QC
Entreprise Jeannot Paquette Inc,8230235,https://www.yellowpages.ca/bus/Quebec/Mirabel/Entreprise-Jeannot-Paquette-Inc/8230235.html?what=plumber&where=Laval+QC&useContext=true,"18060, rue J.A.Bombardier",Mirabel,QC,J7J 2H8,"18060, rue J.A.Bombardier, Mirabel, QC, J7J 2H8",450-437-8770,http://www.jeannotpaquette.com/,"Plumbers & Plumbing Contractors, Gas Appliance Repair & Maintenance, More…",False,plumber,laval QC
Plomberie F. Ravary Inc,3890179,https://www.yellowpages.ca/bus/Quebec/Montreal/Plomberie-F-Ravary-Inc/3890179.html?what=plumber&where=Laval+QC&useContext=true,8155 Rue Saint-Hubert,Montréal,QC,H2P 1Z1,"8155 Rue Saint-Hubert, Montréal, QC, H2P 1Z1",438-558-3769,http://plomberiefravary.ca/,"Plumbers & Plumbing Contractors, Bathroom Renovations, More…",False,plumber,laval QC
Espoir Debouchage,104910232,https://www.yellowpages.ca/bus/Quebec/Montreal/Espoir-Debouchage/104910232.html?what=plumber&where=Laval+QC&useContext=true,12070 av Clément-Ader,Montréal,QC,H1E 1W9,"12070 av Clément-Ader, Montréal, QC, H1E 1W9",438-805-5266,https://www.espoirdebouchage.com/,Plumbers & Plumbing Contractors,False,plumber,laval QC
Plomberie Drain Eau Inc.,104833920,https://www.yellowpages.ca/bus/Quebec/Plomberie-Drain-Eau-Inc/104833920.html?what=plumber&where=Laval+QC&useContext=true,N/A,N/A,N/A,N/A,N/A,514-566-9870,N/A,Plumbers & Plumbing Contractors,False,plumber,laval QC
Plomberie Chauffage Daniel Lacombe Électrique Inc,102479990,https://www.yellowpages.ca/bus/Quebec/Laval/Plomberie-Chauffage-Daniel-Lacombe-Electrique-Inc/102479990.html?what=plumber&where=Laval+QC&useContext=true,7285 Rue Bellehumeur,Laval,QC,H7H 1Y3,"7285 Rue Bellehumeur, Laval, QC, H7H 1Y3",514-973-3633,N/A,Plumbers & Plumbing Contractors,False,plumber,laval QC
Plomberie Bernard Inc,2670072,https://www.yellowpages.ca/bus/Quebec/Chomedey/Plomberie-Bernard-Inc/2670072.html?what=plumber&where=Laval+QC&useContext=true,4088 Ch du Souvenir,Chomedey,QC,N/A,"4088 Ch du Souvenir, Chomedey, QC",450-682-8333,N/A,"Plumbers & Plumbing Contractors, Heating Contractors",False,plumber,laval QC
ABC Drain,2848374,https://www.yellowpages.ca/bus/Quebec/Montreal/ABC-Drain/2848374.html?what=plumber&where=Laval+QC&useContext=true,"12171, boul Laurentien",Montréal,QC,H4K 1N4,"12171, boul Laurentien, Montréal, QC, H4K 1N4",514-333-9374,N/A,Plumbers & Plumbing Contractors,False,plumber,laval QC
Plomberie Potentiel Inc,102714724,https://www.yellowpages.ca/bus/Quebec/Laval/Plomberie-Potentiel-Inc/102714724.html?what=plumber&where=Laval+QC&useContext=true,6824 Rue Jean-Paul-Lemieux,Laval,QC,H7L 5P8,"6824 Rue Jean-Paul-Lemieux, Laval, QC, H7L 5P8",514-463-3014,http://plomberiepotentiel.com/,Plumbers & Plumbing Contractors,True,plumber,laval QC
A & L Plomberie Inc,7540,https://www.yellowpages.ca/bus/Quebec/Laval/A-L-Plomberie-Inc/7540.html?what=plumber&where=Laval+QC&useContext=true,"1887, rue Lavoie",Laval,QC,H7M 2N4,"1887, rue Lavoie, Laval, QC, H7M 2N4",450-231-1138,https://www.yellowpages.ca,"Plumbers & Plumbing Contractors, More…",True,plumber,laval QC
Plomberie Chauffage F L R Inc,2766241,https://www.yellowpages.ca/bus/Quebec/Laval/Plomberie-Chauffage-F-L-R-Inc/2766241.html?what=plumber&where=Laval+QC&useContext=true,394 Rue Antoine-Plamondon,Laval,QC,H7L 5K6,"394 Rue Antoine-Plamondon, Laval, QC, H7L 5K6",438-801-5266,https://www.yellowpages.ca,Plumbers & Plumbing Contractors,True,plumber,laval QC
Drain Fortin,102719285,https://www.yellowpages.ca/bus/Quebec/Blainville/Drain-Fortin/102719285.html?what=plumber&where=Laval+QC&useContext=true,200-1060 Boul Du Curé-Labelle - Bureau 1,Blainville,QC,J7C 2M6,"200-1060 Boul Du Curé-Labelle - Bureau 1, Blainville, QC, J7C 2M6",450-987-2133,https://drainfortin.ca/,"Plumbers & Plumbing Contractors, More…",True,plumber,laval QC
Plomberie Eric Lalonde Inc,122106,https://www.yellowpages.ca/bus/Quebec/Blainville/Plomberie-Eric-Lalonde-Inc/122106.html?what=plumber&where=Laval+QC&useContext=true,"103-20, rue Émilien-Marcoux",Blainville,QC,J7C 0B5,"103-20, rue Émilien-Marcoux, Blainville, QC, J7C 0B5","450-987-2555,450-437-5303",https://www.yellowpages.ca,Plumbers & Plumbing Contractors,True,plumber,laval QC
Plomberie Laval - Pro Drain,103115347,https://www.yellowpages.ca/bus/Quebec/Saint-Jean-sur-Richelieu/Plomberie-Laval-Pro-Drain/103115347.html?what=plumber&where=Laval+QC&useContext=true,13 Rue Verdi,Saint-Jean-sur-Richelieu,QC,J3B 3W4,"13 Rue Verdi, Saint-Jean-sur-Richelieu, QC, J3B 3W4",450-233-6578,N/A,Plumbers & Plumbing Contractors,True,plumber,laval QC
Plomberie Chauffage MGF Inc,7654503,https://www.yellowpages.ca/bus/Quebec/Laval/Plomberie-Chauffage-MGF-Inc/7654503.html?what=plumber&where=Laval+QC&useContext=true,1450 Avenue Francis-Hughes,Laval,QC,H7S 1N5,"1450 Avenue Francis-Hughes, Laval, QC, H7S 1N5",438-793-4859,https://www.yellowpages.ca,Plumbers & Plumbing Contractors,True,plumber,laval QC
Christie InnoMed Inc,7735882,https://www.yellowpages.ca/bus/Quebec/Saint-Eustache/Christie-InnoMed-Inc/7735882.html?what=fridge&where=Laval+QC&useContext=true,516 Rue Dufour,Saint-Eustache,QC,J7R 0C3,"516 Rue Dufour, Saint-Eustache, QC, J7R 0C3",450-472-0413,https://christieinnomed.com/,"Major Appliance Stores, X-Ray Systems & Equipment, More…",False,fridge,laval QC
Services R Tremblay Enr,1431044,https://www.yellowpages.ca/bus/Quebec/Saint-Leonard/Services-R-Tremblay-Enr/1431044.html?what=fridge&where=Laval+QC&useContext=true,8050 Rue du Creusot,Saint-Léonard,QC,H1P 1W6,"8050 Rue du Creusot, Saint-Léonard, QC, H1P 1W6",514-322-4968,N/A,Major Appliance Stores,False,fridge,laval QC
Hi-Tech Électroménagers,101367437,https://www.yellowpages.ca/bus/Quebec/Saint-Leonard/Hi-Tech-Electromenagers/101367437.html?what=fridge&where=Laval+QC&useContext=true,"6245, boul Métropolitain E",Saint-Léonard,QC,H1P 1X7,"6245, boul Métropolitain E, Saint-Léonard, QC, H1P 1X7",514-214-3702,https://www.yellowpages.ca,"Major Appliance Stores, Appliance Repair & Service",False,fridge,laval QC
Meuble G L 2000,6994621,https://www.yellowpages.ca/bus/Quebec/Saint-Leonard/Meuble-G-L-2000/6994621.html?what=fridge&where=Laval+QC&useContext=true,"8973A, rue Pascal-Gagnon",Saint-Léonard,QC,H1P 1Z4,"8973A, rue Pascal-Gagnon, Saint-Léonard, QC, H1P 1Z4",514-325-4650,http://www.facebook.com/1061571063904753,Major Appliance Stores,False,fridge,laval QC
Services Gilles Désormeaux,6905978,https://www.yellowpages.ca/bus/Quebec/Deux-Montagnes/Services-Gilles-Desormeaux/6905978.html?what=fridge&where=Laval+QC&useContext=true,"629, rue du Berger",Deux-Montagnes,QC,J7R 6G9,"629, rue du Berger, Deux-Montagnes, QC, J7R 6G9",450-473-2698,N/A,Major Appliance Stores,False,fridge,laval QC
Corbeil Electroménagers,6985980,https://www.yellowpages.ca/bus/Quebec/Montreal-Nord/Corbeil-Electromenagers/6985980.html?what=fridge&where=Laval+QC&useContext=true,"6783, boul Léger",Montréal-Nord,QC,H1G 6H8,"6783, boul Léger, Montréal-Nord, QC, H1G 6H8","1-877-726-7234,514-322-8066",https://www.yellowpages.ca,"Refrigerator & Freezer Sales & Service, Major Appliance Stores, More…",False,fridge,laval QC
Corbeil Appliances,8041010,https://www.yellowpages.ca/bus/Quebec/Montreal-Nord/Corbeil-Appliances/8041010.html?what=fridge&where=Laval+QC&useContext=true,"6783, boul Léger",Montréal-Nord,QC,H1G 6H8,"6783, boul Léger, Montréal-Nord, QC, H1G 6H8","1-877-726-7234,514-322-8595",http://www.corbeilelectro.com/,Major Appliance Stores,False,fridge,laval QC
Service Lapointe Enr,7240048,https://www.yellowpages.ca/bus/Quebec/Blainville/Service-Lapointe-Enr/7240048.html?what=fridge&where=Laval+QC&useContext=true,N/A,Blainville,QC,J7B 1H3,"Blainville, QC, J7B 1H3",450-434-0160,http://www.facebook.com/172317370025601,Refrigerator & Freezer Sales & Service,False,fridge,laval QC
Frigidaire Produits Pour La Maison,100229933,https://www.yellowpages.ca/bus/Quebec/Saint-Leonard/Frigidaire-Produits-Pour-La-Maison/100229933.html?what=fridge&where=Laval+QC&useContext=true,"6545, boul Couture",Saint-Léonard,QC,H1P 3L7,"6545, boul Couture, Saint-Léonard, QC, H1P 3L7",514-374-8444,http://reliableparts.ca/,Major Appliance Stores,False,fridge,laval QC
Déco Découverte,7708675,https://www.yellowpages.ca/bus/Quebec/Boisbriand/Deco-Decouverte/7708675.html?what=fridge&where=Laval+QC&useContext=true,3100 Av Des Grandes Tourelles,Boisbriand,QC,J7H 0A2,"3100 Av Des Grandes Tourelles, Boisbriand, QC, J7H 0A2",450-420-9384,http://www.thebay.com/,Department Stores,False,fridge,laval QC
Vente C1 Deal Inc,100954184,https://www.yellowpages.ca/bus/Quebec/Saint-Leonard/Vente-C1-Deal-Inc/100954184.html?what=fridge&where=Laval+QC&useContext=true,9155 boul Langelier,Saint-Léonard,QC,H1P 3K9,"9155 boul Langelier, Saint-Léonard, QC, H1P 3K9",450-835-2442,N/A,"Major Appliance Stores, General Stores, More…",False,fridge,laval QC
Soleil Électroménagers MTL,104921322,https://www.yellowpages.ca/bus/Quebec/Montreal/Soleil-Electromenagers-MTL/104921322.html?what=fridge&where=Laval+QC&useContext=true,6359 BOUL LÉGER,Montreal,QC,H1G 1L4,"6359 BOUL LÉGER, Montreal, QC, H1G 1L4",438-402-5025,https://www.facebook.com/share/1Bpc1E9KjS/?mibextid=wwXIfr,Major Appliance Stores,False,fridge,laval QC
Services Archetype,101485689,https://www.yellowpages.ca/bus/Quebec/Montreal/Services-Archetype/101485689.html?what=fridge&where=Laval+QC&useContext=true,N/A,Montréal,QC,H1P 2X3,"Montréal, QC, H1P 2X3",514-922-1010,https://www.facebook.com/servicesarchetype/,Major Appliance Stores,False,fridge,laval QC
Lavigne Services Inc,1844585,https://www.yellowpages.ca/bus/Quebec/Saint-Leonard/Lavigne-Services-Inc/1844585.html?what=fridge&where=Laval+QC&useContext=true,"8915, rue Mauriac",Saint-Léonard,QC,H1P 2N4,"8915, rue Mauriac, Saint-Léonard, QC, H1P 2N4",514-322-0256,N/A,"Major Appliance Stores, Appliance Repair & Service",False,fridge,laval QC
Lavigne Services Inc,7141722,https://www.yellowpages.ca/bus/Quebec/Saint-Leonard/Lavigne-Services-Inc/7141722.html?what=fridge&where=Laval+QC&useContext=true,"8915, rue Mauriac",Saint-Léonard,QC,H1P 2N4,"8915, rue Mauriac, Saint-Léonard, QC, H1P 2N4",514-250-8324,http://www.facebook.com/324746221681674,Major Appliance Stores,False,fridge,laval QC
Canadian Tire,8173445,https://www.yellowpages.ca/bus/Quebec/Montreal-Nord/Canadian-Tire/8173445.html?what=fridge&where=Laval+QC&useContext=true,5500 Bd Henri Bourassa E Mtl Nord,Montréal-Nord,QC,H1G 2T2,"5500 Bd Henri Bourassa E Mtl Nord, Montréal-Nord, QC, H1G 2T2","514-325-3666,514-325-6010",https://canadiantire.ca/,"Department Stores, New Auto Parts & Supplies",False,fridge,laval QC
Canadian Tire,7363938,https://www.yellowpages.ca/bus/Quebec/Rosemere/Canadian-Tire/7363938.html?what=fridge&where=Laval+QC&useContext=true,10 Boul. Bouthillier,Rosemere,QC,J7A 4B4,"10 Boul. Bouthillier, Rosemere, QC, J7A 4B4",450-437-2007,https://www.canadiantire.ca/en/store-details/qc/rosemere-qc-418.html?utm_source=yext&utm_medium=lss,"Department Stores, New Auto Parts & Supplies",False,fridge,laval QC
Centre de Pièces et Services DB Inc,334473,https://www.yellowpages.ca/bus/Quebec/Montreal/Centre-de-Pieces-et-Services-DB-Inc/334473.html?what=fridge&where=Laval+QC&useContext=true,8000 boul Pie-IX,Montréal,QC,H1Z 3T3,"8000 boul Pie-IX, Montréal, QC, H1Z 3T3",514-374-4500,https://www.yellowpages.ca,"Major Appliance Stores, Appliance Parts & Supplies",False,fridge,laval QC
Electro-Experts,8031665,https://www.yellowpages.ca/bus/Quebec/Montreal/Electro-Experts/8031665.html?what=fridge&where=Laval+QC&useContext=true,8260 boul Pie-IX,Montréal,QC,H1Z 3T6,"8260 boul Pie-IX, Montréal, QC, H1Z 3T6",438-604-5254,https://electro-experts.com/,"Major Appliance Stores, Appliance Manufacturers & Wholesalers, More…",False,fridge,laval QC
Electro De Luxe Mtl Nord,102392509,https://www.yellowpages.ca/bus/Quebec/Montreal-Nord/Electro-De-Luxe-Mtl-Nord/102392509.html?what=fridge&where=Laval+QC&useContext=true,5087 Rue De Charleroi,Montréal-Nord,QC,H1G 2Z6,"5087 Rue De Charleroi, Montréal-Nord, QC, H1G 2Z6",438-368-5457,N/A,Major Appliance Stores,False,fridge,laval QC
Refnor Refrigeration,6528736,https://www.yellowpages.ca/bus/Quebec/Boisbriand/Refnor-Refrigeration/6528736.html?what=fridge&where=Laval+QC&useContext=true,"200, 6E av",Boisbriand,QC,J7G 1Y7,"200, 6E av, Boisbriand, QC, J7G 1Y7",514-240-7440,N/A,"Refrigerator & Freezer Sales & Service, Commercial Refrigeration Sales & Services",False,fridge,laval QC
Dicaire Refrigeration Enrg,7357309,https://www.yellowpages.ca/bus/Quebec/Saint-Eustache/Dicaire-Refrigeration-Enrg/7357309.html?what=fridge&where=Laval+QC&useContext=true,142 62E av,Saint-Eustache,QC,J7P 4E7,"142 62E av, Saint-Eustache, QC, J7P 4E7","450-974-2323,450-668-1896",N/A,"Refrigerator & Freezer Sales & Service, Major Appliance Stores, More…",False,fridge,laval QC
Iptj,101678967,https://www.yellowpages.ca/bus/Quebec/Montreal-Nord/Iptj/101678967.html?what=fridge&where=Laval+QC&useContext=true,"4701, rue de Charleroi",Montréal-Nord,QC,H1H 1V1,"4701, rue de Charleroi, Montréal-Nord, QC, H1H 1V1",514-321-3151,N/A,Major Appliance Stores,False,fridge,laval QC
Ami Electro Plus,101678872,https://www.yellowpages.ca/bus/Quebec/Montreal-Nord/Ami-Electro-Plus/101678872.html?what=fridge&where=Laval+QC&useContext=true,"4701, rue de Charleroi",Montréal-Nord,QC,H1H 1V1,"4701, rue de Charleroi, Montréal-Nord, QC, H1H 1V1",514-322-4244,N/A,Major Appliance Stores,False,fridge,laval QC
Services B & N 2013 Inc,8233454,https://www.yellowpages.ca/bus/Quebec/Montreal/Services-B-N-2013-Inc/8233454.html?what=fridge&where=Laval+QC&useContext=true,8430A Boul Saint-Michel,Montréal,QC,H1Z 3E2,"8430A Boul Saint-Michel, Montréal, QC, H1Z 3E2","514-935-2465,514-449-9441",http://www.servicesbn.com/,Major Appliance Stores,False,fridge,laval QC
MK Electromenager,101463343,https://www.yellowpages.ca/bus/Quebec/Montreal/MK-Electromenager/101463343.html?what=fridge&where=Laval+QC&useContext=true,8499 Boul Saint-Michel,Montréal,QC,H1Z 3E7,"8499 Boul Saint-Michel, Montréal, QC, H1Z 3E7",514-374-3563,N/A,Major Appliance Stores,False,fridge,laval QC
Appareil Pro-Tech Electromenagers,96601,https://www.yellowpages.ca/bus/Quebec/Montreal/Appareil-Pro-Tech-Electromenagers/96601.html?what=fridge&where=Laval+QC&useContext=true,"9309, boul Pie-IX",Montréal,QC,H1Z 3W4,"9309, boul Pie-IX, Montréal, QC, H1Z 3W4",514-326-3838,N/A,Major Appliance Stores,False,fridge,laval QC
Pro-Tech Electroménagers,1271930,https://www.yellowpages.ca/bus/Quebec/Montreal/Pro-Tech-Electromenagers/1271930.html?what=fridge&where=Laval+QC&useContext=true,"9309, boul Pie-IX",Montréal,QC,H1Z 3W4,"9309, boul Pie-IX, Montréal, QC, H1Z 3W4",514-326-3838,N/A,"Major Appliance Stores, Used Appliance Stores",False,fridge,laval QC
Canadian Tire,6842968,https://www.yellowpages.ca/bus/Quebec/Montreal/Canadian-Tire/6842968.html?what=fridge&where=Laval+QC&useContext=true,2225 boul Crémazie E,Montréal,QC,N/A,"2225 boul Crémazie E, Montréal, QC",514-729-1861,https://canadiantire.ca/,"Department Stores, New Auto Parts & Supplies, More…",False,fridge,laval QC
Jimmy Refrigeration,3765328,https://www.yellowpages.ca/bus/Quebec/Montreal-Nord/Jimmy-Refrigeration/3765328.html?what=fridge&where=Laval+QC&useContext=true,3859 rue Martial,Montréal-Nord,QC,H1H 1W6,"3859 rue Martial, Montréal-Nord, QC, H1H 1W6",514-560-7790,http://www.facebook.com/160656677880746,Refrigerator & Freezer Sales & Service,False,fridge,laval QC
S Meubles Finesse Inc,7148522,https://www.yellowpages.ca/bus/Quebec/Montreal-Nord/S-Meubles-Finesse-Inc/7148522.html?what=fridge&where=Laval+QC&useContext=true,"9913, boul Saint-Vital",Montréal-Nord,QC,H1H 4S5,"9913, boul Saint-Vital, Montréal-Nord, QC, H1H 4S5",514-494-9615,N/A,Major Appliance Stores,False,fridge,laval QC
Action Réparation,7936027,https://www.yellowpages.ca/bus/Quebec/Montreal-Nord/Action-Reparation/7936027.html?what=fridge&where=Laval+QC&useContext=true,"10670, av de Bruxelles",Montréal-Nord,QC,H1H 4R6,"10670, av de Bruxelles, Montréal-Nord, QC, H1H 4R6",514-972-0980,http://www.reparationelectromenager.ca/,"Major Appliance Stores, Used Appliance Stores",False,fridge,laval QC
Miele Experience Centre Montreal,6934880,https://www.yellowpages.ca/bus/Quebec/Pointe-Claire/Miele-Experience-Centre-Montreal/6934880.html?what=fridge&where=Laval+QC&useContext=true,68 Boulevard Brunswick,Pointe-Claire,QC,H9B 2L3,"68 Boulevard Brunswick, Pointe-Claire, QC, H9B 2L3",1-866-758-0462,https://www.mielecentre.ca/montreal/,"Major Appliance Stores, Home Vacuum Cleaners",False,fridge,laval QC
Meubles Diallo,7809586,https://www.yellowpages.ca/bus/Quebec/Montreal/Meubles-Diallo/7809586.html?what=fridge&where=Laval+QC&useContext=true,2295 Av Charland,Montréal,QC,H1Z 1B5,"2295 Av Charland, Montréal, QC, H1Z 1B5",514-419-4254,http://www.facebook.com/240013886059464,Major Appliance Stores,False,fridge,laval QC
Canadian Tire,7683761,https://www.yellowpages.ca/bus/Quebec/Dollard-des-Ormeaux/Canadian-Tire/7683761.html?what=fridge&where=Laval+QC&useContext=true,"3079, boul des Sources",Dollard-des-Ormeaux,QC,H9B 1Z6,"3079, boul des Sources, Dollard-des-Ormeaux, QC, H9B 1Z6",514-684-9750,https://canadiantire.ca/,"Department Stores, Mufflers & Exhaust Systems, More…",False,fridge,laval QC
Corbeil Appliances,7866311,https://www.yellowpages.ca/bus/Quebec/Dollard-des-Ormeaux/Corbeil-Appliances/7866311.html?what=fridge&where=Laval+QC&useContext=true,"3163, boul des Sources",Dollard-des-Ormeaux,QC,H9B 1Z6,"3163, boul des Sources, Dollard-des-Ormeaux, QC, H9B 1Z6",514-421-6612,http://www.corbeilelectro.com/,Major Appliance Stores,False,fridge,laval QC
L & L Furniture,2088331,https://www.yellowpages.ca/bus/Quebec/Pierrefonds/L-L-Furniture/2088331.html?what=fridge&where=Laval+QC&useContext=true,"4989, boul des Sources",Pierrefonds,QC,H8Y 3E3,"4989, boul des Sources, Pierrefonds, QC, H8Y 3E3",514-685-1442,N/A,Major Appliance Stores,False,fridge,laval QC
Bilal Electroménagers,102158620,https://www.yellowpages.ca/bus/Quebec/Montreal/Bilal-Electromenagers/102158620.html?what=fridge&where=Laval+QC&useContext=true,9002 Rue Lajeunesse,Montréal,QC,H2M 1R9,"9002 Rue Lajeunesse, Montréal, QC, H2M 1R9",514-750-8639,N/A,Major Appliance Stores,False,fridge,laval QC
Smardt Inc,3914930,https://www.yellowpages.ca/bus/Quebec/Dorval/Smardt-Inc/3914930.html?what=fridge&where=Laval+QC&useContext=true,"1800, Rte Transcanadienne",Dorval,QC,H9P 1H7,"1800, Rte Transcanadienne, Dorval, QC, H9P 1H7",514-683-5457,http://www.smardt.com/,Refrigerator & Freezer Sales & Service,False,fridge,laval QC
Mec Inc - Magister Espresso Canada,102184993,https://www.yellowpages.ca/bus/Quebec/Montreal/Mec-Inc-Magister-Espresso-Canada/102184993.html?what=fridge&where=Laval+QC&useContext=true,315-9150 rue Meilleur,Montréal,QC,H2N 2A5,"315-9150 rue Meilleur, Montréal, QC, H2N 2A5",1-855-632-4636,http://magisterespresso.com/,"Major Appliance Stores, Coffee Shops",False,fridge,laval QC
Gops.7 Inc,102965109,https://www.yellowpages.ca/bus/Quebec/Montreal/Gops-7-Inc/102965109.html?what=fridge&where=Laval+QC&useContext=true,111 Rue Chabanel O,Montréal,QC,H2N 1C8,"111 Rue Chabanel O, Montréal, QC, H2N 1C8",514-296-5820,N/A,Major Appliance Stores,False,fridge,laval QC
Beauprix,102189398,https://www.yellowpages.ca/bus/Quebec/Montreal/Beauprix/102189398.html?what=fridge&where=Laval+QC&useContext=true,1380 Rue Chabanel O,Montréal,QC,H4N 1H4,"1380 Rue Chabanel O, Montréal, QC, H4N 1H4",514-452-1183,https://www.facebook.com/BeauPrix-1318688084892344/,Major Appliance Stores,False,fridge,laval QC
Electro-Experts,7916213,https://www.yellowpages.ca/bus/Quebec/Saint-Laurent/Electro-Experts/7916213.html?what=fridge&where=Laval+QC&useContext=true,4000 boul de la Côte-Vertu,Saint-Laurent,QC,H4R 1V4,"4000 boul de la Côte-Vertu, Saint-Laurent, QC, H4R 1V4","1-866-874-2773,514-339-9918",https://www.electro-experts.com/,"Major Appliance Stores, Appliance Repair & Service",False,fridge,laval QC
Corbeil Appliances,2204180,https://www.yellowpages.ca/bus/Quebec/Montreal/Corbeil-Appliances/2204180.html?what=fridge&where=Laval+QC&useContext=true,9570 boul de l'Acadie,Montréal,QC,H4N 1L8,"9570 boul de l'Acadie, Montréal, QC, H4N 1L8","1-877-726-7234,514-383-1141",http://www.corbeilelectro.com/,"Refrigerator & Freezer Sales & Service, Major Appliance Stores",False,fridge,laval QC
Groupe Cdrem,100323533,https://www.yellowpages.ca/bus/Quebec/Saint-Laurent/Groupe-Cdrem/100323533.html?what=fridge&where=Laval+QC&useContext=true,"3131, boul de la cote-Vertu",Saint-Laurent,QC,H4R 1Y8,"3131, boul de la cote-Vertu, Saint-Laurent, QC, H4R 1Y8",514-923-2178,N/A,"Major Appliance Stores, Electric Shavers, More…",False,fridge,laval QC
AA Electroménagers,6857913,https://www.yellowpages.ca/bus/Quebec/Saint-Laurent/AA-Electromenagers/6857913.html?what=fridge&where=Laval+QC&useContext=true,1480 Rue Bégin,Saint-Laurent,QC,H4R 1X1,"1480 Rue Bégin, Saint-Laurent, QC, H4R 1X1",438-380-1267,http://www.aaelectromenagers.ca/,"Major Appliance Stores, Used Appliance Stores, More…",False,fridge,laval QC
Debsel Inc,2221185,https://www.yellowpages.ca/bus/Quebec/Saint-Laurent/Debsel-Inc/2221185.html?what=fridge&where=Laval+QC&useContext=true,"4225, boul Poirier",Saint-Laurent,QC,H4R 2A4,"4225, boul Poirier, Saint-Laurent, QC, H4R 2A4","514-481-0217,1-877-481-0215,514-481-0215",http://www.appliancity.com/,Major Appliance Stores,False,fridge,laval QC
9106-7405 Quebec Inc,8099134,https://www.yellowpages.ca/bus/Quebec/Saint-Laurent/9106-7405-Quebec-Inc/8099134.html?what=fridge&where=Laval+QC&useContext=true,"3450, boul Thimens",Saint-Laurent,QC,H4R 1V6,"3450, boul Thimens, Saint-Laurent, QC, H4R 1V6",514-335-7138,N/A,Major Appliance Stores,False,fridge,laval QC
Canadian Tire,7699656,https://www.yellowpages.ca/bus/Quebec/Ville-Saint-Laurent/Canadian-Tire/7699656.html?what=fridge&where=Laval+QC&useContext=true,11200 Boul. Cavendish,Ville Saint-Laurent,QC,H4R 2J7,"11200 Boul. Cavendish, Ville Saint-Laurent, QC, H4R 2J7",514-337-4862,https://www.canadiantire.ca/en/store-details/qc/ville-st-laurent-qc-235.html?utm_source=yext&utm_medium=lss,"Department Stores, New Auto Parts & Supplies",False,fridge,laval QC
AstroVac - VacuMaid,113987,https://www.yellowpages.ca/bus/Quebec/Saint-Laurent/AstroVac-VacuMaid/113987.html?what=fridge&where=Laval+QC&useContext=true,"2499, rue Guénette",Saint-Laurent,QC,H4R 2E9,"2499, rue Guénette, Saint-Laurent, QC, H4R 2E9","514-334-4562,1-888-964-2435,514-745-0220",http://www.vacumaid.ca/,"Major Appliance Stores, Central Vacuum Systems",False,fridge,laval QC
Ameublement Bon Choix,2088307,https://www.yellowpages.ca/bus/Quebec/Montreal/Ameublement-Bon-Choix/2088307.html?what=fridge&where=Laval+QC&useContext=true,"12090, boul Laurentien",Montréal,QC,H4K 1M9,"12090, boul Laurentien, Montréal, QC, H4K 1M9",514-495-3444,https://www.facebook.com/pages/Ameublement-Bon-Choix/1022946771130582,"Major Appliance Stores, Used Furniture Stores",False,fridge,laval QC
Electroménagers Gh,100937578,https://www.yellowpages.ca/bus/Quebec/Montreal/Electromenagers-Gh/100937578.html?what=fridge&where=Laval+QC&useContext=true,12080 Boul Laurentien,Montréal,QC,H4K 1M9,"12080 Boul Laurentien, Montréal, QC, H4K 1M9",514-332-2848,N/A,Major Appliance Stores,False,fridge,laval QC
Tourangeau Yves,222459,https://www.yellowpages.ca/bus/Quebec/Tourangeau-Yves/222459.html?what=fridge&where=Laval+QC&useContext=true,N/A,N/A,N/A,N/A,N/A,514-276-5725,N/A,"Major Appliance Stores, Appliance Repair & Service",False,fridge,laval QC
2000 Életroménagers,100220749,https://www.yellowpages.ca/bus/Quebec/Laval/2000-Eletromenagers/100220749.html?what=fridge&where=Laval+QC&useContext=true,2285 rue Michelin,Laval,QC,H7L 5B8,"2285 rue Michelin, Laval, QC, H7L 5B8","1-855-742-3003,514-800-4064,514-800-3003",https://www.yellowpages.ca,"Major Appliance Stores, Appliance Repair & Service",False,fridge,laval QC
Cisli,6949900,https://www.yellowpages.ca/bus/Quebec/Laval/Cisli/6949900.html?what=fridge&where=Laval+QC&useContext=true,"1165, Nord Laval A-440 O",Laval,QC,H7L 3W3,"1165, Nord Laval A-440 O, Laval, QC, H7L 3W3",450-629-1122,http://www.cisli.com/,"Refrigerator & Freezer Sales & Service, Major Appliance Stores",False,fridge,laval QC
Distinctive Appliances Inc,2634759,https://www.yellowpages.ca/bus/Quebec/Laval/Distinctive-Appliances-Inc/2634759.html?what=fridge&where=Laval+QC&useContext=true,"1795, Nord Laval A-440 O",Laval,QC,H7L 3W3,"1795, Nord Laval A-440 O, Laval, QC, H7L 3W3","450-682-7943,450-687-6311,1-800-361-0799",http://www.amiel.ca/,Major Appliance Stores,False,fridge,laval QC
Les Appareils Menagers,2373285,https://www.yellowpages.ca/bus/Quebec/Laval/Les-Appareils-Menagers/2373285.html?what=fridge&where=Laval+QC&useContext=true,129A Boul Curé-Labelle,Laval,QC,H7V 2R7,"129A Boul Curé-Labelle, Laval, QC, H7V 2R7",450-625-5620,N/A,Major Appliance Stores,False,fridge,laval QC
Clinique De L'Electro,7847052,https://www.yellowpages.ca/bus/Quebec/Laval/Clinique-De-L-Electro/7847052.html?what=fridge&where=Laval+QC&useContext=true,"3428, rue Isabelle",Laval,QC,H7P 3N2,"3428, rue Isabelle, Laval, QC, H7P 3N2",450-625-5673,http://www.cliniquedelelectro.com/,Major Appliance Stores,False,fridge,laval QC
