Name,Listing_id,Profile_url,Street_address,City,Province,Postal_code,Full_address,Phones,Website,Categories,Sponsored,What,Where
Plomberie Laval - Pro Drain,103115347,https://www.yellowpages.ca/bus/Quebec/Saint-Jean-sur-Richelieu/Plomberie-Laval-Pro-Drain/103115347.html?what=plumber&where=Laval+QC&useContext=true,13 Rue Verdi,Saint-Jean-sur-Richelieu,QC,J3B 3W4,"13 Rue Verdi, Saint-Jean-sur-Richelieu, QC, J3B 3W4",450-233-6578,N/A,Plumbers & Plumbing Contractors,TRUE,plumber,laval QC
Fred,7212822,https://www.yellowpages.ca/bus/Quebec/Laval/Fred/7212822.html?what=plumber&where=Laval+QC&useContext=true,"2055, boul Saint-Martin O",Laval,QC,H7S 1N3,"2055, boul Saint-Martin O, Laval, QC, H7S 1N3",450-686-1116,http://www.facebook.com/256099348074646,"Plumbers & Plumbing Contractors, Restaurants",FALSE,plumber,laval QC
George Plumbing,101565888,https://www.yellowpages.ca/bus/Quebec/Laval/George-Plumbing/101565888.html?what=plumber&where=Laval+QC&useContext=true,402 Place de Canterbury,Laval,QC,H7W 4G9,"402 Place de Canterbury, Laval, QC, H7W 4G9","438-797-5770,514-835-7882",N/A,Plumbers & Plumbing Contractors,FALSE,plumber,laval QC
Plomberie Soudure Dg Inc,100505625,https://www.yellowpages.ca/bus/Quebec/Terrebonne/Plomberie-Soudure-Dg-Inc/100505625.html?what=plumber&where=Laval+QC&useContext=true,"3345, boul des Entreprises",Terrebonne,QC,J6X 4J9,"3345, boul des Entreprises, Terrebonne, QC, J6X 4J9",450-968-2525,N/A,Plumbers & Plumbing Contractors,FALSE,plumber,laval QC
Monsieur Drain,101127940,https://www.yellowpages.ca/bus/Quebec/Monsieur-Drain/101127940.html?what=plumber&where=Laval+QC&useContext=true,N/A,N/A,N/A,N/A,N/A,450-231-0449,N/A,Plumbers & Plumbing Contractors,FALSE,plumber,laval QC
Chauffe-Eau S O S Inc,7163150,https://www.yellowpages.ca/bus/Quebec/Laval/Chauffe-Eau-S-O-S-Inc/7163150.html?what=plumber&where=Laval+QC&useContext=true,"1715, boul Lévesque E",Laval,QC,H7G 1E2,"1715, boul Lévesque E, Laval, QC, H7G 1E2",514-467-6746,http://www.chauffeeausos.ca/,"Plumbers & Plumbing Contractors, Water Heater Dealers",FALSE,plumber,laval QC
Plomberie Claude Carmel,100461894,https://www.yellowpages.ca/bus/Quebec/Laval/Plomberie-Claude-Carmel/100461894.html?what=plumber&where=Laval+QC&useContext=true,"2406, rue du Faisan",Laval,QC,H7L 4K8,"2406, rue du Faisan, Laval, QC, H7L 4K8",514-386-3750,http://plomberieclaude.com/,Plumbers & Plumbing Contractors,FALSE,plumber,laval QC
Espace Plomberium,3955885,https://www.yellowpages.ca/bus/Quebec/Mascouche/Espace-Plomberium/3955885.html?what=plumber&where=Laval+QC&useContext=true,"10, Montée Masson",Mascouche,QC,J7K 3B5,"10, Montée Masson, Mascouche, QC, J7K 3B5",450-474-3881,https://www.espaceplomberium.com/,"Plumbers & Plumbing Contractors, Plumbing Fixture & Supply Stores",FALSE,plumber,laval QC
Espace Plomberium,100442107,https://www.yellowpages.ca/bus/Quebec/Laval/Espace-Plomberium/100442107.html?what=plumber&where=Laval+QC&useContext=true,"4595, Nord Laval A-440 O",Laval,QC,H7P 0J7,"4595, Nord Laval A-440 O, Laval, QC, H7P 0J7",514-370-5511,http://www.boutiquealo.com/,Plumbers & Plumbing Contractors,FALSE,plumber,laval QC
Vague & Vogue,102067466,https://www.yellowpages.ca/bus/Quebec/Laval/Vague-Vogue/102067466.html?what=plumber&where=Laval+QC&useContext=true,4200 Louis B Mayer,Laval,QC,H7P 0G1,"4200 Louis B Mayer, Laval, QC, H7P 0G1",450-680-0061,https://www.vagueetvogue.com/fr/,"Plumbers & Plumbing Contractors, Bathroom Accessories",FALSE,plumber,laval QC
Plomberie A & L Inc,101599505,https://www.yellowpages.ca/bus/Quebec/Laval/Plomberie-A-L-Inc/101599505.html?what=plumber&where=Laval+QC&useContext=true,1887 Lavoie,Laval,QC,H7M 2N4,"1887 Lavoie, Laval, QC, H7M 2N4",450-663-7403,https://www.alplomberie.com/,Plumbers & Plumbing Contractors,FALSE,plumber,laval QC
Plomberie PA Poulin,100924929,https://www.yellowpages.ca/bus/Quebec/Sainte-Marthe-sur-le-Lac/Plomberie-PA-Poulin/100924929.html?what=plumber&where=Laval+QC&useContext=true,3204 ch Oka,Sainte-Marthe-sur-le-Lac,QC,J0N 1P0,"3204 ch Oka, Sainte-Marthe-sur-le-Lac, QC, J0N 1P0",450-472-2512,N/A,"Plumbers & Plumbing Contractors, Plumbing Fixture & Supply Stores",FALSE,plumber,laval QC
Plomberie Jet D'Eau 2020,8178886,https://www.yellowpages.ca/bus/Quebec/Terrebonne/Plomberie-Jet-D-Eau-2020/8178886.html?what=plumber&where=Laval+QC&useContext=true,3360 Rue Jacob Jordan,Terrebonne,QC,J6X 4J6,"3360 Rue Jacob Jordan, Terrebonne, QC, J6X 4J6",450-474-5475,https://www.yellowpages.ca,Plumbers & Plumbing Contractors,FALSE,plumber,laval QC
Classique Plomberie Chauffage et Drainage,381301,https://www.yellowpages.ca/bus/Quebec/Montreal-Nord/Classique-Plomberie-Chauffage-et-Drainage/381301.html?what=plumber&where=Laval+QC&useContext=true,12444 boul Rolland,Montréal-Nord,QC,H1G 6B2,"12444 boul Rolland, Montréal-Nord, QC, H1G 6B2",514-327-0434,https://www.facebook.com/pages/Classique-Plomberie-Chauffage-et-Drainage/515268052005032,"Plumbers & Plumbing Contractors, Sewer Line Inspection",FALSE,plumber,laval QC
Entreprise Jeannot Paquette Inc,8230235,https://www.yellowpages.ca/bus/Quebec/Mirabel/Entreprise-Jeannot-Paquette-Inc/8230235.html?what=plumber&where=Laval+QC&useContext=true,"18060, rue J.A.Bombardier",Mirabel,QC,J7J 2H8,"18060, rue J.A.Bombardier, Mirabel, QC, J7J 2H8",450-437-8770,http://www.jeannotpaquette.com/,"Plumbers & Plumbing Contractors, Gas Appliance Repair & Maintenance, More…",FALSE,plumber,laval QC
E.B. Plomberie,104899865,https://www.yellowpages.ca/bus/Quebec/E-B-Plomberie/104899865.html?what=plumber&where=Laval+QC&useContext=true,N/A,N/A,N/A,N/A,N/A,438-924-8640,N/A,Plumbers & Plumbing Contractors,FALSE,plumber,laval QC
Boules Plumbing,101256114,https://www.yellowpages.ca/bus/Quebec/Laval/Boules-Plumbing/101256114.html?what=plumber&where=Laval+QC&useContext=true,1037 av Jean-Charles,Laval,QC,H7L 5J7,"1037 av Jean-Charles, Laval, QC, H7L 5J7",514-916-6881,N/A,Plumbers & Plumbing Contractors,FALSE,plumber,laval QC
Paris Plumbing Laval,104169145,https://www.yellowpages.ca/bus/Quebec/Laval/Paris-Plumbing-Laval/104169145.html?what=plumber&where=Laval+QC&useContext=true,2138 Boul Des Laurentides,Laval,QC,H7M 2Y6,"2138 Boul Des Laurentides, Laval, QC, H7M 2Y6",450-600-3328,N/A,Plumbers & Plumbing Contractors,FALSE,plumber,laval QC
Double Plumbing Services,104168648,https://www.yellowpages.ca/bus/Quebec/Vimont/Double-Plumbing-Services/104168648.html?what=plumber&where=Laval+QC&useContext=true,1768C Boul Des Laurentides,Vimont,QC,H7M 2P6,"1768C Boul Des Laurentides, Vimont, QC, H7M 2P6",450-600-6889,N/A,Plumbers & Plumbing Contractors,FALSE,plumber,laval QC
Alex Plomberie Et Chauffage Enr. 2757-9150 Québe c Inc.,104196463,https://www.yellowpages.ca/bus/Quebec/Laval/Alex-Plomberie-Et-Chauffage-Enr-2757-9150-Quebe-c-Inc/104196463.html?what=plumber&where=Laval+QC&useContext=true,322 Rue Saint-Hubert,Laval,QC,H7G 2Y6,"322 Rue Saint-Hubert, Laval, QC, H7G 2Y6",450-667-6432,N/A,Plumbers & Plumbing Contractors,FALSE,plumber,laval QC
Voda Plumbing Laval,104168971,https://www.yellowpages.ca/bus/Quebec/Laval/Voda-Plumbing-Laval/104168971.html?what=plumber&where=Laval+QC&useContext=true,3300-3340 100E Av,Laval,QC,H7T 0J7,"3300-3340 100E Av, Laval, QC, H7T 0J7",450-367-6366,N/A,Plumbers & Plumbing Contractors,FALSE,plumber,laval QC
Plomberie Chauffage Eco Inc,102837422,https://www.yellowpages.ca/bus/Quebec/Laval/Plomberie-Chauffage-Eco-Inc/102837422.html?what=plumber&where=Laval+QC&useContext=true,7776 Rue Des Amandiers,Laval,QC,H7A 4J2,"7776 Rue Des Amandiers, Laval, QC, H7A 4J2",438-356-7575,N/A,Plumbers & Plumbing Contractors,FALSE,plumber,laval QC
Gfm Plumbing & Electric,104170566,https://www.yellowpages.ca/bus/Quebec/Laval/Gfm-Plumbing-Electric/104170566.html?what=plumber&where=Laval+QC&useContext=true,1135 Boul Lesage,Laval,QC,H7E 4V4,"1135 Boul Lesage, Laval, QC, H7E 4V4",450-234-4927,N/A,Plumbers & Plumbing Contractors,FALSE,plumber,laval QC
Plomberie Jj,103115875,https://www.yellowpages.ca/bus/Quebec/Laval/Plomberie-Jj/103115875.html?what=plumber&where=Laval+QC&useContext=true,3473 Boul Sainte-Rose,Laval,QC,H7P 4M1,"3473 Boul Sainte-Rose, Laval, QC, H7P 4M1",514-808-3898,N/A,Plumbers & Plumbing Contractors,FALSE,plumber,laval QC
MSR mécanique et plomberie inc,103116966,https://www.yellowpages.ca/bus/Quebec/Boisbriand/MSR-mecanique-et-plomberie-inc/103116966.html?what=plumber&where=Laval+QC&useContext=true,3675 Boul De La Grande-Allée,Boisbriand,QC,J7H 1H5,"3675 Boul De La Grande-Allée, Boisbriand, QC, J7H 1H5",450-818-4441,https://www.facebook.com/msrmecaniqueetplomberie,Plumbers & Plumbing Contractors,FALSE,plumber,laval QC
Plomberie HK et Fils - Plombier Saint-François,104497516,https://www.yellowpages.ca/bus/Quebec/Laval/Plomberie-HK-et-Fils-Plombier-Saint-Francois/104497516.html?what=plumber&where=Laval+QC&useContext=true,8505 Rue Adrien #204,Laval,QC,H7A 1J9,"8505 Rue Adrien #204, Laval, QC, H7A 1J9",514-880-8422,https://www.411habitation.com/plombiers/laval/saint-francois-2/plombiers-saint-francois.htm,Plumbers & Plumbing Contractors,FALSE,plumber,laval QC
Groupe Deschênes Inc,6843131,https://www.yellowpages.ca/bus/Quebec/Montreal/Groupe-Deschenes-Inc/6843131.html?what=plumber&where=Laval+QC&useContext=true,250-3901 rue Jarry E,Montréal,QC,H1Z 2G1,"250-3901 rue Jarry E, Montréal, QC, H1Z 2G1","1-800-361-1784,514-374-5141,514-374-3110",http://www.deschenes.ca/,"Plumbers & Plumbing Contractors, Fire Protection Equipment, More…",FALSE,plumber,laval QC
Plomberie Saint Michel,100504226,https://www.yellowpages.ca/bus/Quebec/Plomberie-Saint-Michel/100504226.html?what=plumber&where=Laval+QC&useContext=true,N/A,N/A,N/A,N/A,N/A,514-224-3800,N/A,"Plumbers & Plumbing Contractors, Home Improvements & Renovations",FALSE,plumber,laval QC
Plombier,100504413,https://www.yellowpages.ca/bus/Quebec/Plombier/100504413.html?what=plumber&where=Laval+QC&useContext=true,N/A,N/A,N/A,N/A,N/A,450-663-1151,N/A,Plumbers & Plumbing Contractors,FALSE,plumber,laval QC
Plombier,100504595,https://www.yellowpages.ca/bus/Quebec/Plombier/100504595.html?what=plumber&where=Laval+QC&useContext=true,N/A,N/A,N/A,N/A,N/A,450-664-2567,N/A,Plumbers & Plumbing Contractors,FALSE,plumber,laval QC
Lpj Plumbing Inc,100504529,https://www.yellowpages.ca/bus/Quebec/Laval/Lpj-Plumbing-Inc/100504529.html?what=plumber&where=Laval+QC&useContext=true,1461 Av Webb,Laval,QC,H7W 3R9,"1461 Av Webb, Laval, QC, H7W 3R9",450-682-8922,N/A,Plumbers & Plumbing Contractors,FALSE,plumber,laval QC
Plombier,100504151,https://www.yellowpages.ca/bus/Quebec/Plombier/100504151.html?what=plumber&where=Laval+QC&useContext=true,N/A,N/A,N/A,N/A,N/A,450-575-7707,N/A,Plumbers & Plumbing Contractors,FALSE,plumber,laval QC
Plomberie,100503991,https://www.yellowpages.ca/bus/Ontario/Plomberie/100503991.html?what=plumber&where=Laval+QC&useContext=true,N/A,N/A,N/A,N/A,N/A,613-802-2821,N/A,Plumbers & Plumbing Contractors,FALSE,plumber,laval QC
Bob le plombier,100845452,https://www.yellowpages.ca/bus/Quebec/Bob-le-plombier/100845452.html?what=plumber&where=Laval+QC&useContext=true,N/A,N/A,N/A,N/A,N/A,450-933-0387,N/A,Plumbers & Plumbing Contractors,FALSE,plumber,laval QC
Plomberie Mario Thivierge Inc,100604141,https://www.yellowpages.ca/bus/Quebec/Laval/Plomberie-Mario-Thivierge-Inc/100604141.html?what=plumber&where=Laval+QC&useContext=true,N/A,Laval,QC,N/A,"Laval, QC",450-824-3256,N/A,Plumbers & Plumbing Contractors,FALSE,plumber,laval QC
J A Barron Et Fils Ltée,102696695,https://www.yellowpages.ca/bus/Quebec/J-A-Barron-Et-Fils-Ltee/102696695.html?what=plumber&where=Laval+QC&useContext=true,590 Lambert,N/A,QC,H7A 2E9,"590 Lambert, QC, H7A 2E9",514-386-7475,N/A,Plumbers & Plumbing Contractors,FALSE,plumber,laval QC
Plomberie M Milette Inc,102694306,https://www.yellowpages.ca/bus/Quebec/Plomberie-M-Milette-Inc/102694306.html?what=plumber&where=Laval+QC&useContext=true,N/A,N/A,N/A,N/A,N/A,450-973-2087,N/A,Plumbers & Plumbing Contractors,FALSE,plumber,laval QC
J'aime mon Plombier,102723688,https://www.yellowpages.ca/bus/Quebec/SALABERRY-DE-VALLEYFIELD/J-aime-mon-Plombier/102723688.html?what=plumber&where=Laval+QC&useContext=true,"33 RUE DES ÉRABLES,",SALABERRY-DE-VALLEYFIELD,QC,J6T 5A3,"33 RUE DES ÉRABLES,, SALABERRY-DE-VALLEYFIELD, QC, J6T 5A3",514-575-0257,N/A,Plumbers & Plumbing Contractors,FALSE,plumber,laval QC
L`Eau-Pro 2010 Inc,102731346,https://www.yellowpages.ca/bus/Quebec/L-Eau-Pro-2010-Inc/102731346.html?what=plumber&where=Laval+QC&useContext=true,N/A,N/A,N/A,N/A,N/A,514-707-7474,N/A,Plumbers & Plumbing Contractors,FALSE,plumber,laval QC
Plomberie Genitek,102453039,https://www.yellowpages.ca/bus/Quebec/Terrebonne/Plomberie-Genitek/102453039.html?what=plumber&where=Laval+QC&useContext=true,385 Rue De Chauvigny,Terrebonne,QC,J6Y 2C1,"385 Rue De Chauvigny, Terrebonne, QC, J6Y 2C1",450-621-8081,N/A,Plumbers & Plumbing Contractors,FALSE,plumber,laval QC
Prospas,102499044,https://www.yellowpages.ca/bus/Quebec/Laval/Prospas/102499044.html?what=plumber&where=Laval+QC&useContext=true,7255 Rue André-Breton,Laval,QC,H7R 5Z7,"7255 Rue André-Breton, Laval, QC, H7R 5Z7",450-314-2917,N/A,Plumbers & Plumbing Contractors,FALSE,plumber,laval QC
Plomberie Champagne Inc,5928633,https://www.yellowpages.ca/bus/Quebec/Plomberie-Champagne-Inc/5928633.html?what=plumber&where=Laval+QC&useContext=true,N/A,N/A,QC,H7L 3W3,"QC, H7L 3W3",450-973-4554,N/A,Plumbers & Plumbing Contractors,FALSE,plumber,laval QC
Télé-Egout Inc,101636138,https://www.yellowpages.ca/bus/Quebec/LAVAL/Tele-Egout-Inc/101636138.html?what=plumber&where=Laval+QC&useContext=true,N/A,LAVAL,QC,N/A,"LAVAL, QC",514-279-7113,N/A,Plumbers & Plumbing Contractors,FALSE,plumber,laval QC
Plomberie Capitaine Inc,102375943,https://www.yellowpages.ca/bus/Quebec/Laval/Plomberie-Capitaine-Inc/102375943.html?what=plumber&where=Laval+QC&useContext=true,1888 Rue De Tripoli,Laval,QC,H7M 4M5,"1888 Rue De Tripoli, Laval, QC, H7M 4M5",514-465-6662,N/A,Plumbers & Plumbing Contractors,FALSE,plumber,laval QC
Recyclage Impérial,100482020,https://www.yellowpages.ca/bus/Quebec/Recyclage-Imperial/100482020.html?what=plumber&where=Laval+QC&useContext=true,N/A,N/A,N/A,N/A,N/A,438-777-7374,N/A,"Plumbers & Plumbing Contractors, Building Contractors, More…",FALSE,plumber,laval QC
P C I Blanchet Inc,2668248,https://www.yellowpages.ca/bus/Quebec/Laval/P-C-I-Blanchet-Inc/2668248.html?what=plumber&where=Laval+QC&useContext=true,"1092, av Léo-Lacombe",Laval,QC,H7N 3Y6,"1092, av Léo-Lacombe, Laval, QC, H7N 3Y6",450-663-8787,N/A,Plumbers & Plumbing Contractors,FALSE,plumber,laval QC
Plomberie Signature Slm,5947374,https://www.yellowpages.ca/bus/Quebec/Terrebonne/Plomberie-Signature-Slm/5947374.html?what=plumber&where=Laval+QC&useContext=true,"2293, rue Antonio-Héroux",Terrebonne,QC,J6X 4R3,"2293, rue Antonio-Héroux, Terrebonne, QC, J6X 4R3",450-477-3232,N/A,Plumbers & Plumbing Contractors,FALSE,plumber,laval QC
Plomberie Ge Mo Inc,101134827,https://www.yellowpages.ca/bus/Quebec/Laval/Plomberie-Ge-Mo-Inc/101134827.html?what=plumber&where=Laval+QC&useContext=true,"8155, rue Aline",Laval,QC,H7A 1N2,"8155, rue Aline, Laval, QC, H7A 1N2",450-936-4486,http://www.facebook.com/217697268960100,Plumbers & Plumbing Contractors,FALSE,plumber,laval QC
Carrier Canada Ltee,102075530,https://www.yellowpages.ca/bus/Quebec/Laval/Carrier-Canada-Ltee/102075530.html?what=plumber&where=Laval+QC&useContext=true,1163 Nord Laval (A-440) O,Laval,QC,H7L 3W3,"1163 Nord Laval (A-440) O, Laval, QC, H7L 3W3",450-662-3592,http://www.facebook.com/216889308676935,"Plumbers & Plumbing Contractors, Heating Systems & Equipment",FALSE,plumber,laval QC
Plomberie Olivier Cloutier,100294396,https://www.yellowpages.ca/bus/Quebec/Laval/Plomberie-Olivier-Cloutier/100294396.html?what=plumber&where=Laval+QC&useContext=true,"130, Place de Naples",Laval,QC,H7M 4A6,"130, Place de Naples, Laval, QC, H7M 4A6",450-669-4046,https://constructionoliviercloutier.com/,Plumbers & Plumbing Contractors,FALSE,plumber,laval QC
2L Plomberie,102481114,https://www.yellowpages.ca/bus/Quebec/Sainte-Therese/2L-Plomberie/102481114.html?what=plumber&where=Laval+QC&useContext=true,89 Rue Dubois,Sainte-Thérèse,QC,J7E 1K4,"89 Rue Dubois, Sainte-Thérèse, QC, J7E 1K4",514-349-4242,N/A,Plumbers & Plumbing Contractors,FALSE,plumber,laval QC
Plomberie GFM,101721090,https://www.yellowpages.ca/bus/Quebec/Laval/Plomberie-GFM/101721090.html?what=plumber&where=Laval+QC&useContext=true,"3810, rue Groulx",Laval,QC,H7E 1H9,"3810, rue Groulx, Laval, QC, H7E 1H9",450-664-7779,N/A,Plumbers & Plumbing Contractors,FALSE,plumber,laval QC
Noble Quebec,7596906,https://www.yellowpages.ca/bus/Quebec/Laval/Noble-Quebec/7596906.html?what=plumber&where=Laval+QC&useContext=true,"3327, boul Industriel",Laval,QC,H7L 4S3,"3327, boul Industriel, Laval, QC, H7L 4S3",450-667-7800,http://www.noble.ca/,Plumbers & Plumbing Contractors,FALSE,plumber,laval QC
Excavation Econo,100668991,https://www.yellowpages.ca/bus/Quebec/Laval/Excavation-Econo/100668991.html?what=plumber&where=Laval+QC&useContext=true,"1640, boul Saint-Elzéar O",Laval,QC,H7L 3N2,"1640, boul Saint-Elzéar O, Laval, QC, H7L 3N2",450-688-5309,http://www.groupeecono.com/,"Plumbers & Plumbing Contractors, Excavation Contractors",FALSE,plumber,laval QC
Plomberie N.G.S. Inc,6690615,https://www.yellowpages.ca/bus/Quebec/Laval/Plomberie-N-G-S-Inc/6690615.html?what=plumber&where=Laval+QC&useContext=true,449 Rue de Chaville,Laval,QC,H7K 0B7,"449 Rue de Chaville, Laval, QC, H7K 0B7",514-234-3943,https://www.plomberiengs.com/,"Plumbers & Plumbing Contractors, Drain & Sewer Cleaning",FALSE,plumber,laval QC
Drainage MSM,102331802,https://www.yellowpages.ca/bus/Quebec/L-Assomption/Drainage-MSM/102331802.html?what=plumber&where=Laval+QC&useContext=true,200 ch des Commissaires,L'Assomption,QC,J5W 2T7,"200 ch des Commissaires, L'Assomption, QC, J5W 2T7","450-589-3676,514-838-2251",https://drainage-msm.com/,"Plumbers & Plumbing Contractors, Drainage Contractors",FALSE,plumber,laval QC
Drain Rex,102827500,https://www.yellowpages.ca/bus/Quebec/Laval/Drain-Rex/102827500.html?what=plumber&where=Laval+QC&useContext=true,5125 80e rue,Laval,QC,H7R 1K2,"5125 80e rue, Laval, QC, H7R 1K2","514-619-3244,514-713-3244",https://drainrex.ca/,Plumbers & Plumbing Contractors,FALSE,plumber,laval QC
Plomberie-Chauffage-Gaz Naturel J Croteau Inc,2670137,https://www.yellowpages.ca/bus/Quebec/Laval/Plomberie-Chauffage-Gaz-Naturel-J-Croteau-Inc/2670137.html?what=plumber&where=Laval+QC&useContext=true,"619, rue Lesage",Laval,QC,H7E 2Y6,"619, rue Lesage, Laval, QC, H7E 2Y6",450-669-7680,N/A,Plumbers & Plumbing Contractors,FALSE,plumber,laval QC
Plomberie F G D Duquette Inc,8081682,https://www.yellowpages.ca/bus/Quebec/Plomberie-F-G-D-Duquette-Inc/8081682.html?what=plumber&where=Laval+QC&useContext=true,N/A,N/A,N/A,N/A,N/A,450-453-4400,N/A,Plumbers & Plumbing Contractors,FALSE,plumber,laval QC
Groupe Paquette Mécanique Du Bâtiment Inc,6039165,https://www.yellowpages.ca/bus/Quebec/Laval/Groupe-Paquette-Mecanique-Du-Batiment-Inc/6039165.html?what=plumber&where=Laval+QC&useContext=true,"275, boul Marc-Aurèle-Fortin",Laval,QC,H7L 2A2,"275, boul Marc-Aurèle-Fortin, Laval, QC, H7L 2A2",450-625-2297,http://www.groupe-paquette.com/,"Plumbers & Plumbing Contractors, General Contractors",FALSE,plumber,laval QC
Plomberie & Chauffage V M Ltd,6958572,https://www.yellowpages.ca/bus/Quebec/Laval/Plomberie-Chauffage-V-M-Ltd/6958572.html?what=plumber&where=Laval+QC&useContext=true,"1640, rue Victor-Morin",Laval,QC,H7G 4C2,"1640, rue Victor-Morin, Laval, QC, H7G 4C2",450-663-6009,http://www.facebook.com/310377172779941,Plumbers & Plumbing Contractors,FALSE,plumber,laval QC
Plomberie-Chauffage Roland Lacombe & Fils,2670080,https://www.yellowpages.ca/bus/Quebec/Laval/Plomberie-Chauffage-Roland-Lacombe-Fils/2670080.html?what=plumber&where=Laval+QC&useContext=true,"5385, rue Portal",Laval,QC,H7K 3Y7,"5385, rue Portal, Laval, QC, H7K 3Y7",450-665-3006,http://www.rlacombe.ca/,Plumbers & Plumbing Contractors,FALSE,plumber,laval QC
Larocque G Plomberie & Chauffage Inc,2661273,https://www.yellowpages.ca/bus/Quebec/Laval/Larocque-G-Plomberie-Chauffage-Inc/2661273.html?what=plumber&where=Laval+QC&useContext=true,"612, rue Maisonneuve",Laval,QC,H7X 1N7,"612, rue Maisonneuve, Laval, QC, H7X 1N7",450-681-3928,N/A,Plumbers & Plumbing Contractors,FALSE,plumber,laval QC
N.Rossi Plomberie & Chauffage Inc,2673772,https://www.yellowpages.ca/bus/Quebec/Laval/N-Rossi-Plomberie-Chauffage-Inc/2673772.html?what=plumber&where=Laval+QC&useContext=true,"40, rue de Lisieux",Laval,QC,H7N 2A1,"40, rue de Lisieux, Laval, QC, H7N 2A1",450-663-4746,https://www.yellowpages.ca,Plumbers & Plumbing Contractors,FALSE,plumber,laval QC
Plomberie Tesolin & Fils Inc,100504015,https://www.yellowpages.ca/bus/Quebec/Plomberie-Tesolin-Fils-Inc/100504015.html?what=plumber&where=Laval+QC&useContext=true,N/A,N/A,N/A,N/A,N/A,450-664-1039,N/A,Plumbers & Plumbing Contractors,FALSE,plumber,laval QC
Hartman Mechanical Plumbing & Heating,100505171,https://www.yellowpages.ca/bus/Quebec/Hartman-Mechanical-Plumbing-Heating/100505171.html?what=plumber&where=Laval+QC&useContext=true,N/A,N/A,N/A,N/A,N/A,450-688-2110,N/A,Plumbers & Plumbing Contractors,FALSE,plumber,laval QC
S O S Water Heater,7697401,https://www.yellowpages.ca/bus/Quebec/S-O-S-Water-Heater/7697401.html?what=plumber&where=Laval+QC&useContext=true,N/A,N/A,N/A,N/A,N/A,450-926-9836,N/A,Plumbers & Plumbing Contractors,FALSE,plumber,laval QC
Plomberie-Chauffage Roland Lacombe Inc,100421549,https://www.yellowpages.ca/bus/Quebec/Laval/Plomberie-Chauffage-Roland-Lacombe-Inc/100421549.html?what=plumber&where=Laval+QC&useContext=true,"5385, rue Portal",Laval,QC,H7K 3Y7,"5385, rue Portal, Laval, QC, H7K 3Y7",450-937-1147,N/A,Plumbers & Plumbing Contractors,FALSE,plumber,laval QC
EMCO Corporation Engeneering Pipe Group,100813850,https://www.yellowpages.ca/bus/Quebec/Laval/EMCO-Corporation-Engeneering-Pipe-Group/100813850.html?what=plumber&where=Laval+QC&useContext=true,2855 rue Étienne-Lenoir,Laval,QC,H7R 6J4,"2855 rue Étienne-Lenoir, Laval, QC, H7R 6J4","450-963-3010,450-963-6811",N/A,Plumbers & Plumbing Contractors,FALSE,plumber,laval QC
Plomberie Beauchamps et Delli Colli,8179378,https://www.yellowpages.ca/bus/Quebec/Plomberie-Beauchamps-et-Delli-Colli/8179378.html?what=plumber&where=Laval+QC&useContext=true,N/A,N/A,N/A,N/A,N/A,450-662-1955,N/A,Plumbers & Plumbing Contractors,FALSE,plumber,laval QC
Plomberie Industech International Canada Inc,100568568,https://www.yellowpages.ca/bus/Quebec/Plomberie-Industech-International-Canada-Inc/100568568.html?what=plumber&where=Laval+QC&useContext=true,N/A,N/A,N/A,N/A,N/A,514-927-8768,N/A,Plumbers & Plumbing Contractors,FALSE,plumber,laval QC
Plomberie et Chauffage DM Inc,101838447,https://www.yellowpages.ca/bus/Quebec/Laval/Plomberie-et-Chauffage-DM-Inc/101838447.html?what=plumber&where=Laval+QC&useContext=true,562 rue Rémillard,Laval,QC,H7H 3A8,"562 rue Rémillard, Laval, QC, H7H 3A8",438-397-7867,N/A,Plumbers & Plumbing Contractors,FALSE,plumber,laval QC
Maurice Denis & Fils Inc,2664273,https://www.yellowpages.ca/bus/Quebec/Laval/Maurice-Denis-Fils-Inc/2664273.html?what=plumber&where=Laval+QC&useContext=true,"1745, rue Guillet",Laval,QC,H7L 5B1,"1745, rue Guillet, Laval, QC, H7L 5B1",450-687-3840,http://www.groupemdf.com/,Plumbers & Plumbing Contractors,FALSE,plumber,laval QC
Plumbing & Heating J T,2670150,https://www.yellowpages.ca/bus/Quebec/Chomedey/Plumbing-Heating-J-T/2670150.html?what=plumber&where=Laval+QC&useContext=true,1401 Bd Elisabeth,Chomedey,QC,N/A,"1401 Bd Elisabeth, Chomedey, QC",450-687-3402,http://jtheating.co.uk/,Plumbers & Plumbing Contractors,FALSE,plumber,laval QC
Plomberie Tesolin & Fils Inc,7505426,https://www.yellowpages.ca/bus/Quebec/Duvernay/Plomberie-Tesolin-Fils-Inc/7505426.html?what=plumber&where=Laval+QC&useContext=true,3135 Rang du Haut-St-François,Duvernay,QC,H7E 4R2,"3135 Rang du Haut-St-François, Duvernay, QC, H7E 4R2",514-444-5344,http://www.facebook.com/151419101919962,Plumbers & Plumbing Contractors,FALSE,plumber,laval QC
Domier Plomberie & Chauffage Inc,6374446,https://www.yellowpages.ca/bus/Quebec/Laval/Domier-Plomberie-Chauffage-Inc/6374446.html?what=plumber&where=Laval+QC&useContext=true,"3933, boul Léman",Laval,QC,H7E 4V7,"3933, boul Léman, Laval, QC, H7E 4V7",450-661-9243,N/A,Plumbers & Plumbing Contractors,FALSE,plumber,laval QC
Wolseley Canada Quebec Mechanical WW,7760029,https://www.yellowpages.ca/bus/Quebec/Wolseley-Canada-Quebec-Mechanical-WW/7760029.html?what=plumber&where=Laval+QC&useContext=true,N/A,N/A,N/A,N/A,N/A,450-663-5331,http://www.wolseleyinc.ca/home.htm;jsessionid=77B89653F17635DFFF9B07CF0AD932BB,Plumbers & Plumbing Contractors,FALSE,plumber,laval QC
Plomberie Boulay Télé-Cam Égoût,7713915,https://www.yellowpages.ca/bus/Quebec/Laval/Plomberie-Boulay-Tele-Cam-Egout/7713915.html?what=plumber&where=Laval+QC&useContext=true,"1251, boul Sainte-Rose",Laval,QC,H7R 1S2,"1251, boul Sainte-Rose, Laval, QC, H7R 1S2",450-962-9999,http://www.plomberieboulay.ca/,Plumbers & Plumbing Contractors,FALSE,plumber,laval QC
Plomberie Roger Fournier Inc,100504501,https://www.yellowpages.ca/bus/Quebec/Plomberie-Roger-Fournier-Inc/100504501.html?what=plumber&where=Laval+QC&useContext=true,N/A,N/A,N/A,N/A,N/A,450-665-0115,N/A,Plumbers & Plumbing Contractors,FALSE,plumber,laval QC
Plomberie Michel Roy Inc,100504291,https://www.yellowpages.ca/bus/Quebec/Plomberie-Michel-Roy-Inc/100504291.html?what=plumber&where=Laval+QC&useContext=true,N/A,N/A,N/A,N/A,N/A,450-687-2889,N/A,Plumbers & Plumbing Contractors,FALSE,plumber,laval QC
Sitka Plumbing Services,104416799,https://www.yellowpages.ca/bus/British-Columbia/Sitka-Plumbing-Services/104416799.html?what=plumber&where=Victoria+BC&useContext=true,N/A,N/A,N/A,N/A,N/A,250-812-3098,N/A,Plumbers & Plumbing Contractors,FALSE,plumber,victoria BC
Good Buddy Plumbing & Heating,104584170,https://www.yellowpages.ca/bus/British-Columbia/Good-Buddy-Plumbing-Heating/104584170.html?what=plumber&where=Victoria+BC&useContext=true,N/A,N/A,N/A,N/A,N/A,250-815-5575,N/A,Plumbers & Plumbing Contractors,FALSE,plumber,victoria BC
Pacific Edge Plumbing Ltd.,104747893,https://www.yellowpages.ca/bus/British-Columbia/Sooke/Pacific-Edge-Plumbing-Ltd/104747893.html?what=plumber&where=Victoria+BC&useContext=true,N/A,Sooke,BC,N/A,"Sooke, BC",250-857-6137,N/A,Plumbers & Plumbing Contractors,FALSE,plumber,victoria BC
Mikesrenos,102855761,https://www.yellowpages.ca/bus/British-Columbia/Victoria/Mikesrenos/102855761.html?what=plumber&where=Victoria+BC&useContext=true,2575 Avebury Ave,Victoria,BC,V8R 3W1,"2575 Avebury Ave, Victoria, BC, V8R 3W1",250-598-5837,N/A,Plumbers & Plumbing Contractors,FALSE,plumber,victoria BC
Go Green Plumbing,104349671,https://www.yellowpages.ca/bus/British-Columbia/Victoria/Go-Green-Plumbing/104349671.html?what=plumber&where=Victoria+BC&useContext=true,1305-1488 Cook St,Victoria,BC,V8V 0C4,"1305-1488 Cook St, Victoria, BC, V8V 0C4",250-893-7384,N/A,Plumbers & Plumbing Contractors,FALSE,plumber,victoria BC
Elmallah Power Systems Canada Inc,102352432,https://www.yellowpages.ca/bus/British-Columbia/Victoria/Elmallah-Power-Systems-Canada-Inc/102352432.html?what=plumber&where=Victoria+BC&useContext=true,202-606 Courtney St,Victoria,BC,V8W 1B6,"202-606 Courtney St, Victoria, BC, V8W 1B6",250-388-0049,N/A,Plumbers & Plumbing Contractors,FALSE,plumber,victoria BC
Ackinclose & Son Plumbing And Heating,102945456,https://www.yellowpages.ca/bus/British-Columbia/Victoria/Ackinclose-Son-Plumbing-And-Heating/102945456.html?what=plumber&where=Victoria+BC&useContext=true,641 Tyler Terr,Victoria,BC,V9C 4M3,"641 Tyler Terr, Victoria, BC, V9C 4M3",250-598-5651,N/A,Plumbers & Plumbing Contractors,FALSE,plumber,victoria BC
Diverse Plumbing Services,104347358,https://www.yellowpages.ca/bus/British-Columbia/Victoria/Diverse-Plumbing-Services/104347358.html?what=plumber&where=Victoria+BC&useContext=true,502-3351 Luxton Rd,Victoria,BC,V9C 0P2,"502-3351 Luxton Rd, Victoria, BC, V9C 0P2",778-743-5075,N/A,Plumbers & Plumbing Contractors,FALSE,plumber,victoria BC
Ascent Mechanical,102942787,https://www.yellowpages.ca/bus/British-Columbia/Victoria/Ascent-Mechanical/102942787.html?what=plumber&where=Victoria+BC&useContext=true,506 Nellie Pl,Victoria,BC,V9B 5A1,"506 Nellie Pl, Victoria, BC, V9B 5A1",250-888-1589,N/A,Plumbers & Plumbing Contractors,FALSE,plumber,victoria BC
Rival Rooter Drain Services Inc,104330946,https://www.yellowpages.ca/bus/British-Columbia/Victoria/Rival-Rooter-Drain-Services-Inc/104330946.html?what=plumber&where=Victoria+BC&useContext=true,626 Atkins Ave,Victoria,BC,V9B 3A3,"626 Atkins Ave, Victoria, BC, V9B 3A3",250-391-6113,N/A,Plumbers & Plumbing Contractors,FALSE,plumber,victoria BC
My Plumber,104736710,https://www.yellowpages.ca/bus/British-Columbia/My-Plumber/104736710.html?what=plumber&where=Victoria+BC&useContext=true,N/A,N/A,N/A,N/A,N/A,250-891-6353,N/A,N/A,FALSE,plumber,victoria BC
Helios Heating Gas & Plumbing Inc.,104166824,https://www.yellowpages.ca/bus/British-Columbia/Victoria/Helios-Heating-Gas-Plumbing-Inc/104166824.html?what=plumber&where=Victoria+BC&useContext=true,N/A,Victoria,BC,N/A,"Victoria, BC",250-686-5186,N/A,Plumbers & Plumbing Contractors,FALSE,plumber,victoria BC
The Super Plumber,104592191,https://www.yellowpages.ca/bus/British-Columbia/Victoria/The-Super-Plumber/104592191.html?what=plumber&where=Victoria+BC&useContext=true,155 Langford Street,Victoria,BC,V9A 3B8,"155 Langford Street, Victoria, BC, V9A 3B8",236-245-9936,https://www.owlawyers.com/,Plumbers & Plumbing Contractors,FALSE,plumber,victoria BC
Homewise Plumbing & Drainage - Victoria/Saanich,104342687,https://www.yellowpages.ca/bus/British-Columbia/Victoria/Homewise-Plumbing-Drainage-Victoria-Saanich/104342687.html?what=plumber&where=Victoria+BC&useContext=true,535 Yates St,Victoria,BC,V8W 2Z6,"535 Yates St, Victoria, BC, V8W 2Z6",778-678-4462,N/A,Plumbers & Plumbing Contractors,FALSE,plumber,victoria BC
Saltire Plumbing,104372315,https://www.yellowpages.ca/bus/British-Columbia/Brentwood-Bay/Saltire-Plumbing/104372315.html?what=plumber&where=Victoria+BC&useContext=true,890 Clarke Rd,Brentwood Bay,BC,V8M 1C3,"890 Clarke Rd, Brentwood Bay, BC, V8M 1C3",647-462-1007,N/A,Plumbers & Plumbing Contractors,FALSE,plumber,victoria BC
Capstone Plumbing and Heating,104189128,https://www.yellowpages.ca/bus/British-Columbia/Victoria/Capstone-Plumbing-and-Heating/104189128.html?what=plumber&where=Victoria+BC&useContext=true,2646 Capstone Pl,Victoria,BC,V9B 6P3,"2646 Capstone Pl, Victoria, BC, V9B 6P3",778-977-3613,N/A,Plumbers & Plumbing Contractors,FALSE,plumber,victoria BC
Villa Plumbing And Heating Ltd.,7915211,https://www.yellowpages.ca/bus/British-Columbia/Victoria/Villa-Plumbing-And-Heating-Ltd/7915211.html?what=plumber&where=Victoria+BC&useContext=true,8502 East Saanich Rd,Victoria,BC,V8Z 0A9,"8502 East Saanich Rd, Victoria, BC, V8Z 0A9",250-883-8004,http://villaplumbingltd.ca/,Plumbers & Plumbing Contractors,FALSE,plumber,victoria BC
Drain Pro Plumbing,104550039,https://www.yellowpages.ca/bus/British-Columbia/Victoria/Drain-Pro-Plumbing/104550039.html?what=plumber&where=Victoria+BC&useContext=true,831 Shamrock St,Victoria,BC,V8T 2V1,"831 Shamrock St, Victoria, BC, V8T 2V1",250-652-5588,https://drainproplumbing.ca/,Plumbers & Plumbing Contractors,FALSE,plumber,victoria BC
Westcom Plumbing and Gas Ltd.,104577478,https://www.yellowpages.ca/bus/British-Columbia/Sooke/Westcom-Plumbing-and-Gas-Ltd/104577478.html?what=plumber&where=Victoria+BC&useContext=true,3025 Robinson Road,Sooke,BC,V9Z 0J9,"3025 Robinson Road, Sooke, BC, V9Z 0J9",250-686-7335,https://westcomplumbing.ca/About,Plumbers & Plumbing Contractors,FALSE,plumber,victoria BC
Canadian Rooter Plumbers,102420767,https://www.yellowpages.ca/bus/British-Columbia/Canadian-Rooter-Plumbers/102420767.html?what=plumber&where=Victoria+BC&useContext=true,N/A,N/A,N/A,N/A,N/A,250-213-9105,https://www.canadianrooterplumbers.com/,Sewer Cleaning Equipment & Service,FALSE,plumber,victoria BC
360 Earthscapes,7215577,https://www.yellowpages.ca/bus/British-Columbia/Victoria/360-Earthscapes/7215577.html?what=plumber&where=Victoria+BC&useContext=true,330 Island Hwy,Victoria,BC,V9B 1H2,"330 Island Hwy, Victoria, BC, V9B 1H2",250-589-3877,http://www.360earthscapes.com/,"Plumbers & Plumbing Contractors, Property Maintenance, More…",FALSE,plumber,victoria BC
Red Sooke Plumber,102739571,https://www.yellowpages.ca/bus/British-Columbia/Red-Sooke-Plumber/102739571.html?what=plumber&where=Victoria+BC&useContext=true,N/A,N/A,N/A,N/A,N/A,778-533-2231,N/A,Gas Fitters,FALSE,plumber,victoria BC
Green Plumber,102714543,https://www.yellowpages.ca/bus/British-Columbia/Victoria/Green-Plumber/102714543.html?what=plumber&where=Victoria+BC&useContext=true,2519 Ludgate St,Victoria,BC,V8T 4S2,"2519 Ludgate St, Victoria, BC, V8T 4S2",250-595-3736,N/A,Gas Companies,FALSE,plumber,victoria BC
By Design Plumbing & Heating,101487039,https://www.yellowpages.ca/bus/British-Columbia/Victoria/By-Design-Plumbing-Heating/101487039.html?what=plumber&where=Victoria+BC&useContext=true,N/A,Victoria,BC,V8V 2M9,"Victoria, BC, V8V 2M9",250-507-6857,http://www.bydesignphg.com/,"Plumbers & Plumbing Contractors, Heating Contractors",FALSE,plumber,victoria BC
Mr Rooter Plumbing Heating & Drainage,100192394,https://www.yellowpages.ca/bus/British-Columbia/Mr-Rooter-Plumbing-Heating-Drainage/100192394.html?what=plumber&where=Victoria+BC&useContext=true,N/A,N/A,N/A,N/A,N/A,604-532-7706,N/A,Plumbers & Plumbing Contractors,FALSE,plumber,victoria BC
Scotty Plumbing,101607367,https://www.yellowpages.ca/bus/British-Columbia/Scotty-Plumbing/101607367.html?what=plumber&where=Victoria+BC&useContext=true,N/A,N/A,N/A,N/A,N/A,604-613-2929,N/A,Plumbers & Plumbing Contractors,FALSE,plumber,victoria BC
Robson Valley Plumbing,100869285,https://www.yellowpages.ca/bus/British-Columbia/Robson-Valley-Plumbing/100869285.html?what=plumber&where=Victoria+BC&useContext=true,N/A,N/A,BC,V0J 1J0,"BC, V0J 1J0",250-569-7118,N/A,Plumbers & Plumbing Contractors,FALSE,plumber,victoria BC
Micheal's Plumbing & Maintenance Services,101094472,https://www.yellowpages.ca/bus/British-Columbia/Micheal-s-Plumbing-Maintenance-Services/101094472.html?what=plumber&where=Victoria+BC&useContext=true,N/A,N/A,N/A,N/A,N/A,250-921-4356,N/A,Plumbers & Plumbing Contractors,FALSE,plumber,victoria BC
Fraser Plumbing & Heating Ltd,101476930,https://www.yellowpages.ca/bus/British-Columbia/Fraser-Plumbing-Heating-Ltd/101476930.html?what=plumber&where=Victoria+BC&useContext=true,N/A,N/A,N/A,N/A,N/A,250-727-3888,N/A,Plumbers & Plumbing Contractors,FALSE,plumber,victoria BC
Gilmour Plumbing Ltd,101500499,https://www.yellowpages.ca/bus/British-Columbia/Gilmour-Plumbing-Ltd/101500499.html?what=plumber&where=Victoria+BC&useContext=true,N/A,N/A,N/A,N/A,N/A,250-812-3077,N/A,Plumbers & Plumbing Contractors,FALSE,plumber,victoria BC
Gilmour Plumbing Ltd,7062045,https://www.yellowpages.ca/bus/British-Columbia/Gilmour-Plumbing-Ltd/7062045.html?what=plumber&where=Victoria+BC&useContext=true,N/A,N/A,N/A,N/A,N/A,250-812-3077,N/A,Plumbers & Plumbing Contractors,FALSE,plumber,victoria BC
Houlihan Plumbing,102471130,https://www.yellowpages.ca/bus/British-Columbia/Houlihan-Plumbing/102471130.html?what=plumber&where=Victoria+BC&useContext=true,N/A,N/A,N/A,N/A,N/A,250-415-3800,N/A,Plumbers & Plumbing Contractors,FALSE,plumber,victoria BC
Simon The Plumber,102681088,https://www.yellowpages.ca/bus/British-Columbia/Simon-The-Plumber/102681088.html?what=plumber&where=Victoria+BC&useContext=true,N/A,N/A,N/A,N/A,N/A,250-507-4221,N/A,Plumbers & Plumbing Contractors,FALSE,plumber,victoria BC
Royal Bay Plumbing,102680471,https://www.yellowpages.ca/bus/British-Columbia/Royal-Bay-Plumbing/102680471.html?what=plumber&where=Victoria+BC&useContext=true,N/A,N/A,N/A,N/A,N/A,250-858-9631,N/A,Plumbers & Plumbing Contractors,FALSE,plumber,victoria BC
Gerard's Plumbing,102679557,https://www.yellowpages.ca/bus/British-Columbia/Gerard-s-Plumbing/102679557.html?what=plumber&where=Victoria+BC&useContext=true,N/A,N/A,N/A,N/A,N/A,250-634-1668,N/A,Plumbers & Plumbing Contractors,FALSE,plumber,victoria BC
CityWide Plumbing & Power,102670079,https://www.yellowpages.ca/bus/British-Columbia/CityWide-Plumbing-Power/102670079.html?what=plumber&where=Victoria+BC&useContext=true,N/A,N/A,N/A,N/A,N/A,250-419-2767,N/A,Plumbers & Plumbing Contractors,FALSE,plumber,victoria BC
Plumbing Victoria,102681499,https://www.yellowpages.ca/bus/British-Columbia/Plumbing-Victoria/102681499.html?what=plumber&where=Victoria+BC&useContext=true,N/A,N/A,N/A,N/A,N/A,250-813-2329,N/A,Plumbers & Plumbing Contractors,FALSE,plumber,victoria BC
Karma Care,102673550,https://www.yellowpages.ca/bus/British-Columbia/Saanichton/Karma-Care/102673550.html?what=plumber&where=Victoria+BC&useContext=true,2033 White Rd,Saanichton,BC,V8M 1V9,"2033 White Rd, Saanichton, BC, V8M 1V9",250-217-1229,N/A,Plumbers & Plumbing Contractors,FALSE,plumber,victoria BC
Swift Plumbing & Water Heaters Inc,102710837,https://www.yellowpages.ca/bus/British-Columbia/Swift-Plumbing-Water-Heaters-Inc/102710837.html?what=plumber&where=Victoria+BC&useContext=true,N/A,N/A,N/A,N/A,N/A,250-419-0873,N/A,Plumbers & Plumbing Contractors,FALSE,plumber,victoria BC
Low Flow Plumbing & Heating,102739666,https://www.yellowpages.ca/bus/British-Columbia/Low-Flow-Plumbing-Heating/102739666.html?what=plumber&where=Victoria+BC&useContext=true,N/A,N/A,N/A,N/A,N/A,250-589-1894,N/A,Plumbers & Plumbing Contractors,FALSE,plumber,victoria BC
Drain Pro Plumbing & Drainage Ltd,101895407,https://www.yellowpages.ca/bus/British-Columbia/Drain-Pro-Plumbing-Drainage-Ltd/101895407.html?what=plumber&where=Victoria+BC&useContext=true,N/A,N/A,N/A,N/A,N/A,250-585-7733,N/A,"Plumbers & Plumbing Contractors, Heating Contractors, More…",FALSE,plumber,victoria BC
Machek Mechanical Inc,102341318,https://www.yellowpages.ca/bus/British-Columbia/Cowichan-Bay/Machek-Mechanical-Inc/102341318.html?what=plumber&where=Victoria+BC&useContext=true,1800 Wilmot Rd,Cowichan Bay,BC,V0R 1N1,"1800 Wilmot Rd, Cowichan Bay, BC, V0R 1N1",1-855-562-2435,N/A,Plumbers & Plumbing Contractors,FALSE,plumber,victoria BC
Pipetech Plumbing And Gas,102943765,https://www.yellowpages.ca/bus/British-Columbia/Sooke/Pipetech-Plumbing-And-Gas/102943765.html?what=plumber&where=Victoria+BC&useContext=true,2093 Dover St,Sooke,BC,V9Z 0Z1,"2093 Dover St, Sooke, BC, V9Z 0Z1",250-889-9943,N/A,Plumbers & Plumbing Contractors,FALSE,plumber,victoria BC
Menard Plumbing & Heating Ltd,102065286,https://www.yellowpages.ca/bus/British-Columbia/Sooke/Menard-Plumbing-Heating-Ltd/102065286.html?what=plumber&where=Victoria+BC&useContext=true,"Cabin, 2371 Sooke River Rd",Sooke,BC,V9Z 0X6,"Cabin, 2371 Sooke River Rd, Sooke, BC, V9Z 0X6",778-352-3443,N/A,Plumbers & Plumbing Contractors,FALSE,plumber,victoria BC
Generation Plumbing & Heating Ltd,8131572,https://www.yellowpages.ca/bus/British-Columbia/Generation-Plumbing-Heating-Ltd/8131572.html?what=plumber&where=Victoria+BC&useContext=true,N/A,N/A,N/A,N/A,N/A,250-818-5142,N/A,Plumbers & Plumbing Contractors,FALSE,plumber,victoria BC
Miles Plumbing & Gas,8058878,https://www.yellowpages.ca/bus/British-Columbia/Victoria/Miles-Plumbing-Gas/8058878.html?what=plumber&where=Victoria+BC&useContext=true,2519 Ludgate St,Victoria,BC,V8T 4S2,"2519 Ludgate St, Victoria, BC, V8T 4S2",250-727-3311,N/A,Plumbers & Plumbing Contractors,FALSE,plumber,victoria BC
Plumbing Systems,101225990,https://www.yellowpages.ca/bus/British-Columbia/Plumbing-Systems/101225990.html?what=plumber&where=Victoria+BC&useContext=true,N/A,N/A,N/A,N/A,N/A,778-984-6229,N/A,Plumbers & Plumbing Contractors,FALSE,plumber,victoria BC
Allways Quality Plumbing & Heating,74825,https://www.yellowpages.ca/bus/British-Columbia/Allways-Quality-Plumbing-Heating/74825.html?what=plumber&where=Victoria+BC&useContext=true,N/A,N/A,N/A,N/A,N/A,250-888-5606,N/A,"Plumbers & Plumbing Contractors, Heating Contractors",FALSE,plumber,victoria BC
Super Plumber The,101637909,https://www.yellowpages.ca/bus/British-Columbia/Super-Plumber-The/101637909.html?what=plumber&where=Victoria+BC&useContext=true,N/A,N/A,N/A,N/A,N/A,250-995-1234,http://www.facebook.com/248752075684590,Plumbers & Plumbing Contractors,FALSE,plumber,victoria BC
EMCO Corporation,7062219,https://www.yellowpages.ca/bus/British-Columbia/Victoria/EMCO-Corporation/7062219.html?what=plumber&where=Victoria+BC&useContext=true,3400 Douglas St,Victoria,BC,V8Z 3L5,"3400 Douglas St, Victoria, BC, V8Z 3L5","250-380-4085,250-380-1570",https://www.yellowpages.ca,"Plumbers & Plumbing Contractors, Plumbing Fixture & Supply Stores",FALSE,plumber,victoria BC
EMCO Corporation,2250017,https://www.yellowpages.ca/bus/British-Columbia/Victoria/EMCO-Corporation/2250017.html?what=plumber&where=Victoria+BC&useContext=true,550 Culduthel Rd,Victoria,BC,V8Z 1G1,"550 Culduthel Rd, Victoria, BC, V8Z 1G1","250-475-6282,250-475-6272",http://www.emco.ca/,"Plumbers & Plumbing Contractors, Plumbing Fixture & Supply Stores",FALSE,plumber,victoria BC
Gold Star Plumbing & Heating Ltd,7901500,https://www.yellowpages.ca/bus/British-Columbia/Saanich/Gold-Star-Plumbing-Heating-Ltd/7901500.html?what=plumber&where=Victoria+BC&useContext=true,148 Burnside Rd E,Saanich,BC,V9A 1A2,"148 Burnside Rd E, Saanich, BC, V9A 1A2",250-920-5995,http://www.facebook.com/902298189892393,Plumbers & Plumbing Contractors,FALSE,plumber,victoria BC
James the Plumber,102681620,https://www.yellowpages.ca/bus/British-Columbia/James-the-Plumber/102681620.html?what=plumber&where=Victoria+BC&useContext=true,N/A,N/A,N/A,N/A,N/A,250-893-5345,N/A,Plumbers & Plumbing Contractors,FALSE,plumber,victoria BC
Watts Plumbing And Drains Inc.,102790138,https://www.yellowpages.ca/bus/British-Columbia/Victoria/Watts-Plumbing-And-Drains-Inc/102790138.html?what=plumber&where=Victoria+BC&useContext=true,415-3277 Quadra St,Victoria,BC,V8X 4W9,"415-3277 Quadra St, Victoria, BC, V8X 4W9",250-818-0905,N/A,Plumbers & Plumbing Contractors,FALSE,plumber,victoria BC
New Age Plumbing & Heating,102857812,https://www.yellowpages.ca/bus/British-Columbia/Victoria/New-Age-Plumbing-Heating/102857812.html?what=plumber&where=Victoria+BC&useContext=true,206 Régina Ave,Victoria,BC,V8Z 1J5,"206 Régina Ave, Victoria, BC, V8Z 1J5",250-880-7422,N/A,Plumbers & Plumbing Contractors,FALSE,plumber,victoria BC
Royal Flush Plumbing Inc,102738725,https://www.yellowpages.ca/bus/British-Columbia/Victoria/Royal-Flush-Plumbing-Inc/102738725.html?what=plumber&where=Victoria+BC&useContext=true,1257 Tall Tree Pl,Victoria,BC,V8Z 7A4,"1257 Tall Tree Pl, Victoria, BC, V8Z 7A4",250-383-0773,N/A,Plumbers & Plumbing Contractors,FALSE,plumber,victoria BC
Lee's Plumbing Service,8132881,https://www.yellowpages.ca/bus/British-Columbia/Sidney/Lee-s-Plumbing-Service/8132881.html?what=plumber&where=Victoria+BC&useContext=true,2349 Schooner Close,Sidney,BC,V8L 4S9,"2349 Schooner Close, Sidney, BC, V8L 4S9",250-883-3706,http://www.facebook.com/1375284272509990,"Plumbers & Plumbing Contractors, Water Heater Dealers",FALSE,plumber,victoria BC
Sure Drain Contracting,6400685,https://www.yellowpages.ca/bus/British-Columbia/Victoria/Sure-Drain-Contracting/6400685.html?what=plumber&where=Victoria+BC&useContext=true,981 Weaver Pl,Victoria,BC,V9C 3C2,"981 Weaver Pl, Victoria, BC, V9C 3C2",250-589-3420,http://www.suredrain.com/,"Plumbers & Plumbing Contractors, Drainage Contractors",FALSE,plumber,victoria BC
Shaw Plumbing Services,100409435,https://www.yellowpages.ca/bus/British-Columbia/Victoria/Shaw-Plumbing-Services/100409435.html?what=plumber&where=Victoria+BC&useContext=true,1530 Jasper Pl,Victoria,BC,V8P 1P1,"1530 Jasper Pl, Victoria, BC, V8P 1P1",250-686-8013,N/A,Plumbers & Plumbing Contractors,FALSE,plumber,victoria BC
Henderson Plumbing and Gas,101056059,https://www.yellowpages.ca/bus/British-Columbia/Victoria/Henderson-Plumbing-and-Gas/101056059.html?what=plumber&where=Victoria+BC&useContext=true,22-7070 West Saanich Rd,Victoria,BC,V8M 1P5,"22-7070 West Saanich Rd, Victoria, BC, V8M 1P5",250-893-6281,http://www.facebook.com/137084590404472,"Plumbers & Plumbing Contractors, Gas Fitters",FALSE,plumber,victoria BC
Priority Plumbing Solutions,8042069,https://www.yellowpages.ca/bus/British-Columbia/Victoria/Priority-Plumbing-Solutions/8042069.html?what=plumber&where=Victoria+BC&useContext=true,4520 West Saanich Rd,Victoria,BC,V8Z 3G4,"4520 West Saanich Rd, Victoria, BC, V8Z 3G4",250-590-7927,http://priorityplumbingsolutions.ca/,Plumbers & Plumbing Contractors,FALSE,plumber,victoria BC
Capitol Plumbing Services,2160153,https://www.yellowpages.ca/bus/British-Columbia/Victoria/Capitol-Plumbing-Services/2160153.html?what=plumber&where=Victoria+BC&useContext=true,948 Rankin Rd,Victoria,BC,V9A 6V6,"948 Rankin Rd, Victoria, BC, V9A 6V6",250-361-6120,N/A,Plumbers & Plumbing Contractors,FALSE,plumber,victoria BC
Orchard Plumbing and Heating,6871303,https://www.yellowpages.ca/bus/British-Columbia/Sidney/Orchard-Plumbing-and-Heating/6871303.html?what=plumber&where=Victoria+BC&useContext=true,2088 Wesbrook Dr,Sidney,BC,V8L 4K1,"2088 Wesbrook Dr, Sidney, BC, V8L 4K1",250-516-7018,http://orchardplumbing.ca/,Plumbers & Plumbing Contractors,FALSE,plumber,victoria BC
Excel Mechanical,101094249,https://www.yellowpages.ca/bus/British-Columbia/Excel-Mechanical/101094249.html?what=plumber&where=Victoria+BC&useContext=true,N/A,N/A,N/A,N/A,N/A,778-240-0671,http://www.facebook.com/341642456316194,Plumbers & Plumbing Contractors,FALSE,plumber,victoria BC
The Super Plumber Ltd,102616454,https://www.yellowpages.ca/bus/British-Columbia/Victoria/The-Super-Plumber-Ltd/102616454.html?what=plumber&where=Victoria+BC&useContext=true,1608 Camosun St,Victoria,BC,V8T 3E6,"1608 Camosun St, Victoria, BC, V8T 3E6",778-608-0695,https://thesuperplumber.com/,Plumbers & Plumbing Contractors,FALSE,plumber,victoria BC
Flow-Tec Plumbing,2271256,https://www.yellowpages.ca/bus/British-Columbia/Saanich/Flow-Tec-Plumbing/2271256.html?what=plumber&where=Victoria+BC&useContext=true,5222 Sapphire Rd,Saanich,BC,N/A,"5222 Sapphire Rd, Saanich, BC",250-658-2923,http://www.flowtekplumbing.com/,Plumbers & Plumbing Contractors,FALSE,plumber,victoria BC
Berlis Mechanical,101482861,https://www.yellowpages.ca/bus/British-Columbia/Berlis-Mechanical/101482861.html?what=plumber&where=Victoria+BC&useContext=true,N/A,N/A,N/A,N/A,N/A,250-686-4075,N/A,Plumbers & Plumbing Contractors,FALSE,plumber,victoria BC
Riptide Plumbing,100844506,https://www.yellowpages.ca/bus/British-Columbia/Riptide-Plumbing/100844506.html?what=plumber&where=Victoria+BC&useContext=true,N/A,N/A,N/A,N/A,N/A,"250-883-1912,250-516-2120",N/A,Plumbers & Plumbing Contractors,FALSE,plumber,victoria BC
Ric's Plumbing Inc,8082634,https://www.yellowpages.ca/bus/British-Columbia/Ric-s-Plumbing-Inc/8082634.html?what=plumber&where=Victoria+BC&useContext=true,N/A,N/A,N/A,N/A,N/A,250-686-2350,http://www.ricsplumbing.ca/,Plumbers & Plumbing Contractors,FALSE,plumber,victoria BC
24/7 Plumbing & Renovations,101525827,https://www.yellowpages.ca/bus/British-Columbia/24-7-Plumbing-Renovations/101525827.html?what=plumber&where=Victoria+BC&useContext=true,N/A,N/A,N/A,N/A,N/A,604-226-9812,N/A,"Plumbers & Plumbing Contractors, Home Improvements & Renovations",FALSE,plumber,victoria BC
Rapid Plumbing & Heating,4515442,https://www.yellowpages.ca/bus/British-Columbia/Victoria/Rapid-Plumbing-Heating/4515442.html?what=plumber&where=Victoria+BC&useContext=true,897 Walfred Rd,Victoria,BC,V9C 2P1,"897 Walfred Rd, Victoria, BC, V9C 2P1",250-883-4494,http://www.facebook.com/1152128431473145,Plumbers & Plumbing Contractors,FALSE,plumber,victoria BC
Hamburg Heating Plumbing & Gas Inc,100973736,https://www.yellowpages.ca/bus/British-Columbia/Hamburg-Heating-Plumbing-Gas-Inc/100973736.html?what=plumber&where=Victoria+BC&useContext=true,N/A,N/A,N/A,N/A,N/A,604-737-3930,http://www.themanfromhamburg.ca/,Plumbers & Plumbing Contractors,FALSE,plumber,victoria BC
Victoria Drain Services,5225117,https://www.yellowpages.ca/bus/British-Columbia/Victoria/Victoria-Drain-Services/5225117.html?what=plumber&where=Victoria+BC&useContext=true,3138 Alder St,Victoria,BC,V8X 1N8,"3138 Alder St, Victoria, BC, V8X 1N8",250-818-1609,http://www.facebook.com/1759713574250293,Plumbers & Plumbing Contractors,FALSE,plumber,victoria BC
Hillside Plumbing Services,3835023,https://www.yellowpages.ca/bus/British-Columbia/Saanich/Hillside-Plumbing-Services/3835023.html?what=plumber&where=Victoria+BC&useContext=true,1765 Howroyd Ave,Saanich,BC,N/A,"1765 Howroyd Ave, Saanich, BC",250-592-5942,http://www.facebook.com/1002313323194122,Plumbers & Plumbing Contractors,FALSE,plumber,victoria BC
M & R Plumbing & Heating,100377055,https://www.yellowpages.ca/bus/British-Columbia/Victoria/M-R-Plumbing-Heating/100377055.html?what=plumber&where=Victoria+BC&useContext=true,2920 Mt. Wells Dr,Victoria,BC,V9B 4S1,"2920 Mt. Wells Dr, Victoria, BC, V9B 4S1",250-507-2924,http://www.mrplumbing.ca/,Plumbers & Plumbing Contractors,FALSE,plumber,victoria BC
Shaw Plumbing,8014146,https://www.yellowpages.ca/bus/British-Columbia/Shaw-Plumbing/8014146.html?what=plumber&where=Victoria+BC&useContext=true,N/A,N/A,N/A,N/A,N/A,250-383-8013,http://shawplumbing.ca/,Plumbers & Plumbing Contractors,FALSE,plumber,victoria BC
Groundbreakers Excavating Ltd,7544144,https://www.yellowpages.ca/bus/British-Columbia/Groundbreakers-Excavating-Ltd/7544144.html?what=plumber&where=Victoria+BC&useContext=true,N/A,N/A,N/A,N/A,N/A,250-686-5290,http://drainproplumbing.ca/,"Plumbers & Plumbing Contractors, Excavation Contractors",FALSE,plumber,victoria BC
Swift Plumbing & Water Heaters Inc,7557503,https://www.yellowpages.ca/bus/British-Columbia/Saanich/Swift-Plumbing-Water-Heaters-Inc/7557503.html?what=plumber&where=Victoria+BC&useContext=true,3085 Dysart Rd,Saanich,BC,V8W 2L9,"3085 Dysart Rd, Saanich, BC, V8W 2L9",250-920-7877,http://www.swiftplumbing.com/,"Plumbers & Plumbing Contractors, Drain & Sewer Cleaning",FALSE,plumber,victoria BC
Brent Jansen Plumbing & Heating Ltd,2138120,https://www.yellowpages.ca/bus/British-Columbia/Victoria/Brent-Jansen-Plumbing-Heating-Ltd/2138120.html?what=plumber&where=Victoria+BC&useContext=true,1396 Hillside Ave,Victoria,BC,V8T 2B5,"1396 Hillside Ave, Victoria, BC, V8T 2B5",250-744-6066,http://brentjansenplumbing.com/,Plumbers & Plumbing Contractors,FALSE,plumber,victoria BC
Service Tech Plumbing,102570830,https://www.yellowpages.ca/bus/British-Columbia/Service-Tech-Plumbing/102570830.html?what=plumber&where=Victoria+BC&useContext=true,518 Selwyn Falls Dr,N/A,BC,V9B 6P3,"518 Selwyn Falls Dr, BC, V9B 6P3",250-508-3721,https://servicetechplumbing.ca/,Plumbers & Plumbing Contractors,FALSE,plumber,victoria BC
C.R. Mechanical LTD,102760488,https://www.yellowpages.ca/bus/British-Columbia/C-R-Mechanical-LTD/102760488.html?what=plumber&where=Victoria+BC&useContext=true,N/A,N/A,N/A,N/A,N/A,250-818-2111,https://plumbingcompanysaanichton.ca/,Plumbers & Plumbing Contractors,FALSE,plumber,victoria BC
Canadian Rooter Plumbers,102657316,https://www.yellowpages.ca/bus/British-Columbia/Victoria/Canadian-Rooter-Plumbers/102657316.html?what=plumber&where=Victoria+BC&useContext=true,N/A,Victoria,BC,V9C 0J2,"Victoria, BC, V9C 0J2",250-213-9105,https://www.canadianrooterplumbers.com/,Plumbers & Plumbing Contractors,FALSE,plumber,victoria BC
Battalion Plumbing and Gas,101724802,https://www.yellowpages.ca/bus/British-Columbia/Victoria/Battalion-Plumbing-and-Gas/101724802.html?what=plumber&where=Victoria+BC&useContext=true,3160 Frechette St,Victoria,BC,V8P 4N5,"3160 Frechette St, Victoria, BC, V8P 4N5",250-857-3836,https://battalionplumbing.com/,Plumbers & Plumbing Contractors,FALSE,plumber,victoria BC
Drain Pro Plumbing & Heating,101403464,https://www.yellowpages.ca/bus/British-Columbia/Drain-Pro-Plumbing-Heating/101403464.html?what=plumber&where=Victoria+BC&useContext=true,N/A,N/A,N/A,N/A,N/A,778-963-1776,http://drainproplumbing.ca/,"Plumbers & Plumbing Contractors, Heating Contractors, More…",FALSE,plumber,victoria BC
Gardener's Plumbing -Heating & Gas Fitting,7599940,https://www.yellowpages.ca/bus/British-Columbia/Victoria/Gardener-s-Plumbing-Heating-Gas-Fitting/7599940.html?what=plumber&where=Victoria+BC&useContext=true,5388 West Saanich Rd,Victoria,BC,V9E 1J8,"5388 West Saanich Rd, Victoria, BC, V9E 1J8",250-883-1591,http://www.gardenersplumbingandheating.com/,"Plumbers & Plumbing Contractors, Heating Contractors",FALSE,plumber,victoria BC
United Assn of Journeymen Plumbers & Pipefitters Local 324,6136657,https://www.yellowpages.ca/bus/British-Columbia/Victoria/United-Assn-of-Journeymen-Plumbers-Pipefitters-Local-324/6136657.html?what=plumber&where=Victoria+BC&useContext=true,919 Esquimalt Rd,Victoria,BC,V9A 3M7,"919 Esquimalt Rd, Victoria, BC, V9A 3M7","250-380-1713,250-382-0415,1-888-382-0415",http://ualocal324.com/,Unions & Labour Organizations,FALSE,plumber,victoria BC
Ballam Phil Plumbing & Heating Co Ltd,149425,https://www.yellowpages.ca/bus/British-Columbia/Ballam-Phil-Plumbing-Heating-Co-Ltd/149425.html?what=plumber&where=Victoria+BC&useContext=true,N/A,N/A,N/A,N/A,N/A,250-388-1502,N/A,"Plumbers & Plumbing Contractors, Home Improvements & Renovations, More…",FALSE,plumber,victoria BC
Drips and Drains Plumbing & Heating Ltd,101176810,https://www.yellowpages.ca/bus/British-Columbia/Vancouver/Drips-and-Drains-Plumbing-Heating-Ltd/101176810.html?what=plumber&where=Victoria+BC&useContext=true,1595 East 14th Avenue,Vancouver,BC,V5N 2C9,"1595 East 14th Avenue, Vancouver, BC, V5N 2C9",604-355-7322,http://www.dripsanddrains.ca/,Plumbers & Plumbing Contractors,FALSE,plumber,victoria BC
A-1 Drainage Plumbing & Heating Ltd,8073616,https://www.yellowpages.ca/bus/British-Columbia/A-1-Drainage-Plumbing-Heating-Ltd/8073616.html?what=plumber&where=Victoria+BC&useContext=true,N/A,N/A,N/A,N/A,N/A,604-998-4547,http://www.a1drainage.com/,Plumbers & Plumbing Contractors,FALSE,plumber,victoria BC
Royal Rooter Plumbing & Drain Cleaning Ltd,2509822,https://www.yellowpages.ca/bus/British-Columbia/Saanich/Royal-Rooter-Plumbing-Drain-Cleaning-Ltd/2509822.html?what=plumber&where=Victoria+BC&useContext=true,3460 Cedar Hill Rd,Saanich,BC,V8P 3Z1,"3460 Cedar Hill Rd, Saanich, BC, V8P 3Z1",250-480-4806,https://royalrooterplumbing.ca/,"Plumbers & Plumbing Contractors, Residential Garbage Collection",FALSE,plumber,victoria BC
M & R Plumbing & Heating,101499173,https://www.yellowpages.ca/bus/British-Columbia/Victoria/M-R-Plumbing-Heating/101499173.html?what=plumber&where=Victoria+BC&useContext=true,2920 Mt. Wells Dr,Victoria,BC,V9B 4S1,"2920 Mt. Wells Dr, Victoria, BC, V9B 4S1",250-883-0517,N/A,Plumbers & Plumbing Contractors,FALSE,plumber,victoria BC
Wrench It Up Plumbing & Gas,101199340,https://www.yellowpages.ca/bus/British-Columbia/Wrench-It-Up-Plumbing-Gas/101199340.html?what=plumber&where=Victoria+BC&useContext=true,N/A,N/A,N/A,N/A,N/A,604-869-6124,N/A,Plumbers & Plumbing Contractors,FALSE,plumber,victoria BC
The Solution Brothers Plumbing and Gas,100841150,https://www.yellowpages.ca/bus/British-Columbia/Victoria/The-Solution-Brothers-Plumbing-and-Gas/100841150.html?what=plumber&where=Victoria+BC&useContext=true,548 Dallas Rd,Victoria,BC,V8V 1B3,"548 Dallas Rd, Victoria, BC, V8V 1B3","250-857-8468,250-714-4762",N/A,Plumbers & Plumbing Contractors,FALSE,plumber,victoria BC
Brent Janesen Plumbing & Heating Ltd,101823389,https://www.yellowpages.ca/bus/British-Columbia/Victoria/Brent-Janesen-Plumbing-Heating-Ltd/101823389.html?what=plumber&where=Victoria+BC&useContext=true,612 Boleskine Rd,Victoria,BC,V8Z 1E8,"612 Boleskine Rd, Victoria, BC, V8Z 1E8",250-590-0640,N/A,Plumbers & Plumbing Contractors,FALSE,plumber,victoria BC
Cooper's Plumbing Heating & Gas,8152101,https://www.yellowpages.ca/bus/British-Columbia/Sooke/Cooper-s-Plumbing-Heating-Gas/8152101.html?what=plumber&where=Victoria+BC&useContext=true,6110 Brecon Dr,Sooke,BC,V9Z 1B1,"6110 Brecon Dr, Sooke, BC, V9Z 1B1",604-926-6554,http://www.facebook.com/1606203756087276,"Plumbers & Plumbing Contractors, Gas Fitters",FALSE,plumber,victoria BC
Brent's Plumbing & Heating Ltd,7425491,https://www.yellowpages.ca/bus/British-Columbia/Saanich/Brent-s-Plumbing-Heating-Ltd/7425491.html?what=plumber&where=Victoria+BC&useContext=true,N/A,Saanich,BC,N/A,"Saanich, BC","250-744-3456,250-744-3495",http://www.facebook.com/1610919442562826,"Plumbers & Plumbing Contractors, Automatic Fire Sprinkler Systems",FALSE,plumber,victoria BC
Nott Jim Plumbing & Heating Ltd,6217071,https://www.yellowpages.ca/bus/British-Columbia/Victoria/Nott-Jim-Plumbing-Heating-Ltd/6217071.html?what=plumber&where=Victoria+BC&useContext=true,2661 Cadboro Bay Rd Bsmt,Victoria,BC,V8R 5J6,"2661 Cadboro Bay Rd Bsmt, Victoria, BC, V8R 5J6",250-382-9300,http://www.facebook.com/1677548949166803,Plumbers & Plumbing Contractors,FALSE,plumber,victoria BC
Saanich Peninsula Plumbing & Gas Inc,6676313,https://www.yellowpages.ca/bus/British-Columbia/Victoria/Saanich-Peninsula-Plumbing-Gas-Inc/6676313.html?what=plumber&where=Victoria+BC&useContext=true,6646 Buena Vista Rd,Victoria,BC,V8Z 5W7,"6646 Buena Vista Rd, Victoria, BC, V8Z 5W7",250-652-4866,N/A,Plumbers & Plumbing Contractors,FALSE,plumber,victoria BC
Inter Island Plumbing & Gas Inc.,101600430,https://www.yellowpages.ca/bus/British-Columbia/Victoria/Inter-Island-Plumbing-Gas-Inc/101600430.html?what=plumber&where=Victoria+BC&useContext=true,380 Sparton Rd,Victoria,BC,V9E 2H4,"380 Sparton Rd, Victoria, BC, V9E 2H4","250-727-6632,250-818-7831",https://www.facebook.com/pages/Inter-Island-Plumbing-Gas-Inc/666971130366865,Plumbers & Plumbing Contractors,FALSE,plumber,victoria BC
Rightman Plumbing & Gas,4400880,https://www.yellowpages.ca/bus/British-Columbia/Victoria/Rightman-Plumbing-Gas/4400880.html?what=plumber&where=Victoria+BC&useContext=true,949 Winter Rd,Victoria,BC,V9C 3X4,"949 Winter Rd, Victoria, BC, V9C 3X4","250-480-8234,250-478-4936",http://www.therightman.ca/,Plumbers & Plumbing Contractors,FALSE,plumber,victoria BC
Dean Park Plumbing & Heating Ltd,7571768,https://www.yellowpages.ca/bus/British-Columbia/North-Saanich/Dean-Park-Plumbing-Heating-Ltd/7571768.html?what=plumber&where=Victoria+BC&useContext=true,1375 Laurel Rd,North Saanich,BC,V8L 5K8,"1375 Laurel Rd, North Saanich, BC, V8L 5K8",250-655-6393,http://www.deanparkplumbing.ca/,Plumbers & Plumbing Contractors,FALSE,plumber,victoria BC
Darryl Falconer Plumbing and Renovations Ltd,101196620,https://www.yellowpages.ca/bus/British-Columbia/Victoria/Darryl-Falconer-Plumbing-and-Renovations-Ltd/101196620.html?what=plumber&where=Victoria+BC&useContext=true,N/A,Victoria,BC,N/A,"Victoria, BC",250-634-0200,http://www.falconerplumbing.com/,Plumbers & Plumbing Contractors,FALSE,plumber,victoria BC
Coastal-Flo Plumbing & Heating,100843100,https://www.yellowpages.ca/bus/British-Columbia/Coastal-Flo-Plumbing-Heating/100843100.html?what=plumber&where=Victoria+BC&useContext=true,N/A,N/A,N/A,N/A,N/A,250-888-4682,N/A,Plumbers & Plumbing Contractors,FALSE,plumber,victoria BC
Northside Plumbing & Heating Ltd,100971804,https://www.yellowpages.ca/bus/British-Columbia/Northside-Plumbing-Heating-Ltd/100971804.html?what=plumber&where=Victoria+BC&useContext=true,N/A,N/A,N/A,N/A,N/A,604-671-0501,N/A,Plumbers & Plumbing Contractors,FALSE,plumber,victoria BC
Edge Plumbing & Gas Ltd,7489756,https://www.yellowpages.ca/bus/British-Columbia/Edge-Plumbing-Gas-Ltd/7489756.html?what=plumber&where=Victoria+BC&useContext=true,N/A,N/A,N/A,N/A,N/A,250-883-4156,N/A,Plumbers & Plumbing Contractors,FALSE,plumber,victoria BC
Dave Spiers Plumbing and Heating,101001221,https://www.yellowpages.ca/bus/British-Columbia/Dave-Spiers-Plumbing-and-Heating/101001221.html?what=plumber&where=Victoria+BC&useContext=true,N/A,N/A,N/A,N/A,N/A,250-818-5819,N/A,Plumbers & Plumbing Contractors,FALSE,plumber,victoria BC
On Demand Plumbing & Heating Ltd.,100954693,https://www.yellowpages.ca/bus/British-Columbia/Victoria/On-Demand-Plumbing-Heating-Ltd/100954693.html?what=plumber&where=Victoria+BC&useContext=true,N/A,Victoria,BC,V8W 2L9,"Victoria, BC, V8W 2L9",250-360-6280,N/A,Plumbers & Plumbing Contractors,FALSE,plumber,victoria BC
Good Grade Plumbing & Gas,7440160,https://www.yellowpages.ca/bus/British-Columbia/Good-Grade-Plumbing-Gas/7440160.html?what=plumber&where=Victoria+BC&useContext=true,N/A,N/A,N/A,N/A,N/A,250-686-9857,https://www.facebook.com/goodgradeplumbing/,Plumbers & Plumbing Contractors,FALSE,plumber,victoria BC
Prominent Plumbing & Gas Ltd,101474983,https://www.yellowpages.ca/bus/British-Columbia/Prominent-Plumbing-Gas-Ltd/101474983.html?what=plumber&where=Victoria+BC&useContext=true,N/A,N/A,N/A,N/A,N/A,250-588-7645,http://www.facebook.com/1382417971814213,Plumbers & Plumbing Contractors,FALSE,plumber,victoria BC
PipeMaster Plumbing Drainage and Renovations,101682755,https://www.yellowpages.ca/bus/British-Columbia/PipeMaster-Plumbing-Drainage-and-Renovations/101682755.html?what=plumber&where=Victoria+BC&useContext=true,N/A,N/A,N/A,N/A,N/A,250-883-7271,https://www.facebook.com/pipemastertechnologies/,Plumbers & Plumbing Contractors,FALSE,plumber,victoria BC
Da Vinci PLumbing & Heating,7508691,https://www.yellowpages.ca/bus/British-Columbia/Victoria/Da-Vinci-PLumbing-Heating/7508691.html?what=plumber&where=Victoria+BC&useContext=true,505-770 Cormorant St,Victoria,BC,V8W 3J3,"505-770 Cormorant St, Victoria, BC, V8W 3J3",250-590-0388,http://www.facebook.com/247710818910968,Plumbers & Plumbing Contractors,FALSE,plumber,victoria BC
Honest Jim's Plumbing Service,2319117,https://www.yellowpages.ca/bus/British-Columbia/Victoria/Honest-Jim-s-Plumbing-Service/2319117.html?what=plumber&where=Victoria+BC&useContext=true,3442 Whittier Ave,Victoria,BC,V8Z 3R2,"3442 Whittier Ave, Victoria, BC, V8Z 3R2",250-475-6032,http://www.facebook.com/1691933561089129,Plumbers & Plumbing Contractors,FALSE,plumber,victoria BC
P Kliman Plumbing & Heating,102021206,https://www.yellowpages.ca/bus/British-Columbia/Victoria/P-Kliman-Plumbing-Heating/102021206.html?what=plumber&where=Victoria+BC&useContext=true,5489 Forest Hill Rd,Victoria,BC,V9E 2A8,"5489 Forest Hill Rd, Victoria, BC, V9E 2A8",250-727-2688,http://www.facebook.com/227193270971332,Plumbers & Plumbing Contractors,FALSE,plumber,victoria BC
Edge Plumbing & Gas Ltd,7253608,https://www.yellowpages.ca/bus/British-Columbia/Edge-Plumbing-Gas-Ltd/7253608.html?what=plumber&where=Victoria+BC&useContext=true,N/A,N/A,N/A,N/A,N/A,250-883-4456,http://edgeplumbingandgas.ca/,Plumbers & Plumbing Contractors,FALSE,plumber,victoria BC
Prominent Plumbing & Gas Ltd,8131623,https://www.yellowpages.ca/bus/British-Columbia/Prominent-Plumbing-Gas-Ltd/8131623.html?what=plumber&where=Victoria+BC&useContext=true,N/A,N/A,N/A,N/A,N/A,250-588-7645,http://prominentplumbingandgas.ca/,Plumbers & Plumbing Contractors,FALSE,plumber,victoria BC
Munro Plumbing & Gas Ltd,7757103,https://www.yellowpages.ca/bus/British-Columbia/Brentwood-Bay/Munro-Plumbing-Gas-Ltd/7757103.html?what=plumber&where=Victoria+BC&useContext=true,1058 Damelart Way,Brentwood Bay,BC,V8M 1H7,"1058 Damelart Way, Brentwood Bay, BC, V8M 1H7",250-217-5580,http://www.facebook.com/134886940511734,Plumbers & Plumbing Contractors,FALSE,plumber,victoria BC
Andrew Scott Plumbing & Heating,100372339,https://www.yellowpages.ca/bus/British-Columbia/Victoria/Andrew-Scott-Plumbing-Heating/100372339.html?what=plumber&where=Victoria+BC&useContext=true,1745 Cedar Hill Cross Rd,Victoria,BC,V8P 2R2,"1745 Cedar Hill Cross Rd, Victoria, BC, V8P 2R2",250-217-0178,N/A,Plumbers & Plumbing Contractors,FALSE,plumber,victoria BC
Davidson Plumbing & Drainage Services,4387090,https://www.yellowpages.ca/bus/British-Columbia/Victoria/Davidson-Plumbing-Drainage-Services/4387090.html?what=plumber&where=Victoria+BC&useContext=true,PO Box 30117 Rpo Saanich Centre,Victoria,BC,V8X 5E1,"PO Box 30117 Rpo Saanich Centre, Victoria, BC, V8X 5E1",250-216-4540,http://www.radavidson.com/,Plumbers & Plumbing Contractors,FALSE,plumber,victoria BC
Menzies Plumbing & Heating Ltd,1050881,https://www.yellowpages.ca/bus/British-Columbia/Victoria/Menzies-Plumbing-Heating-Ltd/1050881.html?what=plumber&where=Victoria+BC&useContext=true,2947 Tillicum Rd,Victoria,BC,V9A 2A6,"2947 Tillicum Rd, Victoria, BC, V9A 2A6","250-472-0176,250-472-0110",N/A,Plumbers & Plumbing Contractors,FALSE,plumber,victoria BC
Heatwave Plumbing & Heating Ltd,7742826,https://www.yellowpages.ca/bus/British-Columbia/Victoria/Heatwave-Plumbing-Heating-Ltd/7742826.html?what=plumber&where=Victoria+BC&useContext=true,B-1950 Oak Bay Ave,Victoria,BC,V8R 1C9,"B-1950 Oak Bay Ave, Victoria, BC, V8R 1C9",250-361-9243,http://heatwave.me/,"Plumbers & Plumbing Contractors, Heating Contractors",FALSE,plumber,victoria BC
Current Heating & Plumbing Ltd,7903102,https://www.yellowpages.ca/bus/British-Columbia/Sooke/Current-Heating-Plumbing-Ltd/7903102.html?what=plumber&where=Victoria+BC&useContext=true,6262 Llanilar Rd,Sooke,BC,V9Z 1A9,"6262 Llanilar Rd, Sooke, BC, V9Z 1A9",250-415-3977,http://www.currentheatingplumbing.ca/,Plumbers & Plumbing Contractors,FALSE,plumber,victoria BC
Lewis MacLean Plumbing & Heating,101059785,https://www.yellowpages.ca/bus/British-Columbia/Lewis-MacLean-Plumbing-Heating/101059785.html?what=plumber&where=Victoria+BC&useContext=true,N/A,N/A,N/A,N/A,N/A,604-533-1871,http://www.lewismaclean.com/,Plumbers & Plumbing Contractors,FALSE,plumber,victoria BC
Magnum Plumbing & Heating Ltd,2389334,https://www.yellowpages.ca/bus/British-Columbia/Victoria/Magnum-Plumbing-Heating-Ltd/2389334.html?what=plumber&where=Victoria+BC&useContext=true,1289 Balmoral Rd,Victoria,BC,V8T 1B4,"1289 Balmoral Rd, Victoria, BC, V8T 1B4",250-727-7770,https://magnumplumbing.ca/,"Plumbers & Plumbing Contractors, Heating Contractors",FALSE,plumber,victoria BC
On Demand Plumbing & Heating Ltd.,100923196,https://www.yellowpages.ca/bus/British-Columbia/On-Demand-Plumbing-Heating-Ltd/100923196.html?what=plumber&where=Victoria+BC&useContext=true,N/A,N/A,N/A,N/A,N/A,250-880-1662,https://odplumb.com/,"Plumbers & Plumbing Contractors, Heating Contractors",FALSE,plumber,victoria BC
The Drain Brain Plumbing Service,525046,https://www.yellowpages.ca/bus/British-Columbia/Victoria/The-Drain-Brain-Plumbing-Service/525046.html?what=plumber&where=Victoria+BC&useContext=true,2027 Stanley Ave,Victoria,BC,V8R 3X7,"2027 Stanley Ave, Victoria, BC, V8R 3X7",250-385-5398,https://www.yellowpages.ca,Plumbers & Plumbing Contractors,FALSE,plumber,victoria BC
Westcom Plumbing & Gas Ltd,101263436,https://www.yellowpages.ca/bus/British-Columbia/Westcom-Plumbing-Gas-Ltd/101263436.html?what=plumber&where=Victoria+BC&useContext=true,N/A,N/A,N/A,N/A,N/A,250-686-7335,https://www.westcomplumbing.ca/,Plumbers & Plumbing Contractors,FALSE,plumber,victoria BC
Life Mechanical Plumbing & Heating,7751624,https://www.yellowpages.ca/bus/British-Columbia/Victoria/Life-Mechanical-Plumbing-Heating/7751624.html?what=plumber&where=Victoria+BC&useContext=true,1132 Chapman St,Victoria,BC,V8V 2T6,"1132 Chapman St, Victoria, BC, V8V 2T6",250-418-5139,http://www.lifemechanical.co/,"Plumbers & Plumbing Contractors, Boiler Service & Repair",FALSE,plumber,victoria BC
Goodsense Plumbing & Drain Cleaning,7426982,https://www.yellowpages.ca/bus/British-Columbia/Victoria/Goodsense-Plumbing-Drain-Cleaning/7426982.html?what=plumber&where=Victoria+BC&useContext=true,202 Crease Ave,Victoria,BC,V8Z 1S9,"202 Crease Ave, Victoria, BC, V8Z 1S9",250-213-8700,http://www.goodsenseplumbing.ca/,"Plumbers & Plumbing Contractors, Drainage Contractors",FALSE,plumber,victoria BC
C U Drain & Rooter,7830201,https://www.yellowpages.ca/bus/British-Columbia/Victoria/C-U-Drain-Rooter/7830201.html?what=plumber&where=Victoria+BC&useContext=true,1720 Emerson St,Victoria,BC,V8R 2C3,"1720 Emerson St, Victoria, BC, V8R 2C3",250-883-3063,http://cudrains.com/,"Plumbers & Plumbing Contractors, Drain & Sewer Cleaning, More…",FALSE,plumber,victoria BC
Fraser Plumbing & Heating,100842260,https://www.yellowpages.ca/bus/British-Columbia/Fraser-Plumbing-Heating/100842260.html?what=plumber&where=Victoria+BC&useContext=true,N/A,N/A,N/A,N/A,N/A,250-727-3888,N/A,Plumbers & Plumbing Contractors,FALSE,plumber,victoria BC
Granger Plumbing & Heating,100842753,https://www.yellowpages.ca/bus/British-Columbia/Granger-Plumbing-Heating/100842753.html?what=plumber&where=Victoria+BC&useContext=true,N/A,N/A,N/A,N/A,N/A,250-744-8820,N/A,Plumbers & Plumbing Contractors,FALSE,plumber,victoria BC
Gerry Plumbing & Heating,101630089,https://www.yellowpages.ca/bus/British-Columbia/Gerry-Plumbing-Heating/101630089.html?what=plumber&where=Victoria+BC&useContext=true,N/A,N/A,N/A,N/A,N/A,250-463-5000,N/A,"Plumbers & Plumbing Contractors, Heating Contractors",FALSE,plumber,victoria BC
Quality Plumbing & Electrical,101024880,https://www.yellowpages.ca/bus/British-Columbia/New-Westminster/Quality-Plumbing-Electrical/101024880.html?what=plumber&where=Victoria+BC&useContext=true,N/A,New Westminster,BC,N/A,"New Westminster, BC",604-521-4670,N/A,Plumbers & Plumbing Contractors,FALSE,plumber,victoria BC
M & N Plumbing,101200494,https://www.yellowpages.ca/bus/British-Columbia/M-N-Plumbing/101200494.html?what=plumber&where=Victoria+BC&useContext=true,N/A,N/A,N/A,N/A,N/A,604-727-6011,N/A,Plumbers & Plumbing Contractors,FALSE,plumber,victoria BC
Milestone Plumbing & Heating,101502537,https://www.yellowpages.ca/bus/British-Columbia/Victoria/Milestone-Plumbing-Heating/101502537.html?what=plumber&where=Victoria+BC&useContext=true,N/A,Victoria,BC,V8W 2L9,"Victoria, BC, V8W 2L9",250-208-5468,N/A,Plumbers & Plumbing Contractors,FALSE,plumber,victoria BC
Franklin Mechanical Plumbing Service,101502035,https://www.yellowpages.ca/bus/British-Columbia/Victoria/Franklin-Mechanical-Plumbing-Service/101502035.html?what=plumber&where=Victoria+BC&useContext=true,N/A,Victoria,BC,V8W 2L9,"Victoria, BC, V8W 2L9",250-886-5768,N/A,Plumbers & Plumbing Contractors,FALSE,plumber,victoria BC
Rave And Son Plumbing,100843746,https://www.yellowpages.ca/bus/British-Columbia/Rave-And-Son-Plumbing/100843746.html?what=plumber&where=Victoria+BC&useContext=true,N/A,N/A,N/A,N/A,N/A,250-744-7283,N/A,Plumbers & Plumbing Contractors,FALSE,plumber,victoria BC
Central Plumbing & Heating,6388223,https://www.yellowpages.ca/bus/British-Columbia/Victoria/Central-Plumbing-Heating/6388223.html?what=plumber&where=Victoria+BC&useContext=true,PO Box 53544 Rpo Broadmead,Victoria,BC,V8X 5K2,"PO Box 53544 Rpo Broadmead, Victoria, BC, V8X 5K2",250-812-9597,N/A,Plumbers & Plumbing Contractors,FALSE,plumber,victoria BC
GN Custom Homes Ltd,101057031,https://www.yellowpages.ca/bus/British-Columbia/GN-Custom-Homes-Ltd/101057031.html?what=plumber&where=Victoria+BC&useContext=true,N/A,N/A,N/A,N/A,N/A,604-808-6667,http://www.gnhomes.ca/,"Plumbers & Plumbing Contractors, Home Builders",FALSE,plumber,victoria BC
Your First Response Plumbing,100729680,https://www.yellowpages.ca/bus/British-Columbia/Your-First-Response-Plumbing/100729680.html?what=plumber&where=Victoria+BC&useContext=true,N/A,N/A,N/A,N/A,N/A,778-402-1316,http://www.facebook.com/340278836122445,Plumbers & Plumbing Contractors,FALSE,plumber,victoria BC
Rave and Son Plumbing,101494026,https://www.yellowpages.ca/bus/British-Columbia/Rave-and-Son-Plumbing/101494026.html?what=plumber&where=Victoria+BC&useContext=true,N/A,N/A,N/A,N/A,N/A,250-744-7283,http://www.facebook.com/821333761372649,Plumbers & Plumbing Contractors,FALSE,plumber,victoria BC
Sandwith Mechanical Services Ltd,2519595,https://www.yellowpages.ca/bus/British-Columbia/Sandwith-Mechanical-Services-Ltd/2519595.html?what=plumber&where=Victoria+BC&useContext=true,N/A,N/A,N/A,N/A,N/A,250-479-5511,http://www.facebook.com/142486229481471,"Plumbers & Plumbing Contractors, Mechanical Contractors",FALSE,plumber,victoria BC
Connections 2000 Enterprises Inc,102025021,https://www.yellowpages.ca/bus/British-Columbia/Victoria/Connections-2000-Enterprises-Inc/102025021.html?what=plumber&where=Victoria+BC&useContext=true,1880 Haultain St,Victoria,BC,V8R 2L4,"1880 Haultain St, Victoria, BC, V8R 2L4",250-595-3400,http://www.facebook.com/207252902987705,Plumbers & Plumbing Contractors,FALSE,plumber,victoria BC
Malahat Plumbing & Gas,7198668,https://www.yellowpages.ca/bus/British-Columbia/Victoria/Malahat-Plumbing-Gas/7198668.html?what=plumber&where=Victoria+BC&useContext=true,1315 Balmoral Rd,Victoria,BC,V8R 1L6,"1315 Balmoral Rd, Victoria, BC, V8R 1L6",250-580-5810,http://www.facebook.com/1270091369773680,Plumbers & Plumbing Contractors,FALSE,plumber,victoria BC
Prime Water Savers Ltd,102025636,https://www.yellowpages.ca/bus/British-Columbia/Victoria/Prime-Water-Savers-Ltd/102025636.html?what=plumber&where=Victoria+BC&useContext=true,1713 Sprucewood Pl,Victoria,BC,V8N 1H4,"1713 Sprucewood Pl, Victoria, BC, V8N 1H4",250-472-6585,http://www.facebook.com/195985634118932,Plumbers & Plumbing Contractors,FALSE,plumber,victoria BC
Heatwave Plumbing & Heating,102021262,https://www.yellowpages.ca/bus/British-Columbia/Saanichton/Heatwave-Plumbing-Heating/102021262.html?what=plumber&where=Victoria+BC&useContext=true,7302 Chatwell Dr,Saanichton,BC,V8M 1M8,"7302 Chatwell Dr, Saanichton, BC, V8M 1M8",250-642-5800,http://www.facebook.com/213937655640785,Plumbers & Plumbing Contractors,FALSE,plumber,victoria BC
Budget Water Heater Svc,102024896,https://www.yellowpages.ca/bus/British-Columbia/Victoria/Budget-Water-Heater-Svc/102024896.html?what=plumber&where=Victoria+BC&useContext=true,3085 Dysart Rd,Victoria,BC,V9A 2K6,"3085 Dysart Rd, Victoria, BC, V9A 2K6",250-920-6554,http://www.facebook.com/639232626234184,Plumbers & Plumbing Contractors,FALSE,plumber,victoria BC
Rave and Son Plumbing,100842866,https://www.yellowpages.ca/bus/British-Columbia/Rave-and-Son-Plumbing/100842866.html?what=plumber&where=Victoria+BC&useContext=true,N/A,N/A,N/A,N/A,N/A,250-588-3169,https://www.facebook.com/pages/Rave-and-Son-Plumbing,"Plumbers & Plumbing Contractors, Drain & Sewer Cleaning",FALSE,plumber,victoria BC
Montague Plumbing & Gas,100603320,https://www.yellowpages.ca/bus/British-Columbia/Victoria/Montague-Plumbing-Gas/100603320.html?what=plumber&where=Victoria+BC&useContext=true,4504 Duart Rd,Victoria,BC,V8N 3K2,"4504 Duart Rd, Victoria, BC, V8N 3K2",250-220-9221,http://www.facebook.com/321267724689747,Plumbers & Plumbing Contractors,FALSE,plumber,victoria BC
Miles Plumbing Services Ltd,7519087,https://www.yellowpages.ca/bus/British-Columbia/Miles-Plumbing-Services-Ltd/7519087.html?what=plumber&where=Victoria+BC&useContext=true,N/A,N/A,N/A,N/A,N/A,250-595-3736,http://www.facebook.com/606171263062302,Plumbers & Plumbing Contractors,FALSE,plumber,victoria BC
Victoria Drain Services Ltd,7258238,https://www.yellowpages.ca/bus/British-Columbia/Victoria/Victoria-Drain-Services-Ltd/7258238.html?what=plumber&where=Victoria+BC&useContext=true,31 Regina Ave,Victoria,BC,V8Z 1H8,"31 Regina Ave, Victoria, BC, V8Z 1H8",250-818-1609,http://www.victoriadrains.com/,Plumbers & Plumbing Contractors,FALSE,plumber,victoria BC
JMC Plumbing & Heating,101013608,https://www.yellowpages.ca/bus/British-Columbia/JMC-Plumbing-Heating/101013608.html?what=plumber&where=Victoria+BC&useContext=true,N/A,N/A,N/A,N/A,N/A,250-857-3327,N/A,Plumbers & Plumbing Contractors,FALSE,plumber,victoria BC
West Shore Mechanical Inc,8233962,https://www.yellowpages.ca/bus/British-Columbia/Victoria/West-Shore-Mechanical-Inc/8233962.html?what=plumber&where=Victoria+BC&useContext=true,3853 Branson Rd,Victoria,BC,V9C 4A7,"3853 Branson Rd, Victoria, BC, V9C 4A7",250-883-3774,http://www.facebook.com/573391429489770,Plumbers & Plumbing Contractors,FALSE,plumber,victoria BC
SMR Plumbing and Heating,100992683,https://www.yellowpages.ca/bus/British-Columbia/SMR-Plumbing-and-Heating/100992683.html?what=plumber&where=Victoria+BC&useContext=true,N/A,N/A,N/A,N/A,N/A,604-616-0062,https://smrplumbing.com/,Plumbers & Plumbing Contractors,FALSE,plumber,victoria BC
Hybrid Plumbing & Gasworks,8022483,https://www.yellowpages.ca/bus/British-Columbia/Hybrid-Plumbing-Gasworks/8022483.html?what=plumber&where=Victoria+BC&useContext=true,N/A,N/A,N/A,N/A,N/A,250-589-7366,http://www.facebook.com/1275673852447219,Plumbers & Plumbing Contractors,FALSE,plumber,victoria BC
Your First Response Plumbing,8169528,https://www.yellowpages.ca/bus/British-Columbia/Your-First-Response-Plumbing/8169528.html?what=plumber&where=Victoria+BC&useContext=true,N/A,N/A,N/A,N/A,N/A,250-704-8962,http://www.yourfirstresponseplumbing.ca/,Plumbers & Plumbing Contractors,FALSE,plumber,victoria BC
Victory Plumbing & Gas,7582204,https://www.yellowpages.ca/bus/British-Columbia/Victoria/Victory-Plumbing-Gas/7582204.html?what=plumber&where=Victoria+BC&useContext=true,2601 Savory Rd,Victoria,BC,V9B 5Y4,"2601 Savory Rd, Victoria, BC, V9B 5Y4",250-686-4103,http://victoryplumbingandgas.ca/,Plumbers & Plumbing Contractors,FALSE,plumber,victoria BC
The Drain Camera Shop,100361274,https://www.yellowpages.ca/bus/British-Columbia/Richmond/The-Drain-Camera-Shop/100361274.html?what=plumber&where=Victoria+BC&useContext=true,148-11782 River Rd,Richmond,BC,V6X 1Z7,"148-11782 River Rd, Richmond, BC, V6X 1Z7",250-514-5976,http://thedraincamerashop.com/,"Plumbers & Plumbing Contractors, Drain & Sewer Cleaning",FALSE,plumber,victoria BC
Fyfe Fire Sprinklers Ltd,6295882,https://www.yellowpages.ca/bus/British-Columbia/Victoria/Fyfe-Fire-Sprinklers-Ltd/6295882.html?what=plumber&where=Victoria+BC&useContext=true,PO Box 28116,Victoria,BC,V9B 6K8,"PO Box 28116, Victoria, BC, V9B 6K8",250-361-7522,http://www.facebook.com/126660077732382,"Plumbers & Plumbing Contractors, Fire Alarm Systems, More…",FALSE,plumber,victoria BC
Thunderbird Plumbing Solutions Ltd,101263288,https://www.yellowpages.ca/bus/British-Columbia/Victoria/Thunderbird-Plumbing-Solutions-Ltd/101263288.html?what=plumber&where=Victoria+BC&useContext=true,410 Garbally Rd,Victoria,BC,V8T 2K1,"410 Garbally Rd, Victoria, BC, V8T 2K1",250-514-4044,https://thunderbirdplumbing.ca/,Plumbers & Plumbing Contractors,FALSE,plumber,victoria BC
Milani Plumbing Heating & Air Conditioning Ltd,2411107,https://www.yellowpages.ca/bus/British-Columbia/Victoria/Milani-Plumbing-Heating-Air-Conditioning-Ltd/2411107.html?what=plumber&where=Victoria+BC&useContext=true,"2519 Ludgate St, Main",Victoria,BC,V8T 4S2,"2519 Ludgate St, Main, Victoria, BC, V8T 4S2",250-361-4488,https://milesplumbing.com/,"Plumbers & Plumbing Contractors, Air Conditioning Contractors",FALSE,plumber,victoria BC
Jeniss Plumbing & Heating,100857414,https://www.yellowpages.ca/bus/British-Columbia/Victoria/Jeniss-Plumbing-Heating/100857414.html?what=plumber&where=Victoria+BC&useContext=true,2086 Gourman Pl,Victoria,BC,V9B 6E1,"2086 Gourman Pl, Victoria, BC, V9B 6E1",250-881-4679,http://www.facebook.com/175005226225486,Plumbers & Plumbing Contractors,FALSE,plumber,victoria BC
Roundabout Plumbing and Heating,101502202,https://www.yellowpages.ca/bus/British-Columbia/Roundabout-Plumbing-and-Heating/101502202.html?what=plumber&where=Victoria+BC&useContext=true,N/A,N/A,N/A,N/A,N/A,250-217-3333,https://roundaboutplumbing.ca/,Plumbers & Plumbing Contractors,FALSE,plumber,victoria BC
Kiwi Plumbing & Heating,7066379,https://www.yellowpages.ca/bus/British-Columbia/Brentwood-Bay/Kiwi-Plumbing-Heating/7066379.html?what=plumber&where=Victoria+BC&useContext=true,1056 Holly Park Rd,Brentwood Bay,BC,V8M 2H1,"1056 Holly Park Rd, Brentwood Bay, BC, V8M 2H1",250-886-9777,http://kiwiplumbingandheating.ca/,Plumbers & Plumbing Contractors,FALSE,plumber,victoria BC
Watershed Plumbing & Gas,101839424,https://www.yellowpages.ca/bus/British-Columbia/Victoria/Watershed-Plumbing-Gas/101839424.html?what=plumber&where=Victoria+BC&useContext=true,1719 Coronation Avenue,Victoria,BC,V8R 1X1,"1719 Coronation Avenue, Victoria, BC, V8R 1X1",250-896-6477,http://www.plumbingrenovationvictoria.ca/,Plumbers & Plumbing Contractors,FALSE,plumber,victoria BC
Impact Plumbing & Heating Ltd.,8166421,https://www.yellowpages.ca/bus/British-Columbia/Victoria/Impact-Plumbing-Heating-Ltd/8166421.html?what=plumber&where=Victoria+BC&useContext=true,188 Crease Ave,Victoria,BC,V8Z 1S7,"188 Crease Ave, Victoria, BC, V8Z 1S7",778-350-3535,https://www.victoriaimpactplumbing.ca/,Plumbers & Plumbing Contractors,FALSE,plumber,victoria BC
Wet Coast Drainage Solutions,100901090,https://www.yellowpages.ca/bus/British-Columbia/Victoria/Wet-Coast-Drainage-Solutions/100901090.html?what=plumber&where=Victoria+BC&useContext=true,5418 Fowler Rd,Victoria,BC,V8Y 1Y3,"5418 Fowler Rd, Victoria, BC, V8Y 1Y3",250-889-5478,http://www.wetcoastdrains.ca/,"Plumbers & Plumbing Contractors, Drainage Contractors, More…",FALSE,plumber,victoria BC
City Services Plumbing Ltd,6401599,https://www.yellowpages.ca/bus/British-Columbia/City-Services-Plumbing-Ltd/6401599.html?what=plumber&where=Victoria+BC&useContext=true,N/A,N/A,N/A,N/A,N/A,"250-744-3900,250-744-3901",http://www.cityserviceplumbing.com/,Plumbers & Plumbing Contractors,FALSE,plumber,victoria BC
Griffin M Ltd,100090979,https://www.yellowpages.ca/bus/British-Columbia/Griffin-M-Ltd/100090979.html?what=plumber&where=Victoria+BC&useContext=true,N/A,N/A,N/A,N/A,N/A,250-382-2515,N/A,Plumbers & Plumbing Contractors,FALSE,plumber,victoria BC
Blue Penguin Plumbing,101131522,https://www.yellowpages.ca/bus/British-Columbia/Blue-Penguin-Plumbing/101131522.html?what=plumber&where=Victoria+BC&useContext=true,N/A,N/A,N/A,N/A,N/A,250-804-8383,N/A,Plumbers & Plumbing Contractors,FALSE,plumber,victoria BC
West Saanich Plumbing,7479185,https://www.yellowpages.ca/bus/British-Columbia/West-Saanich-Plumbing/7479185.html?what=plumber&where=Victoria+BC&useContext=true,N/A,N/A,N/A,N/A,N/A,250-217-9150,N/A,Plumbers & Plumbing Contractors,FALSE,plumber,victoria BC
West View Plumbing,100841587,https://www.yellowpages.ca/bus/British-Columbia/West-View-Plumbing/100841587.html?what=plumber&where=Victoria+BC&useContext=true,N/A,N/A,N/A,N/A,N/A,250-886-2141,N/A,Plumbers & Plumbing Contractors,FALSE,plumber,victoria BC
Ashton Service Group,101111807,https://www.yellowpages.ca/bus/British-Columbia/Ashton-Service-Group/101111807.html?what=plumber&where=Victoria+BC&useContext=true,N/A,N/A,N/A,N/A,N/A,604-283-2353,N/A,Plumbers & Plumbing Contractors,FALSE,plumber,victoria BC
Ashton Service Group,101112196,https://www.yellowpages.ca/bus/British-Columbia/Ashton-Service-Group/101112196.html?what=plumber&where=Victoria+BC&useContext=true,N/A,N/A,N/A,N/A,N/A,604-283-2432,N/A,Plumbers & Plumbing Contractors,FALSE,plumber,victoria BC
JK Mechanical Ltd,101024603,https://www.yellowpages.ca/bus/British-Columbia/JK-Mechanical-Ltd/101024603.html?what=plumber&where=Victoria+BC&useContext=true,N/A,N/A,N/A,N/A,N/A,250-278-7473,N/A,"Plumbers & Plumbing Contractors, Mechanical Contractors",FALSE,plumber,victoria BC
Perfect Grade Plumbing,100844250,https://www.yellowpages.ca/bus/British-Columbia/Victoria/Perfect-Grade-Plumbing/100844250.html?what=plumber&where=Victoria+BC&useContext=true,N/A,Victoria,BC,V8W 2L8,"Victoria, BC, V8W 2L8",250-532-8678,N/A,Plumbers & Plumbing Contractors,FALSE,plumber,victoria BC
Felix's Plumbing,101478448,https://www.yellowpages.ca/bus/British-Columbia/Felix-s-Plumbing/101478448.html?what=plumber&where=Victoria+BC&useContext=true,N/A,N/A,N/A,N/A,N/A,250-514-2376,N/A,Plumbers & Plumbing Contractors,FALSE,plumber,victoria BC
Thomsen Plumbing Services,101478916,https://www.yellowpages.ca/bus/British-Columbia/Thomsen-Plumbing-Services/101478916.html?what=plumber&where=Victoria+BC&useContext=true,N/A,N/A,N/A,N/A,N/A,250-478-4758,N/A,Plumbers & Plumbing Contractors,FALSE,plumber,victoria BC
Pacific Drain Tile,101481518,https://www.yellowpages.ca/bus/British-Columbia/Pacific-Drain-Tile/101481518.html?what=plumber&where=Victoria+BC&useContext=true,N/A,N/A,N/A,N/A,N/A,250-360-7372,N/A,Plumbers & Plumbing Contractors,FALSE,plumber,victoria BC
T Mainer Contracting,101504227,https://www.yellowpages.ca/bus/British-Columbia/T-Mainer-Contracting/101504227.html?what=plumber&where=Victoria+BC&useContext=true,N/A,N/A,N/A,N/A,N/A,250-812-6822,N/A,Plumbers & Plumbing Contractors,FALSE,plumber,victoria BC
Baker Mechanical Plumbing,8075323,https://www.yellowpages.ca/bus/British-Columbia/Baker-Mechanical-Plumbing/8075323.html?what=plumber&where=Victoria+BC&useContext=true,N/A,N/A,N/A,N/A,N/A,250-642-7957,N/A,Plumbers & Plumbing Contractors,FALSE,plumber,victoria BC
Felix's Plumbing,7258457,https://www.yellowpages.ca/bus/British-Columbia/Felix-s-Plumbing/7258457.html?what=plumber&where=Victoria+BC&useContext=true,N/A,N/A,N/A,N/A,N/A,250-514-2376,N/A,Plumbers & Plumbing Contractors,FALSE,plumber,victoria BC
Thomsen Plumbing Services,7065925,https://www.yellowpages.ca/bus/British-Columbia/Thomsen-Plumbing-Services/7065925.html?what=plumber&where=Victoria+BC&useContext=true,N/A,N/A,N/A,N/A,N/A,250-478-4758,N/A,Plumbers & Plumbing Contractors,FALSE,plumber,victoria BC
Rasta Man Plumbing,101037748,https://www.yellowpages.ca/bus/British-Columbia/Rasta-Man-Plumbing/101037748.html?what=plumber&where=Victoria+BC&useContext=true,N/A,N/A,N/A,N/A,N/A,250-634-5782,N/A,Plumbers & Plumbing Contractors,FALSE,plumber,victoria BC
Osman Hodzic Plumbing,101199415,https://www.yellowpages.ca/bus/British-Columbia/Osman-Hodzic-Plumbing/101199415.html?what=plumber&where=Victoria+BC&useContext=true,N/A,N/A,N/A,N/A,N/A,778-847-0403,N/A,Plumbers & Plumbing Contractors,FALSE,plumber,victoria BC
City Wide Plumbing,102734779,https://www.yellowpages.ca/bus/British-Columbia/City-Wide-Plumbing/102734779.html?what=plumber&where=Victoria+BC&useContext=true,N/A,N/A,N/A,N/A,N/A,250-385-4131,N/A,Plumbers & Plumbing Contractors,FALSE,plumber,victoria BC
Garden City Painting,100995339,https://www.yellowpages.ca/bus/British-Columbia/Sooke/Garden-City-Painting/100995339.html?what=plumber&where=Victoria+BC&useContext=true,372 Becher Bay Rd,Sooke,BC,V9Z 1B8,"372 Becher Bay Rd, Sooke, BC, V9Z 1B8",778-352-4446,N/A,Plumbers & Plumbing Contractors,FALSE,plumber,victoria BC
Victoria Journeyman Plumber,101108866,https://www.yellowpages.ca/bus/British-Columbia/Victoria/Victoria-Journeyman-Plumber/101108866.html?what=plumber&where=Victoria+BC&useContext=true,N/A,Victoria,BC,N/A,"Victoria, BC",250-744-7681,N/A,Plumbers & Plumbing Contractors,FALSE,plumber,victoria BC
T Mainer Contracting,100437486,https://www.yellowpages.ca/bus/British-Columbia/T-Mainer-Contracting/100437486.html?what=plumber&where=Victoria+BC&useContext=true,N/A,N/A,N/A,N/A,N/A,250-812-6822,N/A,Plumbers & Plumbing Contractors,FALSE,plumber,victoria BC
Five Star Plumbing,8025599,https://www.yellowpages.ca/bus/British-Columbia/Victoria/Five-Star-Plumbing/8025599.html?what=plumber&where=Victoria+BC&useContext=true,1076 Gerda Rd,Victoria,BC,V8Z 6S4,"1076 Gerda Rd, Victoria, BC, V8Z 6S4",250-881-5833,N/A,Plumbers & Plumbing Contractors,FALSE,plumber,victoria BC
Stream Line Plumbing,102023800,https://www.yellowpages.ca/bus/British-Columbia/Salt-Spring-Island/Stream-Line-Plumbing/102023800.html?what=plumber&where=Victoria+BC&useContext=true,1650 Fulford-Ganges Rd,Salt Spring Island,BC,V8K 2A8,"1650 Fulford-Ganges Rd, Salt Spring Island, BC, V8K 2A8",250-653-2026,http://www.facebook.com/192126681339539,"Plumbers & Plumbing Contractors, General Contractors",FALSE,plumber,victoria BC
Neil Dennis Plumbing,100842745,https://www.yellowpages.ca/bus/British-Columbia/Victoria/Neil-Dennis-Plumbing/100842745.html?what=plumber&where=Victoria+BC&useContext=true,8009 East Saanich Rd,Victoria,BC,V8Z 5Z1,"8009 East Saanich Rd, Victoria, BC, V8Z 5Z1",250-652-9927,http://www.facebook.com/254411944901544,Plumbers & Plumbing Contractors,FALSE,plumber,victoria BC
Cascadia Plumbing Svc,102025134,https://www.yellowpages.ca/bus/British-Columbia/Victoria/Cascadia-Plumbing-Svc/102025134.html?what=plumber&where=Victoria+BC&useContext=true,1590 Howroyd Ave,Victoria,BC,V8P 3C1,"1590 Howroyd Ave, Victoria, BC, V8P 3C1",250-477-0818,http://www.facebook.com/180723465779991,Plumbers & Plumbing Contractors,FALSE,plumber,victoria BC
Joe the Plumber,100841162,https://www.yellowpages.ca/bus/British-Columbia/Victoria/Joe-the-Plumber/100841162.html?what=plumber&where=Victoria+BC&useContext=true,920 Queens Ave,Victoria,BC,V8T 1M6,"920 Queens Ave, Victoria, BC, V8T 1M6",250-516-6985,http://www.facebook.com/469258096601637,Plumbers & Plumbing Contractors,FALSE,plumber,victoria BC
Andy's Plumbing,2848442,https://www.yellowpages.ca/bus/British-Columbia/Victoria/Andy-s-Plumbing/2848442.html?what=plumber&where=Victoria+BC&useContext=true,3358 Salsbury Way,Victoria,BC,V8P 3K3,"3358 Salsbury Way, Victoria, BC, V8P 3K3",250-385-5398,http://www.facebook.com/118399301893503,Plumbers & Plumbing Contractors,FALSE,plumber,victoria BC
Brentwood Bay Mechanical,7746688,https://www.yellowpages.ca/bus/British-Columbia/Brentwood-Bay/Brentwood-Bay-Mechanical/7746688.html?what=plumber&where=Victoria+BC&useContext=true,7119 Wallace Dr,Brentwood Bay,BC,V8M 1G9,"7119 Wallace Dr, Brentwood Bay, BC, V8M 1G9",250-888-9484,http://www.facebook.com/1975916079289584,Plumbers & Plumbing Contractors,FALSE,plumber,victoria BC
Nick Beggs Plumbing,102019936,https://www.yellowpages.ca/bus/British-Columbia/Victoria/Nick-Beggs-Plumbing/102019936.html?what=plumber&where=Victoria+BC&useContext=true,261 Glenairlie Dr,Victoria,BC,V9B 1K5,"261 Glenairlie Dr, Victoria, BC, V9B 1K5",250-479-8386,http://www.facebook.com/212424915790383,Plumbers & Plumbing Contractors,FALSE,plumber,victoria BC
Paul Roos Plumbing,2456175,https://www.yellowpages.ca/bus/British-Columbia/Victoria/Paul-Roos-Plumbing/2456175.html?what=plumber&where=Victoria+BC&useContext=true,80 Marler Dr,Victoria,BC,V9B 6B8,"80 Marler Dr, Victoria, BC, V9B 6B8",250-995-9929,http://www.facebook.com/1584124088569919,Plumbers & Plumbing Contractors,FALSE,plumber,victoria BC
Asap Rooter Ltd,102025118,https://www.yellowpages.ca/bus/British-Columbia/Victoria/Asap-Rooter-Ltd/102025118.html?what=plumber&where=Victoria+BC&useContext=true,2088 Larabie Crt,Victoria,BC,V9B 6C1,"2088 Larabie Crt, Victoria, BC, V9B 6C1",250-382-1881,http://www.facebook.com/1736513583261657,Plumbers & Plumbing Contractors,FALSE,plumber,victoria BC
S Hall Plumbing,7698529,https://www.yellowpages.ca/bus/British-Columbia/S-Hall-Plumbing/7698529.html?what=plumber&where=Victoria+BC&useContext=true,N/A,N/A,N/A,N/A,N/A,778-908-4184,http://www.facebook.com/142200433032348,Plumbers & Plumbing Contractors,FALSE,plumber,victoria BC
Baker Mechanical Plumbing,7978668,https://www.yellowpages.ca/bus/British-Columbia/Baker-Mechanical-Plumbing/7978668.html?what=plumber&where=Victoria+BC&useContext=true,N/A,N/A,N/A,N/A,N/A,250-642-7963,http://www.thesuperplumber.com/,Plumbers & Plumbing Contractors,FALSE,plumber,victoria BC
The Super Plumber,8126846,https://www.yellowpages.ca/bus/British-Columbia/Victoria/The-Super-Plumber/8126846.html?what=plumber&where=Victoria+BC&useContext=true,N/A,Victoria,BC,V8W 2L9,"Victoria, BC, V8W 2L9",250-642-7963,http://www.thesuperplumber.com/,Plumbers & Plumbing Contractors,FALSE,plumber,victoria BC
Concept Mechanical Ltd,2199244,https://www.yellowpages.ca/bus/British-Columbia/Victoria/Concept-Mechanical-Ltd/2199244.html?what=plumber&where=Victoria+BC&useContext=true,3929 Interurban Rd,Victoria,BC,V8Z 6A4,"3929 Interurban Rd, Victoria, BC, V8Z 6A4",250-479-4093,http://www.facebook.com/212083285827902,"Plumbers & Plumbing Contractors, Mechanical Contractors",FALSE,plumber,victoria BC
The Super Plumber,8074778,https://www.yellowpages.ca/bus/British-Columbia/The-Super-Plumber/8074778.html?what=plumber&where=Victoria+BC&useContext=true,N/A,N/A,N/A,N/A,N/A,250-995-1234,http://thesuperplumber.com/,Plumbers & Plumbing Contractors,FALSE,plumber,victoria BC
London Bins Service,7412920,https://www.yellowpages.ca/bus/British-Columbia/Victoria/London-Bins-Service/7412920.html?what=plumber&where=Victoria+BC&useContext=true,962 Darwin Ave,Victoria,BC,V8X 2X9,"962 Darwin Ave, Victoria, BC, V8X 2X9",250-883-7962,http://londonbinsservice.ca/,Plumbers & Plumbing Contractors,FALSE,plumber,victoria BC
Calibre Mechanical Ltd,6904537,https://www.yellowpages.ca/bus/British-Columbia/Victoria/Calibre-Mechanical-Ltd/6904537.html?what=plumber&where=Victoria+BC&useContext=true,838 Maltwood Terr,Victoria,BC,V8X 5C8,"838 Maltwood Terr, Victoria, BC, V8X 5C8",250-888-1032,N/A,Plumbers & Plumbing Contractors,FALSE,plumber,victoria BC
The Mighty Plumber,101255432,https://www.yellowpages.ca/bus/British-Columbia/The-Mighty-Plumber/101255432.html?what=plumber&where=Victoria+BC&useContext=true,N/A,N/A,N/A,N/A,N/A,250-808-7822,N/A,"Plumbers & Plumbing Contractors, Water Heater Repair & Parts",FALSE,plumber,victoria BC
Canpole Plumbing Ltd,4410387,https://www.yellowpages.ca/bus/British-Columbia/Victoria/Canpole-Plumbing-Ltd/4410387.html?what=plumber&where=Victoria+BC&useContext=true,Lwr-4412 King Alfred Crt,Victoria,BC,V8N 6K3,"Lwr-4412 King Alfred Crt, Victoria, BC, V8N 6K3",250-478-6167,http://www.facebook.com/587571398084327,Plumbers & Plumbing Contractors,FALSE,plumber,victoria BC
Oceanview Mechanical Ltd,1158327,https://www.yellowpages.ca/bus/British-Columbia/Victoria/Oceanview-Mechanical-Ltd/1158327.html?what=plumber&where=Victoria+BC&useContext=true,461 John St,Victoria,BC,V8T 5H1,"461 John St, Victoria, BC, V8T 5H1",250-920-3605,https://oceanviewmechanical.com/,Plumbers & Plumbing Contractors,FALSE,plumber,victoria BC
KNA Plumbing Ltd,7569139,https://www.yellowpages.ca/bus/British-Columbia/Victoria/KNA-Plumbing-Ltd/7569139.html?what=plumber&where=Victoria+BC&useContext=true,2396 Estevan Ave,Victoria,BC,V8R 2S5,"2396 Estevan Ave, Victoria, BC, V8R 2S5",250-880-0104,http://www.knaplumbing.com/,Plumbers & Plumbing Contractors,FALSE,plumber,victoria BC
Plumb-It Mechanical,7913197,https://www.yellowpages.ca/bus/British-Columbia/Brentwood-Bay/Plumb-It-Mechanical/7913197.html?what=plumber&where=Victoria+BC&useContext=true,6782 Jedora Dr,Brentwood Bay,BC,V8M 1A5,"6782 Jedora Dr, Brentwood Bay, BC, V8M 1A5",250-661-0395,http://www.plumb-it.ca/,Plumbers & Plumbing Contractors,FALSE,plumber,victoria BC
Black's Plumbing,7873958,https://www.yellowpages.ca/bus/British-Columbia/Victoria/Black-s-Plumbing/7873958.html?what=plumber&where=Victoria+BC&useContext=true,N/A,Victoria,BC,V8Z 2C3,"Victoria, BC, V8Z 2C3",250-886-0044,http://blacks-plumbing.ca/,Plumbers & Plumbing Contractors,FALSE,plumber,victoria BC
Rather Be Plumbing,101853181,https://www.yellowpages.ca/bus/British-Columbia/Victoria/Rather-Be-Plumbing/101853181.html?what=plumber&where=Victoria+BC&useContext=true,756 Chesterlea Rd,Victoria,BC,V8X 3R2,"756 Chesterlea Rd, Victoria, BC, V8X 3R2",250-589-8555,http://www.ratherbeplumbing.com/,"Plumbers & Plumbing Contractors, Fireplaces, More…",FALSE,plumber,victoria BC
Sidney Plumbing Inc,1447552,https://www.yellowpages.ca/bus/British-Columbia/North-Saanich/Sidney-Plumbing-Inc/1447552.html?what=plumber&where=Victoria+BC&useContext=true,8556 Bourne Terr,North Saanich,BC,V8L 1L8,"8556 Bourne Terr, North Saanich, BC, V8L 1L8","250-656-2761,250-656-2774",http://sidneyplumbing.ca/,"Plumbers & Plumbing Contractors, Excavation Contractors",FALSE,plumber,victoria BC
Norscot Development Ltd,7922048,https://www.yellowpages.ca/bus/British-Columbia/Victoria/Norscot-Development-Ltd/7922048.html?what=plumber&where=Victoria+BC&useContext=true,5388 West Saanich Rd,Victoria,BC,V9E 1J8,"5388 West Saanich Rd, Victoria, BC, V9E 1J8",250-370-9084,http://www.facebook.com/199098633814475,Plumbers & Plumbing Contractors,FALSE,plumber,victoria BC
Limitless Plumbing,101851399,https://www.yellowpages.ca/bus/British-Columbia/Limitless-Plumbing/101851399.html?what=plumber&where=Victoria+BC&useContext=true,N/A,N/A,N/A,N/A,N/A,250-858-2322,N/A,Plumbers & Plumbing Contractors,FALSE,plumber,victoria BC
MJA Plumbing Services,101530133,https://www.yellowpages.ca/bus/British-Columbia/Victoria/MJA-Plumbing-Services/101530133.html?what=plumber&where=Victoria+BC&useContext=true,2640 Crystalview Dr,Victoria,BC,V9B 5W5,"2640 Crystalview Dr, Victoria, BC, V9B 5W5",250-884-6436,http://mjaplumbing.ca/,Plumbers & Plumbing Contractors,FALSE,plumber,victoria BC
Bandelow Mechanical,100438503,https://www.yellowpages.ca/bus/British-Columbia/Bandelow-Mechanical/100438503.html?what=plumber&where=Victoria+BC&useContext=true,N/A,N/A,N/A,N/A,N/A,250-516-6790,N/A,Plumbers & Plumbing Contractors,FALSE,plumber,victoria BC
Saltspring Plumbing,100731311,https://www.yellowpages.ca/bus/British-Columbia/Saltspring-Plumbing/100731311.html?what=plumber&where=Victoria+BC&useContext=true,N/A,N/A,BC,V8K 2A5,"BC, V8K 2A5",250-538-2051,N/A,Plumbers & Plumbing Contractors,FALSE,plumber,victoria BC
Rod Gogouen,101501647,https://www.yellowpages.ca/bus/British-Columbia/Rod-Gogouen/101501647.html?what=plumber&where=Victoria+BC&useContext=true,N/A,N/A,N/A,N/A,N/A,250-220-5621,N/A,Plumbers & Plumbing Contractors,FALSE,plumber,victoria BC
Bandelow Mechanical,101492380,https://www.yellowpages.ca/bus/British-Columbia/Bandelow-Mechanical/101492380.html?what=plumber&where=Victoria+BC&useContext=true,N/A,N/A,N/A,N/A,N/A,250-516-6790,N/A,Plumbers & Plumbing Contractors,FALSE,plumber,victoria BC
BTE Plumbing,101478786,https://www.yellowpages.ca/bus/British-Columbia/BTE-Plumbing/101478786.html?what=plumber&where=Victoria+BC&useContext=true,N/A,N/A,N/A,N/A,N/A,250-213-6924,N/A,Plumbers & Plumbing Contractors,FALSE,plumber,victoria BC
Rod Gogouen,7207924,https://www.yellowpages.ca/bus/British-Columbia/Rod-Gogouen/7207924.html?what=plumber&where=Victoria+BC&useContext=true,N/A,N/A,N/A,N/A,N/A,250-220-5621,N/A,Plumbers & Plumbing Contractors,FALSE,plumber,victoria BC
Polaris Plumbing,8209226,https://www.yellowpages.ca/bus/British-Columbia/Polaris-Plumbing/8209226.html?what=plumber&where=Victoria+BC&useContext=true,N/A,N/A,N/A,N/A,N/A,250-537-4997,N/A,Plumbers & Plumbing Contractors,FALSE,plumber,victoria BC
BTE Plumbing,7292504,https://www.yellowpages.ca/bus/British-Columbia/BTE-Plumbing/7292504.html?what=plumber&where=Victoria+BC&useContext=true,N/A,N/A,N/A,N/A,N/A,250-213-6924,N/A,Plumbers & Plumbing Contractors,FALSE,plumber,victoria BC
Ledge Plumbing,7536067,https://www.yellowpages.ca/bus/British-Columbia/Ledge-Plumbing/7536067.html?what=plumber&where=Victoria+BC&useContext=true,N/A,N/A,N/A,N/A,N/A,250-880-0512,N/A,Plumbers & Plumbing Contractors,FALSE,plumber,victoria BC
WJ Plumbing,101189963,https://www.yellowpages.ca/bus/British-Columbia/WJ-Plumbing/101189963.html?what=plumber&where=Victoria+BC&useContext=true,N/A,N/A,N/A,N/A,N/A,"250-860-9455,250-470-2475",N/A,Plumbers & Plumbing Contractors,FALSE,plumber,victoria BC
Standard Enterprises,101025981,https://www.yellowpages.ca/bus/British-Columbia/New-Westminster/Standard-Enterprises/101025981.html?what=plumber&where=Victoria+BC&useContext=true,N/A,New Westminster,BC,N/A,"New Westminster, BC",604-521-4475,N/A,Plumbers & Plumbing Contractors,FALSE,plumber,victoria BC
Surfside Plumbing,100360070,https://www.yellowpages.ca/bus/British-Columbia/Surfside-Plumbing/100360070.html?what=plumber&where=Victoria+BC&useContext=true,N/A,N/A,N/A,N/A,N/A,250-516-3284,N/A,Plumbers & Plumbing Contractors,FALSE,plumber,victoria BC
Preferred Plumbing,7219699,https://www.yellowpages.ca/bus/British-Columbia/Victoria/Preferred-Plumbing/7219699.html?what=plumber&where=Victoria+BC&useContext=true,1640 Rockland Ave,Victoria,BC,V8S 1W7,"1640 Rockland Ave, Victoria, BC, V8S 1W7",778-678-7780,N/A,Plumbers & Plumbing Contractors,FALSE,plumber,victoria BC
Granger Plumbing,101493254,https://www.yellowpages.ca/bus/British-Columbia/Victoria/Granger-Plumbing/101493254.html?what=plumber&where=Victoria+BC&useContext=true,N/A,Victoria,BC,V8W 2L9,"Victoria, BC, V8W 2L9",250-721-9711,N/A,Plumbers & Plumbing Contractors,FALSE,plumber,victoria BC
Petersen Plumbing,100438396,https://www.yellowpages.ca/bus/British-Columbia/Victoria/Petersen-Plumbing/100438396.html?what=plumber&where=Victoria+BC&useContext=true,N/A,Victoria,BC,V8W 2L9,"Victoria, BC, V8W 2L9",250-888-8583,N/A,Plumbers & Plumbing Contractors,FALSE,plumber,victoria BC
Corbett Plumbing,100460983,https://www.yellowpages.ca/bus/British-Columbia/Victoria/Corbett-Plumbing/100460983.html?what=plumber&where=Victoria+BC&useContext=true,208-630 Head St,Victoria,BC,V9A 5S8,"208-630 Head St, Victoria, BC, V9A 5S8",250-857-3598,N/A,Plumbers & Plumbing Contractors,FALSE,plumber,victoria BC
Rival Rooter,100987228,https://www.yellowpages.ca/bus/British-Columbia/Victoria/Rival-Rooter/100987228.html?what=plumber&where=Victoria+BC&useContext=true,N/A,Victoria,BC,C0A 2G0,"Victoria, BC, C0A 2G0",250-360-7880,N/A,Plumbers & Plumbing Contractors,FALSE,plumber,victoria BC
Ravenwoods Development,101299464,https://www.yellowpages.ca/bus/British-Columbia/Ravenwoods-Development/101299464.html?what=plumber&where=Victoria+BC&useContext=true,N/A,N/A,N/A,N/A,N/A,250-507-6438,http://ravenwoods.ca/,Plumbers & Plumbing Contractors,FALSE,plumber,victoria BC
Perfect Plumbing,100841151,https://www.yellowpages.ca/bus/British-Columbia/Victoria/Perfect-Plumbing/100841151.html?what=plumber&where=Victoria+BC&useContext=true,N/A,Victoria,BC,V8W 2L9,"Victoria, BC, V8W 2L9",250-507-5622,N/A,Plumbers & Plumbing Contractors,FALSE,plumber,victoria BC
Mauro Val,5205766,https://www.yellowpages.ca/bus/British-Columbia/Victoria/Mauro-Val/5205766.html?what=plumber&where=Victoria+BC&useContext=true,1046 Inverness Rd,Victoria,BC,V8X 2S3,"1046 Inverness Rd, Victoria, BC, V8X 2S3",250-388-5544,N/A,Plumbers & Plumbing Contractors,FALSE,plumber,victoria BC
Ready Rooter,100666771,https://www.yellowpages.ca/bus/British-Columbia/Victoria/Ready-Rooter/100666771.html?what=plumber&where=Victoria+BC&useContext=true,N/A,Victoria,BC,V8W 2L9,"Victoria, BC, V8W 2L9",250-920-8561,http://www.facebook.com/308465412695381,"Plumbers & Plumbing Contractors, Water Heater Dealers",FALSE,plumber,victoria BC
McMullen Mechanical,4304888,https://www.yellowpages.ca/bus/British-Columbia/Victoria/McMullen-Mechanical/4304888.html?what=plumber&where=Victoria+BC&useContext=true,5045 Prospect Lake Rd,Victoria,BC,V9E 1J5,"5045 Prospect Lake Rd, Victoria, BC, V9E 1J5",250-477-7994,N/A,"Plumbers & Plumbing Contractors, Fireplaces",FALSE,plumber,victoria BC
Ama Mechanical,102024755,https://www.yellowpages.ca/bus/British-Columbia/Esquimalt/Ama-Mechanical/102024755.html?what=plumber&where=Victoria+BC&useContext=true,12-850 Admirals Rd,Esquimalt,BC,V9A 2P2,"12-850 Admirals Rd, Esquimalt, BC, V9A 2P2",250-589-0179,https://www.facebook.com/AMAMechanical/,Plumbers & Plumbing Contractors,FALSE,plumber,victoria BC
Space Plumbing,2546522,https://www.yellowpages.ca/bus/British-Columbia/Esquimalt/Space-Plumbing/2546522.html?what=plumber&where=Victoria+BC&useContext=true,1193 Highrock Pl,Esquimalt,BC,V9A 4W1,"1193 Highrock Pl, Esquimalt, BC, V9A 4W1",250-383-4708,http://spaceheatingltd.co.uk/,Plumbers & Plumbing Contractors,FALSE,plumber,victoria BC
Drain Pro,8033131,https://www.yellowpages.ca/bus/British-Columbia/Drain-Pro/8033131.html?what=plumber&where=Victoria+BC&useContext=true,N/A,N/A,N/A,N/A,N/A,250-883-0897,http://drainproplumbing.ca/,Plumbers & Plumbing Contractors,FALSE,plumber,victoria BC
Minute Plumbers,7797247,https://www.yellowpages.ca/bus/British-Columbia/Victoria/Minute-Plumbers/7797247.html?what=plumber&where=Victoria+BC&useContext=true,712 Heaslip Pl,Victoria,BC,V9B 4W1,"712 Heaslip Pl, Victoria, BC, V9B 4W1","250-744-7791,250-384-5535",https://minuteplumbers.ca/,"Plumbers & Plumbing Contractors, Water Heater Dealers",FALSE,plumber,victoria BC
Virgo Enterprises,101365174,https://www.yellowpages.ca/bus/British-Columbia/Kaslo/Virgo-Enterprises/101365174.html?what=plumber&where=Victoria+BC&useContext=true,PO Box 423,Kaslo,BC,V0G 1M0,"PO Box 423, Kaslo, BC, V0G 1M0",250-353-3237,http://virgoplumbing.com/,Plumbers & Plumbing Contractors,FALSE,plumber,victoria BC
urbanplumbing,101090872,https://www.yellowpages.ca/bus/British-Columbia/Victoria/urbanplumbing/101090872.html?what=plumber&where=Victoria+BC&useContext=true,843 Villance St,Victoria,BC,V8X 2P5,"843 Villance St, Victoria, BC, V8X 2P5",778-677-4256,http://www.facebook.com/416935058667968,Plumbers & Plumbing Contractors,FALSE,plumber,victoria BC
Keystone Plumbing Inc,7508741,https://www.yellowpages.ca/bus/British-Columbia/Victoria/Keystone-Plumbing-Inc/7508741.html?what=plumber&where=Victoria+BC&useContext=true,144 Mocha Terr,Victoria,BC,V9B 5T3,"144 Mocha Terr, Victoria, BC, V9B 5T3",250-415-0985,N/A,Plumbers & Plumbing Contractors,FALSE,plumber,victoria BC
Monkey Wrench Plumbing and Heating,101222021,https://www.yellowpages.ca/bus/British-Columbia/Maple-Ridge/Monkey-Wrench-Plumbing-and-Heating/101222021.html?what=plumber&where=Victoria+BC&useContext=true,N/A,Maple Ridge,BC,N/A,"Maple Ridge, BC",604-790-6777,N/A,"Plumbers & Plumbing Contractors, Floor Refinishing, Laying & Resurfacing",FALSE,plumber,victoria BC
Pro Way Plumbing Services Ltd,100284543,https://www.yellowpages.ca/bus/British-Columbia/Pro-Way-Plumbing-Services-Ltd/100284543.html?what=plumber&where=Victoria+BC&useContext=true,N/A,N/A,N/A,N/A,N/A,778-351-1061,N/A,Plumbers & Plumbing Contractors,FALSE,plumber,victoria BC
Quality Plumbing,2334396,https://www.yellowpages.ca/bus/British-Columbia/Victoria/Quality-Plumbing/2334396.html?what=plumber&where=Victoria+BC&useContext=true,31 Régina Ave,Victoria,BC,V8Z 1H8,"31 Régina Ave, Victoria, BC, V8Z 1H8","250-598-6161,250-598-6169,1-866-598-6161",http://www.ipitech.com/,"Plumbers & Plumbing Contractors, Inspection Services",FALSE,plumber,victoria BC
Brent Jansen Plumbing & Heating,7393139,https://www.yellowpages.ca/bus/British-Columbia/Victoria/Brent-Jansen-Plumbing-Heating/7393139.html?what=plumber&where=Victoria+BC&useContext=true,4108 Delmar Ave,Victoria,BC,V8Z 5J6,"4108 Delmar Ave, Victoria, BC, V8Z 5J6",250-744-6066,http://www.facebook.com/1760328697535884,Plumbers & Plumbing Contractors,FALSE,plumber,victoria BC
Citywide Plumbing,375891,https://www.yellowpages.ca/bus/British-Columbia/Citywide-Plumbing/375891.html?what=plumber&where=Victoria+BC&useContext=true,N/A,N/A,N/A,N/A,N/A,250-741-9844,http://citywideplumbingservices.ca/,Plumbers & Plumbing Contractors,FALSE,plumber,victoria BC
PipeScope Services,8238418,https://www.yellowpages.ca/bus/British-Columbia/Victoria/PipeScope-Services/8238418.html?what=plumber&where=Victoria+BC&useContext=true,172 Wilson Street,Victoria,BC,V9A 7N6,"172 Wilson Street, Victoria, BC, V9A 7N6",778-403-1445,http://www.pipescopeservices.com/,"Plumbers & Plumbing Contractors, Water Heater Dealers",FALSE,plumber,victoria BC
Butler Plumbing,101474020,https://www.yellowpages.ca/bus/British-Columbia/Butler-Plumbing/101474020.html?what=plumber&where=Victoria+BC&useContext=true,N/A,N/A,N/A,N/A,N/A,250-655-1765,N/A,Plumbers & Plumbing Contractors,FALSE,plumber,victoria BC
Macgregor Mechanical,101476381,https://www.yellowpages.ca/bus/British-Columbia/Victoria/Macgregor-Mechanical/101476381.html?what=plumber&where=Victoria+BC&useContext=true,N/A,Victoria,BC,V8W 2L9,"Victoria, BC, V8W 2L9",778-966-1000,N/A,Plumbers & Plumbing Contractors,FALSE,plumber,victoria BC
Drainmaster,7355969,https://www.yellowpages.ca/bus/British-Columbia/Drainmaster/7355969.html?what=plumber&where=Victoria+BC&useContext=true,N/A,N/A,N/A,N/A,N/A,250-479-0195,http://earthservice.ca/,"Plumbers & Plumbing Contractors, Drain & Sewer Cleaning, More…",FALSE,plumber,victoria BC
Mauro Val,7813195,https://www.yellowpages.ca/bus/British-Columbia/Victoria/Mauro-Val/7813195.html?what=plumber&where=Victoria+BC&useContext=true,102-3701 Quadra St,Victoria,BC,V8X 1H5,"102-3701 Quadra St, Victoria, BC, V8X 1H5",250-881-5343,http://www.facebook.com/1758782947741655,Plumbers & Plumbing Contractors,FALSE,plumber,victoria BC
Bailey Plumbing,7905555,https://www.yellowpages.ca/bus/British-Columbia/Bailey-Plumbing/7905555.html?what=plumber&where=Victoria+BC&useContext=true,N/A,N/A,N/A,N/A,N/A,250-858-9586,http://baileyplumbing.co/,Plumbers & Plumbing Contractors,FALSE,plumber,victoria BC
Macgregor Mechanical,7227868,https://www.yellowpages.ca/bus/British-Columbia/Victoria/Macgregor-Mechanical/7227868.html?what=plumber&where=Victoria+BC&useContext=true,2773 Wenger Terr,Victoria,BC,V9B 4H9,"2773 Wenger Terr, Victoria, BC, V9B 4H9",250-883-9000,http://www.macgregormechanical.com/,Plumbers & Plumbing Contractors,FALSE,plumber,victoria BC
Citywide Plumbing,8112471,https://www.yellowpages.ca/bus/British-Columbia/Victoria/Citywide-Plumbing/8112471.html?what=plumber&where=Victoria+BC&useContext=true,127-2785 Leigh Rd,Victoria,BC,V9B 0V4,"127-2785 Leigh Rd, Victoria, BC, V9B 0V4",250-475-1950,https://citywideplumbingandpower.ca/,"Plumbers & Plumbing Contractors, Floor Refinishing, Laying & Resurfacing",FALSE,plumber,victoria BC
My Plumber,102022851,https://www.yellowpages.ca/bus/British-Columbia/Victoria/My-Plumber/102022851.html?what=plumber&where=Victoria+BC&useContext=true,941 Easter Rd,Victoria,BC,V8X 2Z9,"941 Easter Rd, Victoria, BC, V8X 2Z9",250-388-0049,http://www.facebook.com/1296669800346954,Plumbers & Plumbing Contractors,FALSE,plumber,victoria BC
Youell Plumbing,100731293,https://www.yellowpages.ca/bus/British-Columbia/Victoria/Youell-Plumbing/100731293.html?what=plumber&where=Victoria+BC&useContext=true,899 Walfred Rd,Victoria,BC,V9C 2P1,"899 Walfred Rd, Victoria, BC, V9C 2P1",250-391-0728,http://www.facebook.com/586852598140149,Plumbers & Plumbing Contractors,FALSE,plumber,victoria BC
The Clear Choice Plumbing and Heating Inc,102212220,https://www.yellowpages.ca/bus/British-Columbia/Victoria/The-Clear-Choice-Plumbing-and-Heating-Inc/102212220.html?what=plumber&where=Victoria+BC&useContext=true,200-535 Yates St,Victoria,BC,V8W 2Z6,"200-535 Yates St, Victoria, BC, V8W 2Z6",778-608-5547,N/A,Plumbers & Plumbing Contractors,FALSE,plumber,victoria BC
Bottom Line Plumbing,7319661,https://www.yellowpages.ca/bus/British-Columbia/Bottom-Line-Plumbing/7319661.html?what=plumber&where=Victoria+BC&useContext=true,N/A,N/A,N/A,N/A,N/A,250-880-1201,N/A,Plumbers & Plumbing Contractors,FALSE,plumber,victoria BC
Gilmour Plumbing,6677554,https://www.yellowpages.ca/bus/British-Columbia/Victoria/Gilmour-Plumbing/6677554.html?what=plumber&where=Victoria+BC&useContext=true,Upr- 2665 Sooke Rd,Victoria,BC,V9B 1Y5,"Upr- 2665 Sooke Rd, Victoria, BC, V9B 1Y5","250-590-8860,250-590-8865",http://www.facebook.com/1143406212357126,Plumbers & Plumbing Contractors,FALSE,plumber,victoria BC
Mr Rooter Plumbing,101507075,https://www.yellowpages.ca/bus/British-Columbia/Mr-Rooter-Plumbing/101507075.html?what=plumber&where=Victoria+BC&useContext=true,N/A,N/A,N/A,N/A,N/A,250-656-4131,N/A,Plumbers & Plumbing Contractors,FALSE,plumber,victoria BC
Duck Range Plumbing & Heating Ltd.,101238889,https://www.yellowpages.ca/bus/British-Columbia/Chase/Duck-Range-Plumbing-Heating-Ltd/101238889.html?what=plumber&where=Victoria+BC&useContext=true,197 Shuswap Avenue,Chase,BC,V0E 1M0,"197 Shuswap Avenue, Chase, BC, V0E 1M0",250-214-0539,https://www.facebook.com/Duck-Range-Plumbing-Heating-LTD-Chase-BC-585007948339577/,Plumbers & Plumbing Contractors,FALSE,plumber,victoria BC
Drain Pro Plumbing & Drainage Ltd,101641763,https://www.yellowpages.ca/bus/British-Columbia/Drain-Pro-Plumbing-Drainage-Ltd/101641763.html?what=plumber&where=Victoria+BC&useContext=true,N/A,N/A,N/A,N/A,N/A,250-652-5588,http://drainproplumbing.ca/,Plumbers & Plumbing Contractors,FALSE,plumber,victoria BC
Aqua Temp Plumbing & Gas,7870573,https://www.yellowpages.ca/bus/British-Columbia/Nanaimo/Aqua-Temp-Plumbing-Gas/7870573.html?what=plumber&where=Victoria+BC&useContext=true,2708 Labieux Rd,Nanaimo,BC,V9T 4V9,"2708 Labieux Rd, Nanaimo, BC, V9T 4V9","250-758-3991,250-758-3941",http://aquatemp.ca/,"Plumbers & Plumbing Contractors, Gas Fitters",FALSE,plumber,victoria BC
Mr. Plumbing & Heating,100961885,https://www.yellowpages.ca/bus/British-Columbia/Prince-George/Mr-Plumbing-Heating/100961885.html?what=plumber&where=Victoria+BC&useContext=true,7802 Emerald Dr,Prince George,BC,V2K 3M1,"7802 Emerald Dr, Prince George, BC, V2K 3M1",250-565-4743,http://mrplumbingandheating.ca/,Plumbers & Plumbing Contractors,FALSE,plumber,victoria BC
Majestic Mechanical Ltd,2390912,https://www.yellowpages.ca/bus/British-Columbia/Victoria/Majestic-Mechanical-Ltd/2390912.html?what=plumber&where=Victoria+BC&useContext=true,128-2936 Amy Rd,Victoria,BC,V9B 0B2,"128-2936 Amy Rd, Victoria, BC, V9B 0B2",250-391-4528,http://www.majesticmechanical.com/,"Plumbers & Plumbing Contractors, Fireplaces, More…",FALSE,plumber,victoria BC
Strategic Mechanical Services,102229310,https://www.yellowpages.ca/bus/British-Columbia/Nanaimo/Strategic-Mechanical-Services/102229310.html?what=plumber&where=Victoria+BC&useContext=true,704 Fitzwilliam St,Nanaimo,BC,V9R 3B6,"704 Fitzwilliam St, Nanaimo, BC, V9R 3B6",778-841-0474,http://strategicmechanical.ca/,"Plumbers & Plumbing Contractors, Heat Pump Systems, More…",FALSE,plumber,victoria BC
Beacon Plumbing,7599493,https://www.yellowpages.ca/bus/British-Columbia/North-Saanich/Beacon-Plumbing/7599493.html?what=plumber&where=Victoria+BC&useContext=true,1375 Laurel Rd,North Saanich,BC,V8L 5K8,"1375 Laurel Rd, North Saanich, BC, V8L 5K8","250-656-3316,250-656-3016",N/A,"Plumbers & Plumbing Contractors, Water Heater Dealers",FALSE,plumber,victoria BC
Urban Waterworks,101265763,https://www.yellowpages.ca/bus/British-Columbia/West-Vancouver/Urban-Waterworks/101265763.html?what=plumber&where=Victoria+BC&useContext=true,PO Box 93076,West Vancouver,BC,V7W 3G4,"PO Box 93076, West Vancouver, BC, V7W 3G4",604-790-8993,https://www.urbanwaterworks.ca/,"Plumbers & Plumbing Contractors, Drainage Contractors",FALSE,plumber,victoria BC
Callaway Plumbing & Drains Ltd,8229795,https://www.yellowpages.ca/bus/British-Columbia/Victoria/Callaway-Plumbing-Drains-Ltd/8229795.html?what=plumber&where=Victoria+BC&useContext=true,"485A Garbally Road, Unit A",Victoria,BC,V8T 2J9,"485A Garbally Road, Unit A, Victoria, BC, V8T 2J9",250-800-5309,http://www.callawayplumbinganddrains.ca/,"Plumbers & Plumbing Contractors, Drain & Sewer Cleaning, More…",FALSE,plumber,victoria BC
Milani Electrical Solar & Roofing,104382620,https://www.yellowpages.ca/bus/British-Columbia/Milani-Electrical-Solar-Roofing/104382620.html?what=plumber&where=Victoria+BC&useContext=true,N/A,N/A,N/A,N/A,N/A,778-486-1130,https://milanielectric.com/,"Plumbers & Plumbing Contractors, Electricians & Electrical Contractors, More…",FALSE,plumber,victoria BC
Mr Plumber Inc,1095248,https://www.yellowpages.ca/bus/British-Columbia/Burnaby/Mr-Plumber-Inc/1095248.html?what=plumber&where=Victoria+BC&useContext=true,4388 Buchanan Street,Burnaby,BC,V5C 6R8,"4388 Buchanan Street, Burnaby, BC, V5C 6R8",604-229-7801,https://mrplumbervancouver.ca/,Plumbers & Plumbing Contractors,FALSE,plumber,victoria BC
Auger Plumbing and Heating,101191922,https://www.yellowpages.ca/bus/British-Columbia/Vernon/Auger-Plumbing-and-Heating/101191922.html?what=plumber&where=Victoria+BC&useContext=true,7342 Longacre Dr,Vernon,BC,V1H 1H5,"7342 Longacre Dr, Vernon, BC, V1H 1H5",778-506-2793,http://augerplumbingandheating.ca/,"Plumbers & Plumbing Contractors, Heating Contractors, More…",FALSE,plumber,victoria BC
MacNeil Plumbing and Heating,104575091,https://www.yellowpages.ca/bus/British-Columbia/Victoria/MacNeil-Plumbing-and-Heating/104575091.html?what=plumber&where=Victoria+BC&useContext=true,2572 Blackwood St,Victoria,BC,V8T 3W1,"2572 Blackwood St, Victoria, BC, V8T 3W1",778-989-0027,https://macneilplumbingandheating.ca/,Plumbers & Plumbing Contractors,FALSE,plumber,victoria BC
Hillside Plumbing Services,7422335,https://www.yellowpages.ca/bus/British-Columbia/Hillside-Plumbing-Services/7422335.html?what=plumber&where=Victoria+BC&useContext=true,N/A,N/A,N/A,N/A,N/A,250-881-5778,http://www.facebook.com/194081577643926,Plumbers & Plumbing Contractors,FALSE,plumber,victoria BC
Griffin M Ltd,7860445,https://www.yellowpages.ca/bus/British-Columbia/Victoria/Griffin-M-Ltd/7860445.html?what=plumber&where=Victoria+BC&useContext=true,3-2333 Government St,Victoria,BC,V8T 4P4,"3-2333 Government St, Victoria, BC, V8T 4P4","250-382-2515,250-382-5159",N/A,"Plumbers & Plumbing Contractors, Sheet Metal Work",FALSE,plumber,victoria BC
Gillis Plumbing Ltd,7533178,https://www.yellowpages.ca/bus/British-Columbia/Gillis-Plumbing-Ltd/7533178.html?what=plumber&where=Victoria+BC&useContext=true,N/A,N/A,N/A,N/A,N/A,250-889-3205,N/A,Plumbers & Plumbing Contractors,FALSE,plumber,victoria BC
Earthservice Drainmaster Inc,5222044,https://www.yellowpages.ca/bus/British-Columbia/Victoria/Earthservice-Drainmaster-Inc/5222044.html?what=plumber&where=Victoria+BC&useContext=true,6459 Patricia Bay Hwy,Victoria,BC,V8Y 1T8,"6459 Patricia Bay Hwy, Victoria, BC, V8Y 1T8",250-474-9403,https://www.yellowpages.ca,"Plumbers & Plumbing Contractors, Sewer Contractors, More…",FALSE,plumber,victoria BC
Richard's Island Perimeter Drains,8057429,https://www.yellowpages.ca/bus/British-Columbia/Duncan/Richard-s-Island-Perimeter-Drains/8057429.html?what=plumber&where=Victoria+BC&useContext=true,5580 Riverbottom Rd,Duncan,BC,V9L 6J5,"5580 Riverbottom Rd, Duncan, BC, V9L 6J5",1-800-867-8084,http://richardsipd.ca/,"Plumbers & Plumbing Contractors, Drain & Sewer Cleaning",FALSE,plumber,victoria BC
Bridgeman Heating & Gas,101494242,https://www.yellowpages.ca/bus/British-Columbia/Victoria/Bridgeman-Heating-Gas/101494242.html?what=plumber&where=Victoria+BC&useContext=true,43 Cadillac Avenue,Victoria,BC,V8Z 1T3,"43 Cadillac Avenue, Victoria, BC, V8Z 1T3",250-800-3180,http://bridgemanplumbing.ca/,"Plumbers & Plumbing Contractors, Heat Pump Systems, More…",FALSE,plumber,victoria BC
Northern Star Plumbing Gas Service,5360966,https://www.yellowpages.ca/bus/British-Columbia/Victoria/Northern-Star-Plumbing-Gas-Service/5360966.html?what=plumber&where=Victoria+BC&useContext=true,2908 Pickford Rd,Victoria,BC,V9B 2K2,"2908 Pickford Rd, Victoria, BC, V9B 2K2","250-883-4347,778-400-6435",http://www.northernstarplumbing.ca/,"Plumbers & Plumbing Contractors, Gas Appliance Repair & Maintenance, More…",FALSE,plumber,victoria BC
A-KA Systems,7463320,https://www.yellowpages.ca/bus/British-Columbia/Saanich/A-KA-Systems/7463320.html?what=plumber&where=Victoria+BC&useContext=true,N/A,Saanich,BC,N/A,"Saanich, BC",250-383-3425,http://a-kasystems.ca/,"Plumbers & Plumbing Contractors, Water Heater Repair & Parts",FALSE,plumber,victoria BC
D Newell Plumbing & Heating,100764821,https://www.yellowpages.ca/bus/British-Columbia/D-Newell-Plumbing-Heating/100764821.html?what=plumber&where=Victoria+BC&useContext=true,N/A,N/A,N/A,N/A,N/A,250-893-2461,https://www.yellowpages.ca,"Plumbers & Plumbing Contractors, Heating Contractors",FALSE,plumber,victoria BC
Roto-Rooter Plumbing & Drain Service,104595701,https://www.yellowpages.ca/bus/British-Columbia/Roto-Rooter-Plumbing-Drain-Service/104595701.html?what=plumber&where=Victoria+BC&useContext=true,N/A,N/A,N/A,N/A,N/A,778-557-2583,N/A,"Plumbers & Plumbing Contractors, Drain & Sewer Cleaning, More…",FALSE,plumber,victoria BC
CanPol Plumbing Ltd,7279080,https://www.yellowpages.ca/bus/British-Columbia/CanPol-Plumbing-Ltd/7279080.html?what=plumber&where=Victoria+BC&useContext=true,N/A,N/A,N/A,N/A,N/A,"250-478-6167,250-999-5517",http://www.canpolplumbing.ca/,Plumbers & Plumbing Contractors,TRUE,plumber,victoria BC
Tech Mechanical Systems Ltd,2571738,https://www.yellowpages.ca/bus/British-Columbia/Victoria/Tech-Mechanical-Systems-Ltd/2571738.html?what=plumber&where=Victoria+BC&useContext=true,105-455 Banga Pl,Victoria,BC,V8Z 6X5,"105-455 Banga Pl, Victoria, BC, V8Z 6X5","250-475-3775,250-475-1011",http://www.facebook.com/216400322073819,"Plumbers & Plumbing Contractors, Mechanical Contractors, More…",TRUE,plumber,victoria BC
Wade Roberts Plumbing Ltd,1681577,https://www.yellowpages.ca/bus/British-Columbia/Saanichton/Wade-Roberts-Plumbing-Ltd/1681577.html?what=plumber&where=Victoria+BC&useContext=true,2-2200A Keating Cross Rd,Saanichton,BC,V8M 2A6,"2-2200A Keating Cross Rd, Saanichton, BC, V8M 2A6",778-746-7632,http://www.waderobertsplumbing.com/,Plumbers & Plumbing Contractors,TRUE,plumber,victoria BC
Deep Cove Plumbing & Gas,5881475,https://www.yellowpages.ca/bus/British-Columbia/North-Saanich/Deep-Cove-Plumbing-Gas/5881475.html?what=plumber&where=Victoria+BC&useContext=true,8505 Aldous Terr,North Saanich,BC,V8L 1K9,"8505 Aldous Terr, North Saanich, BC, V8L 1K9",250-655-0345,http://www.facebook.com/244553455894182,"Plumbers & Plumbing Contractors, Mechanical Contractors",TRUE,plumber,victoria BC
North Saanich Plumbing,7559961,https://www.yellowpages.ca/bus/British-Columbia/North-Saanich/North-Saanich-Plumbing/7559961.html?what=plumber&where=Victoria+BC&useContext=true,8508 Aldous Terrace,North Saanich,BC,V8L 1L1,"8508 Aldous Terrace, North Saanich, BC, V8L 1L1",250-656-4744,http://www.northsaanichplumbing.ca/,"Plumbers & Plumbing Contractors, Drain & Sewer Cleaning, More…",TRUE,plumber,victoria BC
Mr Rooter Plumbing Of Victoria,7865269,https://www.yellowpages.ca/bus/British-Columbia/Victoria/Mr-Rooter-Plumbing-Of-Victoria/7865269.html?what=plumber&where=Victoria+BC&useContext=true,602-620 Toronto St,Victoria,BC,V8V 1P7,"602-620 Toronto St, Victoria, BC, V8V 1P7",250-475-1176,https://www.mrrooter.ca/victoria/,"Plumbers & Plumbing Contractors, Drain & Sewer Cleaning, More…",TRUE,plumber,victoria BC
Williams Plumbing & Heating Services,7306960,https://www.yellowpages.ca/bus/British-Columbia/Victoria/Williams-Plumbing-Heating-Services/7306960.html?what=plumber&where=Victoria+BC&useContext=true,46B Crease Ave,Victoria,BC,V8Z 1S3,"46B Crease Ave, Victoria, BC, V8Z 1S3","250-727-2610,250-900-6732",https://www.yellowpages.ca,"Plumbers & Plumbing Contractors, Drainage Contractors, More…",TRUE,plumber,victoria BC
McMullen Mechanical,104333530,https://www.yellowpages.ca/bus/British-Columbia/Victoria/McMullen-Mechanical/104333530.html?what=plumber&where=Victoria+BC&useContext=true,5045 Prospect Lake Road,Victoria,BC,V9E 1J5,"5045 Prospect Lake Road, Victoria, BC, V9E 1J5",250-744-6176,N/A,"Plumbers & Plumbing Contractors, Gas Appliances",TRUE,plumber,victoria BC
N.B. Plumbing & Heating Ltd.,104590678,https://www.yellowpages.ca/bus/British-Columbia/N-B-Plumbing-Heating-Ltd/104590678.html?what=plumber&where=Victoria+BC&useContext=true,N/A,N/A,N/A,N/A,N/A,250-883-3515,N/A,Plumbers & Plumbing Contractors,TRUE,plumber,victoria BC
Davis Waite Plumbing Ltd,104586152,https://www.yellowpages.ca/bus/British-Columbia/Davis-Waite-Plumbing-Ltd/104586152.html?what=plumber&where=Victoria+BC&useContext=true,N/A,N/A,N/A,N/A,N/A,250-720-9282,N/A,Plumbers & Plumbing Contractors,TRUE,plumber,victoria BC
Island Plumbing & Mechanical Ltd,7277457,https://www.yellowpages.ca/bus/British-Columbia/Victoria/Island-Plumbing-Mechanical-Ltd/7277457.html?what=plumber&where=Victoria+BC&useContext=true,4429 Torquay Dr,Victoria,BC,V8N 3L3,"4429 Torquay Dr, Victoria, BC, V8N 3L3",250-721-1116,https://www.islandplumbing.net/,"Plumbers & Plumbing Contractors, Gas Fitters",TRUE,plumber,victoria BC
Tyler Mechanical Inc,100788122,https://www.yellowpages.ca/bus/British-Columbia/Victoria/Tyler-Mechanical-Inc/100788122.html?what=plumber&where=Victoria+BC&useContext=true,1046 Golden Spire Cres,Victoria,BC,V9C 0N7,"1046 Golden Spire Cres, Victoria, BC, V9C 0N7",778-400-6147,N/A,Plumbers & Plumbing Contractors,TRUE,plumber,victoria BC
Drain Pro,7690369,https://www.yellowpages.ca/bus/British-Columbia/Drain-Pro/7690369.html?what=plumber&where=Victoria+BC&useContext=true,N/A,N/A,N/A,N/A,N/A,250-984-7628,https://www.yellowpages.ca,"Plumbers & Plumbing Contractors, Drain & Sewer Cleaning, More…",TRUE,plumber,victoria BC
Phil Ballam Plumbing & Heating,3012760,https://www.yellowpages.ca/bus/British-Columbia/Phil-Ballam-Plumbing-Heating/3012760.html?what=plumber&where=Victoria+BC&useContext=true,N/A,N/A,N/A,N/A,N/A,250-800-5269,https://www.yellowpages.ca,"Plumbers & Plumbing Contractors, More…",TRUE,plumber,victoria BC
West Bay Mechanical Ltd,2614247,https://www.yellowpages.ca/bus/British-Columbia/Victoria/West-Bay-Mechanical-Ltd/2614247.html?what=plumber&where=Victoria+BC&useContext=true,584 Ledsham Rd,Victoria,BC,V9C 1J8,"584 Ledsham Rd, Victoria, BC, V9C 1J8",778-402-8961,https://www.yellowpages.ca,"Plumbers & Plumbing Contractors, More…",TRUE,plumber,victoria BC
Pross Renovations Ltd,102917902,https://www.yellowpages.ca/bus/British-Columbia/Pross-Renovations-Ltd/102917902.html?what=plumber&where=Victoria+BC&useContext=true,N/A,N/A,N/A,N/A,N/A,250-984-8931,https://prossreno.com/,"Plumbers & Plumbing Contractors, More…",TRUE,plumber,victoria BC
Riptide Plumbing Ltd,102128953,https://www.yellowpages.ca/bus/British-Columbia/Sooke/Riptide-Plumbing-Ltd/102128953.html?what=plumber&where=Victoria+BC&useContext=true,6735 Steeple Chase,Sooke,BC,V9Z 0W3,"6735 Steeple Chase, Sooke, BC, V9Z 0W3",250-419-9863,http://www.riptideplumbing.ca/,Plumbers & Plumbing Contractors,TRUE,plumber,victoria BC
Sooke Coastal Plumbing and Gas,101876843,https://www.yellowpages.ca/bus/British-Columbia/Sooke/Sooke-Coastal-Plumbing-and-Gas/101876843.html?what=plumber&where=Victoria+BC&useContext=true,2394 French Rd N,Sooke,BC,V9Z 0M5,"2394 French Rd N, Sooke, BC, V9Z 0M5",778-557-8897,http://www.sookeplumbing.ca/,Plumbers & Plumbing Contractors,TRUE,plumber,victoria BC
HomeWise Plumbing & Drainage Services,6200129,https://www.yellowpages.ca/bus/British-Columbia/Sooke/HomeWise-Plumbing-Drainage-Services/6200129.html?what=plumber&where=Victoria+BC&useContext=true,916 Gillespie Rd,Sooke,BC,V9Z 0Z5,"916 Gillespie Rd, Sooke, BC, V9Z 0Z5",778-486-1120,http://www.homewiseplumbing.ca/,Plumbers & Plumbing Contractors,TRUE,plumber,victoria BC
Roto-Rooter Plumbing & Drain Service,102358498,https://www.yellowpages.ca/bus/British-Columbia/Roto-Rooter-Plumbing-Drain-Service/102358498.html?what=plumber&where=Victoria+BC&useContext=true,N/A,N/A,BC,V9A 1Z8,"BC, V9A 1Z8",250-385-3958,https://www.yellowpages.ca,"Plumbers & Plumbing Contractors, More…",TRUE,plumber,victoria BC
Roundabout Plumbing and Heating Ltd.,104587915,https://www.yellowpages.ca/bus/British-Columbia/Sooke/Roundabout-Plumbing-and-Heating-Ltd/104587915.html?what=plumber&where=Victoria+BC&useContext=true,5624 Woodlands Rd,Sooke,BC,V9Z 0G5,"5624 Woodlands Rd, Sooke, BC, V9Z 0G5",778-746-1841,N/A,Plumbers & Plumbing Contractors,TRUE,plumber,victoria BC
"Milani Plumbing, Heating & Air Conditioning",103056065,https://www.yellowpages.ca/bus/British-Columbia/Victoria/Milani-Plumbing-Heating-Air-Conditioning/103056065.html?what=plumber&where=Victoria+BC&useContext=true&networkId=6599,201-1806 Vancouver St,Victoria,BC,V8T 5E3,"201-1806 Vancouver St, Victoria, BC, V8T 5E3",778-400-6099,https://www.yellowpages.ca,"Plumbers & Plumbing Contractors, More…",TRUE,plumber,victoria BC
Plomberie Pierre Carmel Enr,100504759,https://www.yellowpages.ca/bus/Quebec/Plomberie-Pierre-Carmel-Enr/100504759.html?what=plumber&where=Laval+QC&useContext=true,N/A,N/A,N/A,N/A,N/A,450-688-0956,N/A,Plumbers & Plumbing Contractors,FALSE,plumber,laval QC
Plomberie Johann Walitsch Inc,100504849,https://www.yellowpages.ca/bus/Quebec/Plomberie-Johann-Walitsch-Inc/100504849.html?what=plumber&where=Laval+QC&useContext=true,N/A,N/A,N/A,N/A,N/A,450-622-9730,N/A,Plumbers & Plumbing Contractors,FALSE,plumber,laval QC
Plomberie J D Inc,101337962,https://www.yellowpages.ca/bus/Quebec/Plomberie-J-D-Inc/101337962.html?what=plumber&where=Laval+QC&useContext=true,N/A,N/A,N/A,N/A,N/A,450-662-1955,N/A,Plumbers & Plumbing Contractors,FALSE,plumber,laval QC
Plomberie Michel Roy Inc,100507866,https://www.yellowpages.ca/bus/Quebec/Plomberie-Michel-Roy-Inc/100507866.html?what=plumber&where=Laval+QC&useContext=true,N/A,N/A,N/A,N/A,N/A,450-621-3990,N/A,Plumbers & Plumbing Contractors,FALSE,plumber,laval QC
Plomberie Daniel Lalonde Inc,101047989,https://www.yellowpages.ca/bus/Quebec/Plomberie-Daniel-Lalonde-Inc/101047989.html?what=plumber&where=Laval+QC&useContext=true,N/A,N/A,N/A,N/A,N/A,514-444-3076,N/A,Plumbers & Plumbing Contractors,FALSE,plumber,laval QC
Expert Plombier à Laval,100870183,https://www.yellowpages.ca/bus/Quebec/Expert-Plombier-a-Laval/100870183.html?what=plumber&where=Laval+QC&useContext=true,N/A,N/A,N/A,N/A,N/A,450-235-0666,N/A,Plumbers & Plumbing Contractors,FALSE,plumber,laval QC
Plomberie M-A Ouellet,101242610,https://www.yellowpages.ca/bus/Quebec/Laval/Plomberie-M-A-Ouellet/101242610.html?what=plumber&where=Laval+QC&useContext=true,12 place le Royer,Laval,QC,H7M 1Z4,"12 place le Royer, Laval, QC, H7M 1Z4","438-495-1037,438-495-9715",N/A,Plumbers & Plumbing Contractors,FALSE,plumber,laval QC
Plomberie Michel Roy Inc,6945681,https://www.yellowpages.ca/bus/Quebec/Laval/Plomberie-Michel-Roy-Inc/6945681.html?what=plumber&where=Laval+QC&useContext=true,"4516, rue Fafard",Laval,QC,H7T 2K3,"4516, rue Fafard, Laval, QC, H7T 2K3",450-992-8635,N/A,Plumbers & Plumbing Contractors,FALSE,plumber,laval QC
TSA Plumbing & Heating,3484445,https://www.yellowpages.ca/bus/Quebec/Chomedey/TSA-Plumbing-Heating/3484445.html?what=plumber&where=Laval+QC&useContext=true,1315 Cr Carol,Chomedey,QC,N/A,"1315 Cr Carol, Chomedey, QC",450-687-8431,N/A,Plumbers & Plumbing Contractors,FALSE,plumber,laval QC
Plomberie Daniel Lalonde Inc,100549151,https://www.yellowpages.ca/bus/Quebec/Montreal/Plomberie-Daniel-Lalonde-Inc/100549151.html?what=plumber&where=Laval+QC&useContext=true,N/A,Montreal,QC,N/A,"Montreal, QC",514-990-2312,http://www.facebook.com/1532849356830416,Plumbers & Plumbing Contractors,FALSE,plumber,laval QC
Plomberie J Fournier Inc,102083962,https://www.yellowpages.ca/bus/Quebec/Laval/Plomberie-J-Fournier-Inc/102083962.html?what=plumber&where=Laval+QC&useContext=true,222 Boul Sainte-Rose E,Laval,QC,H7H 1P3,"222 Boul Sainte-Rose E, Laval, QC, H7H 1P3",450-622-4335,http://www.facebook.com/871505472960382,Plumbers & Plumbing Contractors,FALSE,plumber,laval QC
Can-Aqua Intl Ltee,102074171,https://www.yellowpages.ca/bus/Quebec/Laval/Can-Aqua-Intl-Ltee/102074171.html?what=plumber&where=Laval+QC&useContext=true,3208 Sud Laval (A-440) O,Laval,QC,H7T 2H6,"3208 Sud Laval (A-440) O, Laval, QC, H7T 2H6",450-688-5830,http://www.facebook.com/1280929691921638,Plumbers & Plumbing Contractors,FALSE,plumber,laval QC
Virgil Scrumeda & Fils,2047771,https://www.yellowpages.ca/bus/Quebec/Montreal/Virgil-Scrumeda-Fils/2047771.html?what=plumber&where=Laval+QC&useContext=true,N/A,Montréal,QC,N/A,"Montréal, QC",514-996-3353,http://www.virgilplumbing.com/,Plumbers & Plumbing Contractors,FALSE,plumber,laval QC
Plomberie N S R,2713529,https://www.yellowpages.ca/bus/Quebec/Laval/Plomberie-N-S-R/2713529.html?what=plumber&where=Laval+QC&useContext=true,"3730, 2E rue",Laval,QC,H7V 1H8,"3730, 2E rue, Laval, QC, H7V 1H8",450-978-3111,http://www.webimmo.ma/,Plumbers & Plumbing Contractors,FALSE,plumber,laval QC
Benoit & Nadeau Inc,2638012,https://www.yellowpages.ca/bus/Quebec/Chomedey/Benoit-Nadeau-Inc/2638012.html?what=plumber&where=Laval+QC&useContext=true,1596 de Touraine,Chomedey,QC,N/A,"1596 de Touraine, Chomedey, QC",450-667-9504,http://www.facebook.com/1329324803760987,Plumbers & Plumbing Contractors,FALSE,plumber,laval QC
Les Entreprises Léon Labrecque,6669414,https://www.yellowpages.ca/bus/Quebec/Laval/Les-Entreprises-Leon-Labrecque/6669414.html?what=plumber&where=Laval+QC&useContext=true,1640 boul St-Elzéard,Laval,QC,H7L 3N2,"1640 boul St-Elzéard, Laval, QC, H7L 3N2",450-629-3545,N/A,Plumbers & Plumbing Contractors,FALSE,plumber,laval QC
Neveu & Neveu Ltée,2666925,https://www.yellowpages.ca/bus/Quebec/Laval/Neveu-Neveu-Ltee/2666925.html?what=plumber&where=Laval+QC&useContext=true,"290, boul de la Concorde O",Laval,QC,H7N 1J1,"290, boul de la Concorde O, Laval, QC, H7N 1J1",450-669-3545,N/A,Plumbers & Plumbing Contractors,FALSE,plumber,laval QC
Groupe Mécanique S H,100535923,https://www.yellowpages.ca/bus/Quebec/Laval/Groupe-Mecanique-S-H/100535923.html?what=plumber&where=Laval+QC&useContext=true,2272 Fauteux,Laval,QC,H7T 2S6,"2272 Fauteux, Laval, QC, H7T 2S6",514-232-1009,https://www.facebook.com/pages/Groupe-Mécanique-SH/159661967986392,"Plumbers & Plumbing Contractors, Air Conditioning Contractors",FALSE,plumber,laval QC
Plomberie L'Eau Courante,2670099,https://www.yellowpages.ca/bus/Quebec/Chomedey/Plomberie-L-Eau-Courante/2670099.html?what=plumber&where=Laval+QC&useContext=true,2488 Favreau,Chomedey,QC,N/A,"2488 Favreau, Chomedey, QC",450-682-0023,http://plomberieleaucourante.com/,Plumbers & Plumbing Contractors,FALSE,plumber,laval QC
Plomberie-Chauffage HK Inc,4236406,https://www.yellowpages.ca/bus/Quebec/Montreal/Plomberie-Chauffage-HK-Inc/4236406.html?what=plumber&where=Laval+QC&useContext=true,N/A,Montréal,QC,N/A,"Montréal, QC",514-880-8422,http://www.artisanatbourgogne.fr/,Plumbers & Plumbing Contractors,FALSE,plumber,laval QC
Mondo Install Plomberie Inc,101351296,https://www.yellowpages.ca/bus/Quebec/Laval/Mondo-Install-Plomberie-Inc/101351296.html?what=plumber&where=Laval+QC&useContext=true,7769 rue des Amandiers,Laval,QC,H7A 4J2,"7769 rue des Amandiers, Laval, QC, H7A 4J2","450-664-2567,514-583-8648",http://www.facebook.com/562133564132888,Plumbers & Plumbing Contractors,FALSE,plumber,laval QC
Plomberie Chauffage Samson Inc,2670081,https://www.yellowpages.ca/bus/Quebec/Laval/Plomberie-Chauffage-Samson-Inc/2670081.html?what=plumber&where=Laval+QC&useContext=true,"3290, rue Fabien",Laval,QC,H7P 2B3,"3290, rue Fabien, Laval, QC, H7P 2B3",450-622-9393,http://www.facebook.com/247372072665981,Plumbers & Plumbing Contractors,FALSE,plumber,laval QC
Plomberie J D Inc,6460502,https://www.yellowpages.ca/bus/Quebec/Mascouche/Plomberie-J-D-Inc/6460502.html?what=plumber&where=Laval+QC&useContext=true,3533 de Rochefort,Mascouche,QC,J7K 1P2,"3533 de Rochefort, Mascouche, QC, J7K 1P2",450-961-4343,http://www.plomberiejd.com/,Plumbers & Plumbing Contractors,FALSE,plumber,laval QC
Air Ambiance Inc,100772499,https://www.yellowpages.ca/bus/Quebec/Air-Ambiance-Inc/100772499.html?what=plumber&where=Laval+QC&useContext=true,N/A,N/A,N/A,N/A,N/A,450-681-1402,N/A,Plumbers & Plumbing Contractors,FALSE,plumber,laval QC
Plomberie Lory Inc,100504030,https://www.yellowpages.ca/bus/Quebec/Plomberie-Lory-Inc/100504030.html?what=plumber&where=Laval+QC&useContext=true,N/A,N/A,N/A,N/A,N/A,514-940-5015,N/A,Plumbers & Plumbing Contractors,FALSE,plumber,laval QC
Plomberie Mega Inc,100504663,https://www.yellowpages.ca/bus/Quebec/Plomberie-Mega-Inc/100504663.html?what=plumber&where=Laval+QC&useContext=true,N/A,N/A,N/A,N/A,N/A,450-963-7120,N/A,Plumbers & Plumbing Contractors,FALSE,plumber,laval QC
Plomberie Marc Tardif,100507774,https://www.yellowpages.ca/bus/Quebec/Laval/Plomberie-Marc-Tardif/100507774.html?what=plumber&where=Laval+QC&useContext=true,N/A,Laval,QC,N/A,"Laval, QC",450-492-1008,N/A,Plumbers & Plumbing Contractors,FALSE,plumber,laval QC
Plombier Urgence Laval,100516833,https://www.yellowpages.ca/bus/Quebec/Plombier-Urgence-Laval/100516833.html?what=plumber&where=Laval+QC&useContext=true,N/A,N/A,N/A,N/A,N/A,514-600-5899,N/A,Plumbers & Plumbing Contractors,FALSE,plumber,laval QC
Lambert & Gibeau,100504978,https://www.yellowpages.ca/bus/Quebec/Lambert-Gibeau/100504978.html?what=plumber&where=Laval+QC&useContext=true,N/A,N/A,N/A,N/A,N/A,450-628-9383,N/A,Plumbers & Plumbing Contractors,FALSE,plumber,laval QC
Plomberie S Biard,100516412,https://www.yellowpages.ca/bus/Quebec/Plomberie-S-Biard/100516412.html?what=plumber&where=Laval+QC&useContext=true,N/A,N/A,N/A,N/A,N/A,514-979-6063,N/A,Plumbers & Plumbing Contractors,FALSE,plumber,laval QC
Najib Le Plombier,100653099,https://www.yellowpages.ca/bus/Quebec/Najib-Le-Plombier/100653099.html?what=plumber&where=Laval+QC&useContext=true,N/A,N/A,N/A,N/A,N/A,514-512-1126,N/A,Plumbers & Plumbing Contractors,FALSE,plumber,laval QC
A & L Plomberie Inc,100535785,https://www.yellowpages.ca/bus/Quebec/A-L-Plomberie-Inc/100535785.html?what=plumber&where=Laval+QC&useContext=true,N/A,N/A,N/A,N/A,N/A,450-231-0543,N/A,"Plumbers & Plumbing Contractors, Frozen Pipe Thawing, More…",FALSE,plumber,laval QC
Plombier A Montreal,100562657,https://www.yellowpages.ca/bus/Quebec/Plombier-A-Montreal/100562657.html?what=plumber&where=Laval+QC&useContext=true,N/A,N/A,N/A,N/A,N/A,514-574-0715,N/A,Plumbers & Plumbing Contractors,FALSE,plumber,laval QC
Plomberie PND Inc,100726437,https://www.yellowpages.ca/bus/Quebec/Plomberie-PND-Inc/100726437.html?what=plumber&where=Laval+QC&useContext=true,N/A,N/A,N/A,N/A,N/A,514-815-6144,N/A,Plumbers & Plumbing Contractors,FALSE,plumber,laval QC
Plomberie Débouchage Experts,100831455,https://www.yellowpages.ca/bus/Quebec/Plomberie-Debouchage-Experts/100831455.html?what=plumber&where=Laval+QC&useContext=true,N/A,N/A,N/A,N/A,N/A,514-347-2110,N/A,Plumbers & Plumbing Contractors,FALSE,plumber,laval QC
Plomberie Roger Roy,7010751,https://www.yellowpages.ca/bus/Quebec/Montreal/Plomberie-Roger-Roy/7010751.html?what=plumber&where=Laval+QC&useContext=true,N/A,Montréal,QC,N/A,"Montréal, QC",514-995-6237,N/A,Plumbers & Plumbing Contractors,FALSE,plumber,laval QC
Sarp Drainamar Plomberie,101046041,https://www.yellowpages.ca/bus/Quebec/Sarp-Drainamar-Plomberie/101046041.html?what=plumber&where=Laval+QC&useContext=true,N/A,N/A,N/A,N/A,N/A,450-622-3894,N/A,Plumbers & Plumbing Contractors,FALSE,plumber,laval QC
Plombier A Terrebonne,100563167,https://www.yellowpages.ca/bus/Quebec/Plombier-A-Terrebonne/100563167.html?what=plumber&where=Laval+QC&useContext=true,N/A,N/A,N/A,N/A,N/A,514-627-0665,N/A,Plumbers & Plumbing Contractors,FALSE,plumber,laval QC
Plomberie Du Havre,102314561,https://www.yellowpages.ca/bus/Quebec/Saint-Colomban/Plomberie-Du-Havre/102314561.html?what=plumber&where=Laval+QC&useContext=true,199 Rue Du Hâvre,Saint-Colomban,QC,J5K 2V8,"199 Rue Du Hâvre, Saint-Colomban, QC, J5K 2V8",450-412-2677,N/A,Plumbers & Plumbing Contractors,FALSE,plumber,laval QC
Plomberie Laumax Inc,100507138,https://www.yellowpages.ca/bus/Quebec/Mascouche/Plomberie-Laumax-Inc/100507138.html?what=plumber&where=Laval+QC&useContext=true,"270, ch Pincourt",Mascouche,QC,J7L 2W1,"270, ch Pincourt, Mascouche, QC, J7L 2W1",450-474-8338,N/A,Plumbers & Plumbing Contractors,FALSE,plumber,laval QC
G Larocque Plomberie,101530097,https://www.yellowpages.ca/bus/Quebec/Laval/G-Larocque-Plomberie/101530097.html?what=plumber&where=Laval+QC&useContext=true,"612, rue Maisonneuve",Laval,QC,H7X 1N7,"612, rue Maisonneuve, Laval, QC, H7X 1N7",450-681-3928,N/A,Plumbers & Plumbing Contractors,FALSE,plumber,laval QC
Societe Immobiliere Latella,101244999,https://www.yellowpages.ca/bus/Quebec/Chomedey/Societe-Immobiliere-Latella/101244999.html?what=plumber&where=Laval+QC&useContext=true,3460 BdleCarrefour,Chomedey,QC,N/A,"3460 BdleCarrefour, Chomedey, QC",450-688-3729,N/A,Plumbers & Plumbing Contractors,FALSE,plumber,laval QC
Plomberie Aqua Expert,100829932,https://www.yellowpages.ca/bus/Quebec/Plomberie-Aqua-Expert/100829932.html?what=plumber&where=Laval+QC&useContext=true,N/A,N/A,N/A,N/A,N/A,514-435-0548,N/A,Plumbers & Plumbing Contractors,FALSE,plumber,laval QC
Rémi Cloutier Plomberie,101040726,https://www.yellowpages.ca/bus/Quebec/Remi-Cloutier-Plomberie/101040726.html?what=plumber&where=Laval+QC&useContext=true,N/A,N/A,N/A,N/A,N/A,450-622-9053,http://www.facebook.com/196570427391952,Plumbers & Plumbing Contractors,FALSE,plumber,laval QC
Groupe FGLS Inc,101683180,https://www.yellowpages.ca/bus/Quebec/Boisbriand/Groupe-FGLS-Inc/101683180.html?what=plumber&where=Laval+QC&useContext=true,755 boul du Curé-Boivin,Boisbriand,QC,J7G 2J2,"755 boul du Curé-Boivin, Boisbriand, QC, J7G 2J2",450-939-6342,https://www.facebook.com/GroupeFGLS/,Plumbers & Plumbing Contractors,FALSE,plumber,laval QC
Plomberie Crone Inc,7902508,https://www.yellowpages.ca/bus/Quebec/Laval/Plomberie-Crone-Inc/7902508.html?what=plumber&where=Laval+QC&useContext=true,"3917, boul Léman",Laval,QC,H7E 4V7,"3917, boul Léman, Laval, QC, H7E 4V7",450-936-1630,http://www.facebook.com/446474032143787,Plumbers & Plumbing Contractors,FALSE,plumber,laval QC
Service Dunor Inc,3986846,https://www.yellowpages.ca/bus/Quebec/Pont-Viau/Service-Dunor-Inc/3986846.html?what=plumber&where=Laval+QC&useContext=true,"553, rue Hubert",Pont Viau,QC,H7G 2Z2,"553, rue Hubert, Pont Viau, QC, H7G 2Z2",514-385-0038,https://www.facebook.com/pages/Service-Dunor-Inc/832502420211533,"Plumbers & Plumbing Contractors, Air Conditioning Contractors",FALSE,plumber,laval QC
Plomberie Evolution Inc,8150617,https://www.yellowpages.ca/bus/Quebec/Plomberie-Evolution-Inc/8150617.html?what=plumber&where=Laval+QC&useContext=true,N/A,N/A,N/A,N/A,N/A,450-314-1121,N/A,Plumbers & Plumbing Contractors,FALSE,plumber,laval QC
Pci Blanchet Inc,101578172,https://www.yellowpages.ca/bus/Quebec/Laval/Pci-Blanchet-Inc/101578172.html?what=plumber&where=Laval+QC&useContext=true,1510 rue Michelin,Laval,QC,H7L 4R3,"1510 rue Michelin, Laval, QC, H7L 4R3",450-687-1510,N/A,Plumbers & Plumbing Contractors,FALSE,plumber,laval QC
Ge-Mo Plomberie,1245054,https://www.yellowpages.ca/bus/Quebec/Laval/Ge-Mo-Plomberie/1245054.html?what=plumber&where=Laval+QC&useContext=true,530 rue Monty,Laval,QC,H7A 2C3,"530 rue Monty, Laval, QC, H7A 2C3",450-665-2979,http://www.facebook.com/1932270987073794,"Plumbers & Plumbing Contractors, Building Contractors",FALSE,plumber,laval QC
Plomberie Drainage MVL,100449954,https://www.yellowpages.ca/bus/Quebec/Laval/Plomberie-Drainage-MVL/100449954.html?what=plumber&where=Laval+QC&useContext=true,"140-2090, rue Mayfield",Laval,QC,H7T 1K5,"140-2090, rue Mayfield, Laval, QC, H7T 1K5",514-701-4550,http://www.facebook.com/1962600427194449,Plumbers & Plumbing Contractors,FALSE,plumber,laval QC
Plomberie Stéphan Roy,2706459,https://www.yellowpages.ca/bus/Quebec/Laval/Plomberie-Stephan-Roy/2706459.html?what=plumber&where=Laval+QC&useContext=true,"1669, rue Brady",Laval,QC,H7R 4H1,"1669, rue Brady, Laval, QC, H7R 4H1",450-627-6503,N/A,Plumbers & Plumbing Contractors,FALSE,plumber,laval QC
El.coplomberie,102058092,https://www.yellowpages.ca/bus/Quebec/Laval/El-coplomberie/102058092.html?what=plumber&where=Laval+QC&useContext=true,1-72 Av Sauriol,Laval,QC,H7N 3B1,"1-72 Av Sauriol, Laval, QC, H7N 3B1",514-966-1112,N/A,Plumbers & Plumbing Contractors,FALSE,plumber,laval QC
Plomberie O'Agua,100510559,https://www.yellowpages.ca/bus/Quebec/Saint-Colomban/Plomberie-O-Agua/100510559.html?what=plumber&where=Laval+QC&useContext=true,123 Rue de la Cîme,Saint-Colomban,QC,J5K 1L1,"123 Rue de la Cîme, Saint-Colomban, QC, J5K 1L1","438-394-3354,450-918-7210",N/A,Plumbers & Plumbing Contractors,FALSE,plumber,laval QC
Plomberie Accèss Inc,2670066,https://www.yellowpages.ca/bus/Quebec/Chomedey/Plomberie-Access-Inc/2670066.html?what=plumber&where=Laval+QC&useContext=true,5027 4 Rue,Chomedey,QC,N/A,"5027 4 Rue, Chomedey, QC",450-682-2959,http://www.facebook.com/706984666171531,Plumbers & Plumbing Contractors,FALSE,plumber,laval QC
Plomberie René Benoît,2670122,https://www.yellowpages.ca/bus/Quebec/Laval/Plomberie-Rene-Benoit/2670122.html?what=plumber&where=Laval+QC&useContext=true,"2350, rue de Meulles",Laval,QC,H7E 1S1,"2350, rue de Meulles, Laval, QC, H7E 1S1",450-663-2686,http://www.plomberierene.onlc.fr/,Plumbers & Plumbing Contractors,FALSE,plumber,laval QC
AL Plomberie Inc,8219351,https://www.yellowpages.ca/bus/Quebec/Laval/AL-Plomberie-Inc/8219351.html?what=plumber&where=Laval+QC&useContext=true,1887 Rue Lavoie,Laval,QC,H7M 2N4,"1887 Rue Lavoie, Laval, QC, H7M 2N4",450-663-7407,http://www.alplomberie.com/,Plumbers & Plumbing Contractors,FALSE,plumber,laval QC
Plomberie Touch Debouche,100348920,https://www.yellowpages.ca/bus/Quebec/Plomberie-Touch-Debouche/100348920.html?what=plumber&where=Laval+QC&useContext=true,N/A,N/A,N/A,N/A,N/A,514-835-1073,http://www.facebook.com/317995078717064,Plumbers & Plumbing Contractors,FALSE,plumber,laval QC
Plomberie Gariépy Inc,100807852,https://www.yellowpages.ca/bus/Quebec/Fabreville/Plomberie-Gariepy-Inc/100807852.html?what=plumber&where=Laval+QC&useContext=true,1221 45e Avenue,Fabreville,QC,H7R 5A8,"1221 45e Avenue, Fabreville, QC, H7R 5A8",450-719-6140,http://www.plomberiegariepy.com/,Plumbers & Plumbing Contractors,FALSE,plumber,laval QC
DP Laval Drain,4096652,https://www.yellowpages.ca/bus/Quebec/Laval/DP-Laval-Drain/4096652.html?what=plumber&where=Laval+QC&useContext=true,1271 Rue Lafontaine,Laval,QC,H7Y 1N2,"1271 Rue Lafontaine, Laval, QC, H7Y 1N2","450-689-2996,514-947-1955",https://www.yellowpages.ca,"Plumbers & Plumbing Contractors, Sewer Cleaning Equipment & Service",FALSE,plumber,laval QC
Télé-Égout Inc,2933518,https://www.yellowpages.ca/bus/Quebec/Laval/Tele-Egout-Inc/2933518.html?what=plumber&where=Laval+QC&useContext=true,3877 rang Saint-Elzéar E,Laval,QC,H7E 4P2,"3877 rang Saint-Elzéar E, Laval, QC, H7E 4P2","514-279-7113,450-661-8277,450-661-8279",https://www.tele-egout.ca/,Plumbers & Plumbing Contractors,FALSE,plumber,laval QC
Groupe Mon Plombier,6226570,https://www.yellowpages.ca/bus/Quebec/Groupe-Mon-Plombier/6226570.html?what=plumber&where=Laval+QC&useContext=true,N/A,N/A,N/A,N/A,N/A,450-471-6748,http://www.facebook.com/profile.php?id=320120311488268,Plumbers & Plumbing Contractors,FALSE,plumber,laval QC
Drain 5 Étoiles,8145247,https://www.yellowpages.ca/bus/Quebec/Drain-5-Etoiles/8145247.html?what=plumber&where=Laval+QC&useContext=true,N/A,N/A,N/A,N/A,N/A,514-316-1043,https://www.yellowpages.ca,"Plumbers & Plumbing Contractors, Drain & Sewer Cleaning",FALSE,plumber,laval QC
Plomberie PND Inc,4982155,https://www.yellowpages.ca/bus/Quebec/Laval/Plomberie-PND-Inc/4982155.html?what=plumber&where=Laval+QC&useContext=true,"3020, boul Cartier O",Laval,QC,H7V 1J2,"3020, boul Cartier O, Laval, QC, H7V 1J2","450-681-6144,450-314-1310",http://plomberiepnd.ca/,"Plumbers & Plumbing Contractors, Drain & Sewer Cleaning, More…",FALSE,plumber,laval QC
Plombier Daniel,100516938,https://www.yellowpages.ca/bus/Quebec/Plombier-Daniel/100516938.html?what=plumber&where=Laval+QC&useContext=true,N/A,N/A,N/A,N/A,N/A,514-267-1176,N/A,Plumbers & Plumbing Contractors,FALSE,plumber,laval QC
Plomberie FGV,100504241,https://www.yellowpages.ca/bus/Quebec/Plomberie-FGV/100504241.html?what=plumber&where=Laval+QC&useContext=true,N/A,N/A,N/A,N/A,N/A,514-269-8899,N/A,Plumbers & Plumbing Contractors,FALSE,plumber,laval QC
Plomberie Alo,100494540,https://www.yellowpages.ca/bus/Quebec/Plomberie-Alo/100494540.html?what=plumber&where=Laval+QC&useContext=true,N/A,N/A,N/A,N/A,N/A,450-686-4997,N/A,Plumbers & Plumbing Contractors,FALSE,plumber,laval QC
Plomberier 30,100512624,https://www.yellowpages.ca/bus/Quebec/Plomberier-30/100512624.html?what=plumber&where=Laval+QC&useContext=true,N/A,N/A,N/A,N/A,N/A,438-936-7563,N/A,Plumbers & Plumbing Contractors,FALSE,plumber,laval QC
Plomberie Laval,100505187,https://www.yellowpages.ca/bus/Quebec/Plomberie-Laval/100505187.html?what=plumber&where=Laval+QC&useContext=true,N/A,N/A,N/A,N/A,N/A,514-473-1115,N/A,Plumbers & Plumbing Contractors,FALSE,plumber,laval QC
Bob Plomberie,100503903,https://www.yellowpages.ca/bus/Quebec/Bob-Plomberie/100503903.html?what=plumber&where=Laval+QC&useContext=true,N/A,N/A,N/A,N/A,N/A,450-628-0153,N/A,Plumbers & Plumbing Contractors,FALSE,plumber,laval QC
Plombier Laval,100504741,https://www.yellowpages.ca/bus/Quebec/Plombier-Laval/100504741.html?what=plumber&where=Laval+QC&useContext=true,N/A,N/A,N/A,N/A,N/A,514-578-0049,N/A,Plumbers & Plumbing Contractors,FALSE,plumber,laval QC
Plomberie Fadel,100653957,https://www.yellowpages.ca/bus/Quebec/Plomberie-Fadel/100653957.html?what=plumber&where=Laval+QC&useContext=true,N/A,N/A,N/A,N/A,N/A,514-594-2850,N/A,Plumbers & Plumbing Contractors,FALSE,plumber,laval QC
Plomberie Cantley,100836501,https://www.yellowpages.ca/bus/Quebec/Plomberie-Cantley/100836501.html?what=plumber&where=Laval+QC&useContext=true,N/A,N/A,N/A,N/A,N/A,819-671-1194,N/A,Plumbers & Plumbing Contractors,FALSE,plumber,laval QC
Plomberie Harrisson,8179380,https://www.yellowpages.ca/bus/Quebec/Plomberie-Harrisson/8179380.html?what=plumber&where=Laval+QC&useContext=true,N/A,N/A,N/A,N/A,N/A,450-478-2760,N/A,Plumbers & Plumbing Contractors,FALSE,plumber,laval QC
Plomberie Mongi,100992347,https://www.yellowpages.ca/bus/Quebec/Plomberie-Mongi/100992347.html?what=plumber&where=Laval+QC&useContext=true,N/A,N/A,N/A,N/A,N/A,450-665-9815,N/A,Plumbers & Plumbing Contractors,FALSE,plumber,laval QC
Plomberie Boulay,100562182,https://www.yellowpages.ca/bus/Quebec/Plomberie-Boulay/100562182.html?what=plumber&where=Laval+QC&useContext=true,N/A,N/A,N/A,N/A,N/A,514-966-9999,N/A,Plumbers & Plumbing Contractors,FALSE,plumber,laval QC
Louis Gentil,100399448,https://www.yellowpages.ca/bus/Quebec/Louis-Gentil/100399448.html?what=plumber&where=Laval+QC&useContext=true,N/A,N/A,N/A,N/A,N/A,450-628-2193,N/A,Plumbers & Plumbing Contractors,FALSE,plumber,laval QC
Plomberie LCP,100537428,https://www.yellowpages.ca/bus/Quebec/Plomberie-LCP/100537428.html?what=plumber&where=Laval+QC&useContext=true,N/A,N/A,N/A,N/A,N/A,450-818-8853,N/A,Plumbers & Plumbing Contractors,FALSE,plumber,laval QC
Gorl'eau,5830483,https://www.yellowpages.ca/bus/Quebec/Montreal/Gorl-eau/5830483.html?what=plumber&where=Laval+QC&useContext=true,N/A,Montréal,QC,N/A,"Montréal, QC","450-475-0236,514-770-4011",http://www.gorleau.com/,Plumbers & Plumbing Contractors,FALSE,plumber,laval QC
Plomberie JDelcourt,7570920,https://www.yellowpages.ca/bus/Quebec/Laval/Plomberie-JDelcourt/7570920.html?what=plumber&where=Laval+QC&useContext=true,440 Rue Branly,Laval,QC,H7N 2E5,"440 Rue Branly, Laval, QC, H7N 2E5",450-933-8080,http://gdelcourt.ca/,Plumbers & Plumbing Contractors,FALSE,plumber,laval QC
JA Plumbing,100364786,https://www.yellowpages.ca/bus/Quebec/Laval/JA-Plumbing/100364786.html?what=plumber&where=Laval+QC&useContext=true,"1380, rue Hennessy",Laval,QC,H7W 4N2,"1380, rue Hennessy, Laval, QC, H7W 4N2",514-806-7210,http://www.facebook.com/1603322089993013,Plumbers & Plumbing Contractors,FALSE,plumber,laval QC
Plomberie Terra,8011798,https://www.yellowpages.ca/bus/Quebec/Laval/Plomberie-Terra/8011798.html?what=plumber&where=Laval+QC&useContext=true,4040 Rue Cyrille Delage,Laval,QC,H7K 3L2,"4040 Rue Cyrille Delage, Laval, QC, H7K 3L2",514-830-0333,N/A,"Plumbers & Plumbing Contractors, Plumbing Fixture & Supply Stores",FALSE,plumber,laval QC
Batimec Plomberie & Chauffage,7235160,https://www.yellowpages.ca/bus/Quebec/Laval/Batimec-Plomberie-Chauffage/7235160.html?what=plumber&where=Laval+QC&useContext=true,1209 Rue Anita,Laval,QC,H7X 3Z4,"1209 Rue Anita, Laval, QC, H7X 3Z4",450-314-3587,http://www.batimec.com/,"Plumbers & Plumbing Contractors, Building Contractors",FALSE,plumber,laval QC
Ckcl Plombier,100320604,https://www.yellowpages.ca/bus/Quebec/Laval/Ckcl-Plombier/100320604.html?what=plumber&where=Laval+QC&useContext=true,"1850, boul René-Laennec",Laval,QC,H7M 3K3,"1850, boul René-Laennec, Laval, QC, H7M 3K3",450-600-0514,http://www.ckcl.ca/,Plumbers & Plumbing Contractors,FALSE,plumber,laval QC
Prosan Inc,100876405,https://www.yellowpages.ca/bus/Quebec/Prosan-Inc/100876405.html?what=plumber&where=Laval+QC&useContext=true,N/A,N/A,N/A,N/A,N/A,450-978-7067,N/A,Plumbers & Plumbing Contractors,FALSE,plumber,laval QC
Plomberie RPM,100914833,https://www.yellowpages.ca/bus/Quebec/Laval/Plomberie-RPM/100914833.html?what=plumber&where=Laval+QC&useContext=true,3927 boul Leman,Laval,QC,H7E 4V7,"3927 boul Leman, Laval, QC, H7E 4V7",514-622-8911,http://plomberierpm.ca/,Plumbers & Plumbing Contractors,FALSE,plumber,laval QC
Plomberie Farkas,6447655,https://www.yellowpages.ca/bus/Quebec/Laval/Plomberie-Farkas/6447655.html?what=plumber&where=Laval+QC&useContext=true,1467 rue Cunard,Laval,QC,H7S 2H8,"1467 rue Cunard, Laval, QC, H7S 2H8","450-629-8883,450-629-1744",https://farkasplumbing.com/,Plumbers & Plumbing Contractors,FALSE,plumber,laval QC
Plomberie G.N.,101887655,https://www.yellowpages.ca/bus/Quebec/Laval/Plomberie-G-N/101887655.html?what=plumber&where=Laval+QC&useContext=true,125 Savoie,Laval,QC,H7M 1G5,"125 Savoie, Laval, QC, H7M 1G5",514-550-7176,http://plomberiegn.ca/,Plumbers & Plumbing Contractors,FALSE,plumber,laval QC
Plomberie Technika,100570510,https://www.yellowpages.ca/bus/Quebec/Laval/Plomberie-Technika/100570510.html?what=plumber&where=Laval+QC&useContext=true,"5-4948, boul Notre-Dame",Laval,QC,H7W 1V5,"5-4948, boul Notre-Dame, Laval, QC, H7W 1V5",514-659-9008,http://www.plomberietechnika.com/,Plumbers & Plumbing Contractors,FALSE,plumber,laval QC
Drain MPR,100791180,https://www.yellowpages.ca/bus/Quebec/Drain-MPR/100791180.html?what=plumber&where=Laval+QC&useContext=true,N/A,N/A,N/A,N/A,N/A,514-777-4450,http://drainmpr.ca/,Plumbers & Plumbing Contractors,FALSE,plumber,laval QC
Rojec,4098185,https://www.yellowpages.ca/bus/Quebec/Rojec/4098185.html?what=plumber&where=Laval+QC&useContext=true,N/A,N/A,N/A,N/A,N/A,450-963-4448,N/A,Plumbers & Plumbing Contractors,FALSE,plumber,laval QC
iPlomberie,101247726,https://www.yellowpages.ca/bus/Quebec/Laval/iPlomberie/101247726.html?what=plumber&where=Laval+QC&useContext=true,4204 rue Bertin,Laval,QC,H7W 0H5,"4204 rue Bertin, Laval, QC, H7W 0H5",514-261-1843,http://www.iplomberie.ca/,Plumbers & Plumbing Contractors,FALSE,plumber,laval QC
Les Entreprises Bitechnique,7269749,https://www.yellowpages.ca/bus/Quebec/Blainville/Les-Entreprises-Bitechnique/7269749.html?what=plumber&where=Laval+QC&useContext=true,"33, rue d'Amboise",Blainville,QC,J7B 1Y1,"33, rue d'Amboise, Blainville, QC, J7B 1Y1",450-971-6565,N/A,Plumbers & Plumbing Contractors,FALSE,plumber,laval QC
Plomberie Trudel Yvon Inc,1245478,https://www.yellowpages.ca/bus/Quebec/Laval/Plomberie-Trudel-Yvon-Inc/1245478.html?what=plumber&where=Laval+QC&useContext=true,"4236, 3E rue",Laval,QC,H7W 2M2,"4236, 3E rue, Laval, QC, H7W 2M2",450-688-4588,http://www.facebook.com/226132688157437,Plumbers & Plumbing Contractors,FALSE,plumber,laval QC
AQUAREHAB,7199956,https://www.yellowpages.ca/bus/Quebec/Laval/AQUAREHAB/7199956.html?what=plumber&where=Laval+QC&useContext=true,"2145, rue Michelin",Laval,QC,H7L 5B8,"2145, rue Michelin, Laval, QC, H7L 5B8",450-687-5610,http://www.aquarehab.com/,Plumbers & Plumbing Contractors,FALSE,plumber,laval QC
Plomberie Entretien Bénédict Inc,100749247,https://www.yellowpages.ca/bus/Quebec/Laval/Plomberie-Entretien-Benedict-Inc/100749247.html?what=plumber&where=Laval+QC&useContext=true,"9530, boul Lévesque E SS 51",Laval,QC,H7A 4C6,"9530, boul Lévesque E SS 51, Laval, QC, H7A 4C6",514-262-2919,N/A,Plumbers & Plumbing Contractors,FALSE,plumber,laval QC
Plomberie Demartech,1244950,https://www.yellowpages.ca/bus/Quebec/Laval/Plomberie-Demartech/1244950.html?what=plumber&where=Laval+QC&useContext=true,"3240, crois Foch",Laval,QC,H7P 3C6,"3240, crois Foch, Laval, QC, H7P 3C6",514-887-9511,N/A,Plumbers & Plumbing Contractors,FALSE,plumber,laval QC
Plomberie MALV Inc,102260709,https://www.yellowpages.ca/bus/Quebec/Vaudreuil-Dorion/Plomberie-MALV-Inc/102260709.html?what=plumber&where=Laval+QC&useContext=true,101 rue des Berges,Vaudreuil-Dorion,QC,J7V 9X3,"101 rue des Berges, Vaudreuil-Dorion, QC, J7V 9X3",514-815-9968,N/A,Plumbers & Plumbing Contractors,FALSE,plumber,laval QC
Plomberie Mario Lalonde,100745565,https://www.yellowpages.ca/bus/Quebec/Plomberie-Mario-Lalonde/100745565.html?what=plumber&where=Laval+QC&useContext=true,N/A,N/A,N/A,N/A,N/A,450-625-8925,N/A,"Plumbers & Plumbing Contractors, Water Heater Dealers",FALSE,plumber,laval QC
Plomberie Gaétan Joly Inc,3374005,https://www.yellowpages.ca/bus/Quebec/Plomberie-Gaetan-Joly-Inc/3374005.html?what=plumber&where=Laval+QC&useContext=true,N/A,N/A,N/A,N/A,N/A,450-689-2668,N/A,Plumbers & Plumbing Contractors,FALSE,plumber,laval QC
Grouptech Inc,6966887,https://www.yellowpages.ca/bus/Quebec/Fabreville/Grouptech-Inc/6966887.html?what=plumber&where=Laval+QC&useContext=true,"340, boul Curé-Labelle",Fabreville,QC,H7P 2P1,"340, boul Curé-Labelle, Fabreville, QC, H7P 2P1",514-918-3264,http://www.facebook.com/145012806096547,Plumbers & Plumbing Contractors,FALSE,plumber,laval QC
Société Immobilier Latella Enr,7240249,https://www.yellowpages.ca/bus/Quebec/Chomedey/Societe-Immobilier-Latella-Enr/7240249.html?what=plumber&where=Laval+QC&useContext=true,3320 Bd le Carrefour,Chomedey,QC,H7T 0B7,"3320 Bd le Carrefour, Chomedey, QC, H7T 0B7",450-682-5202,http://www.villalatella.com/,Plumbers & Plumbing Contractors,FALSE,plumber,laval QC
Plomberie Mario Lalonde,6294428,https://www.yellowpages.ca/bus/Quebec/Terrebonne/Plomberie-Mario-Lalonde/6294428.html?what=plumber&where=Laval+QC&useContext=true,1880 Rue De Chamonix,Terrebonne,QC,J6X 4N3,"1880 Rue De Chamonix, Terrebonne, QC, J6X 4N3",514-862-0541,https://www.yellowpages.ca,Plumbers & Plumbing Contractors,FALSE,plumber,laval QC
Deluxair,7013731,https://www.yellowpages.ca/bus/Quebec/Chomedey/Deluxair/7013731.html?what=plumber&where=Laval+QC&useContext=true,3700 Autoroute des Laurentides,Chomedey,QC,N/A,"3700 Autoroute des Laurentides, Chomedey, QC",450-973-9259,N/A,Plumbers & Plumbing Contractors,FALSE,plumber,laval QC
Plomberie F. Ravary Inc,3890179,https://www.yellowpages.ca/bus/Quebec/Montreal/Plomberie-F-Ravary-Inc/3890179.html?what=plumber&where=Laval+QC&useContext=true,8155 Rue Saint-Hubert,Montréal,QC,H2P 1Z1,"8155 Rue Saint-Hubert, Montréal, QC, H2P 1Z1",438-558-3769,http://plomberiefravary.ca/,"Plumbers & Plumbing Contractors, Bathroom Renovations, More…",FALSE,plumber,laval QC
Espoir Debouchage,104910232,https://www.yellowpages.ca/bus/Quebec/Montreal/Espoir-Debouchage/104910232.html?what=plumber&where=Laval+QC&useContext=true,12070 av Clément-Ader,Montréal,QC,H1E 1W9,"12070 av Clément-Ader, Montréal, QC, H1E 1W9",438-805-5266,https://www.espoirdebouchage.com/,Plumbers & Plumbing Contractors,FALSE,plumber,laval QC
Plomberie Drain Eau Inc.,104833920,https://www.yellowpages.ca/bus/Quebec/Plomberie-Drain-Eau-Inc/104833920.html?what=plumber&where=Laval+QC&useContext=true,N/A,N/A,N/A,N/A,N/A,514-566-9870,N/A,Plumbers & Plumbing Contractors,FALSE,plumber,laval QC
Plomberie Chauffage Daniel Lacombe Électrique Inc,102479990,https://www.yellowpages.ca/bus/Quebec/Laval/Plomberie-Chauffage-Daniel-Lacombe-Electrique-Inc/102479990.html?what=plumber&where=Laval+QC&useContext=true,7285 Rue Bellehumeur,Laval,QC,H7H 1Y3,"7285 Rue Bellehumeur, Laval, QC, H7H 1Y3",514-973-3633,N/A,Plumbers & Plumbing Contractors,FALSE,plumber,laval QC
Plomberie Bernard Inc,2670072,https://www.yellowpages.ca/bus/Quebec/Chomedey/Plomberie-Bernard-Inc/2670072.html?what=plumber&where=Laval+QC&useContext=true,4088 Ch du Souvenir,Chomedey,QC,N/A,"4088 Ch du Souvenir, Chomedey, QC",450-682-8333,N/A,"Plumbers & Plumbing Contractors, Heating Contractors",FALSE,plumber,laval QC
ABC Drain,2848374,https://www.yellowpages.ca/bus/Quebec/Montreal/ABC-Drain/2848374.html?what=plumber&where=Laval+QC&useContext=true,"12171, boul Laurentien",Montréal,QC,H4K 1N4,"12171, boul Laurentien, Montréal, QC, H4K 1N4",514-333-9374,N/A,Plumbers & Plumbing Contractors,FALSE,plumber,laval QC
Plomberie Potentiel Inc,102714724,https://www.yellowpages.ca/bus/Quebec/Laval/Plomberie-Potentiel-Inc/102714724.html?what=plumber&where=Laval+QC&useContext=true,6824 Rue Jean-Paul-Lemieux,Laval,QC,H7L 5P8,"6824 Rue Jean-Paul-Lemieux, Laval, QC, H7L 5P8",514-463-3014,http://plomberiepotentiel.com/,Plumbers & Plumbing Contractors,TRUE,plumber,laval QC
A & L Plomberie Inc,7540,https://www.yellowpages.ca/bus/Quebec/Laval/A-L-Plomberie-Inc/7540.html?what=plumber&where=Laval+QC&useContext=true,"1887, rue Lavoie",Laval,QC,H7M 2N4,"1887, rue Lavoie, Laval, QC, H7M 2N4",450-231-1138,https://www.yellowpages.ca,"Plumbers & Plumbing Contractors, More…",TRUE,plumber,laval QC
Plomberie Chauffage F L R Inc,2766241,https://www.yellowpages.ca/bus/Quebec/Laval/Plomberie-Chauffage-F-L-R-Inc/2766241.html?what=plumber&where=Laval+QC&useContext=true,394 Rue Antoine-Plamondon,Laval,QC,H7L 5K6,"394 Rue Antoine-Plamondon, Laval, QC, H7L 5K6",438-801-5266,https://www.yellowpages.ca,Plumbers & Plumbing Contractors,TRUE,plumber,laval QC
Drain Fortin,102719285,https://www.yellowpages.ca/bus/Quebec/Blainville/Drain-Fortin/102719285.html?what=plumber&where=Laval+QC&useContext=true,200-1060 Boul Du Curé-Labelle - Bureau 1,Blainville,QC,J7C 2M6,"200-1060 Boul Du Curé-Labelle - Bureau 1, Blainville, QC, J7C 2M6",450-987-2133,https://drainfortin.ca/,"Plumbers & Plumbing Contractors, More…",TRUE,plumber,laval QC
Plomberie Chauffage MGF Inc,7654503,https://www.yellowpages.ca/bus/Quebec/Laval/Plomberie-Chauffage-MGF-Inc/7654503.html?what=plumber&where=Laval+QC&useContext=true,1450 Avenue Francis-Hughes,Laval,QC,H7S 1N5,"1450 Avenue Francis-Hughes, Laval, QC, H7S 1N5",438-793-4859,https://www.yellowpages.ca,Plumbers & Plumbing Contractors,TRUE,plumber,laval QC
Plomberie Eric Lalonde Inc,122106,https://www.yellowpages.ca/bus/Quebec/Blainville/Plomberie-Eric-Lalonde-Inc/122106.html?what=plumber&where=Laval+QC&useContext=true,"103-20, rue Émilien-Marcoux",Blainville,QC,J7C 0B5,"103-20, rue Émilien-Marcoux, Blainville, QC, J7C 0B5","450-437-5303,450-987-2555",https://www.yellowpages.ca,Plumbers & Plumbing Contractors,TRUE,plumber,laval QC
